{"type": "FeatureCollection", "features": [{"type": "Feature", "geometry": {"type": "Polygon", "coordinates": [[[77.9573096, 16.4566562], [77.957354, 16.456623], [77.9573963, 16.4566694], [77.9574761, 16.456725], [77.9575813, 16.456778], [77.957633, 16.456807], [77.9577344, 16.4568454], [77.957854, 16.45686], [77.9579493, 16.4568791], [77.9580995, 16.456881], [77.9581719, 16.4568742], [77.958247, 16.4568584], [77.958427, 16.456795], [77.9585425, 16.4567396], [77.958716, 16.456626], [77.9588071, 16.4564926], [77.958878, 16.456357], [77.958926, 16.4562404], [77.958961, 16.4560925], [77.9589503, 16.455942], [77.9600087, 16.4558154], [77.9600031, 16.456273], [77.9599976, 16.4567306], [77.9599677, 16.4576484], [77.9599465, 16.4579228], [77.9598193, 16.4583077], [77.9596749, 16.458765], [77.959309, 16.4589198], [77.9590921, 16.4589886], [77.9588926, 16.4590459], [77.9587333, 16.4590812], [77.9585686, 16.4591025], [77.9583708, 16.4591097], [77.9581677, 16.4591182], [77.9578203, 16.4591275], [77.9576512, 16.4591254], [77.9576245, 16.4590286], [77.9577019, 16.4589486], [77.9577714, 16.4588492], [77.9578083, 16.4586737], [77.9577938, 16.4586001], [77.9576252, 16.4584529], [77.9574636, 16.4583952], [77.9573551, 16.4583954], [77.9572465, 16.4584136], [77.9570456, 16.4584503], [77.9570039, 16.4584505], [77.9569282, 16.458434], [77.956859, 16.458407], [77.9567561, 16.4583611], [77.9565994, 16.4582703], [77.9564695, 16.4582115], [77.9563343, 16.4581347], [77.9562607, 16.4580874], [77.9562206, 16.4580259], [77.9562053, 16.4579979], [77.9562007, 16.4579621], [77.9562613, 16.4578508], [77.9563165, 16.4577343], [77.9564541, 16.457456], [77.9566329, 16.4572494], [77.9569954, 16.456837], [77.9571766, 16.4567595], [77.9573096, 16.4566562]]]}, "properties": {"emu_id": "EMU_ANCHOR_Fruit_Forest", "emu_type": "ecological_anchor", "member_tile_names": ["grid_00460", "grid_00461", "grid_00462", "grid_00472", "grid_00473", "grid_00474", "grid_00475", "grid_00476", "grid_00484", "grid_00485", "grid_00486", "grid_00487", "grid_00488", "grid_00489", "grid_00495", "grid_00496", "grid_00497", "grid_00498", "grid_00499", "grid_00500", "grid_00501", "grid_00507", "grid_00508", "grid_00509", "grid_00510", "grid_00511", "grid_00512", "grid_00513", "grid_00514", "grid_00521", "grid_00522", "grid_00523", "grid_00524", "grid_00525", "grid_00526", "grid_00527", "grid_00536", "grid_00537", "grid_00538", "grid_00539", "grid_00540", "grid_00541", "grid_00542", "grid_00543", "grid_00544", "grid_00545", "grid_00555", "grid_00556", "grid_00557", "grid_00558", "grid_00559", "grid_00560", "grid_00561", "grid_00562", "grid_00563", "grid_00573", "grid_00574", "grid_00575", "grid_00576", "grid_00577", "grid_00578", "grid_00579", "grid_00580", "grid_00581", "grid_00582", "grid_00592", "grid_00593", "grid_00594", "grid_00595", "grid_00596", "grid_00597", "grid_00598", "grid_00599", "grid_00600", "grid_00601", "grid_00610", "grid_00611", "grid_00612", "grid_00613", "grid_00614", "grid_00615", "grid_00616", "grid_00617", "grid_00618", "grid_00619", "grid_00620", "grid_00626", "grid_00627", "grid_00628", "grid_00629", "grid_00630", "grid_00631", "grid_00632", "grid_00633", "grid_00634", "grid_00635", "grid_00636", "grid_00637", "grid_00638", "grid_00639", "grid_00645", "grid_00646", "grid_00647", "grid_00648", "grid_00649", "grid_00650", "grid_00651", "grid_00652", "grid_00653", "grid_00654", "grid_00655", "grid_00656", "grid_00657", "grid_00658", "grid_00664", "grid_00665", "grid_00666", "grid_00667", "grid_00668", "grid_00669", "grid_00670", "grid_00671", "grid_00672", "grid_00673", "grid_00674", "grid_00675", "grid_00676", "grid_00680", "grid_00681", "grid_00682", "grid_00683", "grid_00684", "grid_00685", "grid_00686", "grid_00687", "grid_00688", "grid_00689", "grid_00690", "grid_00691", "grid_00692", "grid_00694", "grid_00695", "grid_00696", "grid_00697", "grid_00698", "grid_00699", "grid_00700", "grid_00701", "grid_00702", "grid_00703"]}}, {"type": "Feature", "geometry": {"type": "Polygon", "coordinates": [[[77.9575976, 16.4594881], [77.9578284, 16.4595058], [77.9580806, 16.4594824], [77.9586387, 16.4593121], [77.9596691, 16.4589407], [77.9595474, 16.4594064], [77.9594671, 16.459748], [77.9593913, 16.4600859], [77.9579313, 16.4603504], [77.9575976, 16.4594881]]]}, "properties": {"emu_id": "EMU_ANCHOR_Wetland", "emu_type": "ecological_anchor", "member_tile_names": ["grid_00548", "grid_00549", "grid_00550", "grid_00566", "grid_00567", "grid_00568", "grid_00585", "grid_00586", "grid_00587", "grid_00603", "grid_00604", "grid_00605", "grid_00606", "grid_00622", "grid_00623", "grid_00624", "grid_00625", "grid_00641", "grid_00642", "grid_00643", "grid_00644", "grid_00659", "grid_00660", "grid_00661", "grid_00662", "grid_00663", "grid_00678", "grid_00679"]}}, {"type": "Feature", "geometry": {"type": "Polygon", "coordinates": [[[77.95786599929552, 16.45602333179944], [77.95789873138989, 16.45602149082766], [77.9579468771787, 16.45601700173884], [77.95797643136696, 16.45601260287564], [77.95802027352448, 16.45600195697926], [77.95806874312598, 16.4559855137174], [77.95810313831373, 16.45597427606973], [77.95815056581142, 16.45596651949812], [77.95819402424866, 16.4559580505576], [77.95822705160217, 16.45594696795175], [77.95827755437612, 16.45592076988857], [77.95827791980356, 16.45594859422276], [77.9582738816668, 16.45597263817486], [77.95827640311818, 16.4560094821108], [77.9582824795508, 16.45603623425639], [77.95828700945262, 16.45606612354404], [77.95828914801058, 16.45609549373892], [77.95828816338744, 16.45612504008002], [77.95827704519758, 16.45616384081884], [77.95827346974693, 16.45620015978081], [77.95826910864731, 16.45623426982923], [77.95825161780247, 16.45626560834604], [77.95822856201214, 16.45629080754311], [77.9581949313845, 16.45632308542637], [77.95815541460222, 16.45635922594003], [77.95809363549917, 16.45639661031811], [77.95806669202517, 16.45639740620614], [77.95803707276556, 16.4563982813769], [77.95800472160116, 16.45639809841171], [77.95797307457794, 16.45638995853836], [77.95795207902832, 16.45638045722527], [77.95793561188692, 16.45636760664648], [77.95792371612929, 16.45634829233977], [77.95790709281073, 16.45632316161348], [77.95789288166755, 16.45628743711406], [77.95787473186778, 16.45624251566164], [77.95785534907627, 16.45620991685364], [77.95785067761237, 16.45617907770919], [77.9578371657093, 16.45614604831936], [77.95782284575287, 16.45610997104043], [77.95781106080236, 16.45607840688917], [77.9577983756883, 16.45604648324511], [77.95778985472481, 16.45601423286445], [77.95783606451315, 16.45598184186435], [77.95786599929552, 16.45602333179944]]]}, "properties": {"emu_id": "EMU_ANCHOR_Rock_Guild", "emu_type": "ecological_anchor", "member_tile_names": ["grid_00551", "grid_00569", "grid_00570"]}}, {"type": "Feature", "geometry": {"type": "Polygon", "coordinates": [[[77.95138690829013, 16.45842878252073], [77.95115301596279, 16.458432079253292], [77.9511060464738, 16.458432741260815], [77.95091976930748, 16.45847803945506], [77.95068668474279, 16.458534719846615], [77.95068864690909, 16.45866437115136], [77.95047702658668, 16.45866735330019], [77.95054635359728, 16.45889212373997], [77.95069206272386, 16.45889007035997], [77.95069547859208, 16.45911576956303], [77.95069889451376, 16.459341468760552], [77.95069961418902, 16.45938901920253], [77.95075433583663, 16.459566434740704], [77.95082366365232, 16.459791204968084], [77.95093962057057, 16.459789570641043], [77.95094303692241, 16.460015269774235], [77.9511769311919, 16.460011972968196], [77.95117934227406, 16.46017124485167], [77.9512681, 16.460208299999998], [77.95126711540921, 16.460236448952337], [77.95125921536906, 16.46046230753847], [77.95125131535613, 16.460688166123063], [77.95140285429981, 16.460686029867535], [77.9514210497285, 16.460684011112217], [77.9515239, 16.4606726], [77.95165418768269, 16.460630716401603], [77.9516953, 16.460617499999998], [77.95188741637728, 16.460583425224378], [77.95188544870227, 16.460453478855623], [77.95211934329755, 16.460450180912435], [77.95235323783936, 16.46044688270882], [77.95235405226487, 16.4605006594562], [77.9523978, 16.460492900000002], [77.95247940000002, 16.4606039], [77.95251212346307, 16.460670389080654], [77.95259055072877, 16.460669283027364], [77.95259305820191, 16.46083483585165], [77.95262246213044, 16.460894579958097], [77.9527118, 16.461076100000003], [77.95272618607483, 16.461118864030805], [77.95283128293569, 16.46111738170826], [77.95306517812658, 16.461114082580153], [77.95329907326396, 16.4611107831916], [77.95353296834786, 16.4611074835426], [77.95352954876046, 16.46088178496202], [77.95376344352101, 16.460878485100313], [77.9537600237173, 16.460652786561916], [77.95352612922657, 16.460656086375884], [77.95329223468235, 16.460659385929414], [77.95305834008464, 16.460662685222502], [77.95282444543345, 16.46066598425515], [77.95282102676255, 16.46044028552028], [77.95281760814515, 16.460214586779863], [77.95258371398013, 16.460217885456625], [77.95258029568603, 16.459992186662944], [77.95281418958123, 16.459988888033905], [77.9528107710708, 16.45976318928239], [77.95280735261385, 16.459537490525342], [77.95304124591593, 16.45953419173133], [77.95303782724265, 16.459308493016458], [77.95303440862287, 16.45908279429604], [77.95303099005658, 16.45885709557009], [77.95279709756393, 16.458860394220913], [77.95279367932093, 16.45863469544168], [77.95279026113141, 16.45840899665691], [77.95302415308446, 16.458405698101533], [77.953258044984, 16.45840239928576], [77.95326146371312, 16.458628097975073], [77.95349535582898, 16.45862479885116], [77.95349877488138, 16.458850497487198], [77.95350219398729, 16.459076196117696], [77.95373608658926, 16.459072896637906], [77.95373266721354, 16.45884719805515], [77.95372924789133, 16.458621499466847], [77.9539631399002, 16.45861819982213], [77.9539597203617, 16.458392501276027], [77.9539563008767, 16.458166802724378], [77.95419019229246, 16.458163502914747], [77.95418677259119, 16.4579378044053], [77.95418335294342, 16.457712105890305], [77.95417993334917, 16.45748640736977], [77.95394604274274, 16.457489707036164], [77.95371215208282, 16.45749300644217], [77.95370873308163, 16.4572673078206], [77.95347484263797, 16.457270606918485], [77.95347142396005, 16.45704490824363], [77.95323753373268, 16.457048207033406], [77.95300364345181, 16.4570515055628], [77.95276975311745, 16.457054803831813], [77.95253586272963, 16.45705810184045], [77.95253928032848, 16.457283800706218], [77.9523053896174, 16.457287098502192], [77.95207149885283, 16.45729039603779], [77.95207491596561, 16.45751609499344], [77.95184102487781, 16.457519392316367], [77.95184444177426, 16.45774509131419], [77.95161055036321, 16.457748388424438], [77.9513766588987, 16.457751685274285], [77.95138007530905, 16.45797738436198], [77.95138349177286, 16.458203083444126], [77.95138690829013, 16.45842878252073]]]}, "properties": {"emu_id": "SEG02", "emu_type": "segmentation_derived", "member_tile_names": ["grid_00019", "grid_00021", "grid_00022", "grid_00023", "grid_00042", "grid_00043", "grid_00044", "grid_00046", "grid_00067", "grid_00068", "grid_00069", "grid_00070", "grid_00071", "grid_00091", "grid_00092", "grid_00093", "grid_00094", "grid_00114", "grid_00115", "grid_00116", "grid_00117", "grid_00137", "grid_00138", "grid_00139", "grid_00140", "grid_00141", "grid_00161", "grid_00162", "grid_00164", "grid_00165", "grid_00045", "grid_00047", "grid_00159", "grid_00160", "grid_00166", "grid_00167", "grid_00192", "grid_00193", "grid_00221", "grid_00222", "grid_00252", "grid_00253", "grid_00284", "grid_00007", "grid_00008", "grid_00009", "grid_00014", "grid_00015", "grid_00016", "grid_00040", "grid_00041", "grid_00065", "grid_00066", "grid_00090", "grid_00064", "grid_00004", "grid_00005", "grid_00011", "grid_00018", "grid_00010", "grid_00017", "grid_00006", "grid_00012", "grid_00013", "grid_00020", "grid_00000", "grid_00001", "grid_00002", "grid_00003", "grid_00089", "grid_00112", "grid_00113", "grid_00135", "grid_00136", "grid_00087", "grid_00088", "grid_00110", "grid_00111", "grid_00134", "grid_00132", "grid_00133", "grid_00157", "grid_00158", "grid_00184", "grid_00185", "grid_00186", "grid_00035", "grid_00059", "grid_00082", "grid_00083", "grid_00105", "grid_00106", "grid_00107", "grid_00130", "grid_00131", "grid_00154", "grid_00155", "grid_00156", "grid_00036", "grid_00037", "grid_00038", "grid_00039", "grid_00060", "grid_00061", "grid_00062", "grid_00063", "grid_00084", "grid_00085", "grid_00086", "grid_00108", "grid_00109", "grid_00104", "grid_00127", "grid_00128", "grid_00129", "grid_00150", "grid_00151", "grid_00152", "grid_00153", "grid_00176", "grid_00177", "grid_00178", "grid_00179", "grid_00205", "grid_00206", "grid_00207", "grid_00236", "grid_00237", "grid_00238", "grid_00269", "grid_00270", "grid_00306", "grid_00180", "grid_00181", "grid_00208", "grid_00209", "grid_00210", "grid_00239", "grid_00240", "grid_00241", "grid_00242", "grid_00271", "grid_00272", "grid_00273", "grid_00274", "grid_00275", "grid_00276", "grid_00307", "grid_00308", "grid_00309", "grid_00310", "grid_00339", "grid_00340", "grid_00341"]}}, {"type": "Feature", "geometry": {"type": "Polygon", "coordinates": [[[77.95134249773531, 16.45549469409248], [77.95134591361109, 16.4557203932356], [77.95134932954032, 16.45594609237319], [77.95135274552302, 16.45617179150523], [77.95135616155918, 16.456397490631723], [77.95135957764879, 16.456623189752673], [77.95136299379186, 16.456848888868084], [77.95136640998838, 16.45707458797795], [77.95136982623835, 16.457300287082273], [77.95137324254179, 16.457525986181047], [77.9513766588987, 16.457751685274285], [77.95161055036321, 16.457748388424438], [77.95184444177426, 16.45774509131419], [77.95184102487781, 16.457519392316367], [77.95207491596561, 16.45751609499344], [77.95207149885283, 16.45729039603779], [77.9523053896174, 16.457287098502192], [77.95253928032848, 16.457283800706218], [77.95253586272963, 16.45705810184045], [77.95276975311745, 16.457054803831813], [77.95300364345181, 16.4570515055628], [77.95323753373268, 16.457048207033406], [77.95347142396005, 16.45704490824363], [77.95347484263797, 16.457270606918485], [77.95370873308163, 16.4572673078206], [77.95371215208282, 16.45749300644217], [77.95394604274274, 16.457489707036164], [77.95417993334917, 16.45748640736977], [77.95418335294342, 16.457712105890305], [77.95418677259119, 16.4579378044053], [77.95419019229246, 16.458163502914747], [77.9539563008767, 16.458166802724378], [77.9539597203617, 16.458392501276027], [77.9539631399002, 16.45861819982213], [77.95419703185554, 16.45861489991701], [77.95420045171736, 16.45884059840982], [77.9539665594922, 16.45884389836269], [77.95396997913771, 16.4590695968977], [77.95420387163267, 16.45906629689709], [77.95420729160149, 16.45929199537881], [77.95397339883674, 16.459295295427165], [77.95373950601847, 16.459298595215113], [77.95350561314669, 16.459301894742644], [77.95350903235958, 16.459527593362047], [77.95374292550117, 16.459524293786775], [77.95374634503739, 16.4597499923529], [77.95398023839527, 16.459746692469473], [77.95419785355351, 16.459743622012407], [77.9542127621963, 16.459653016152995], [77.95421071162383, 16.459517693854984], [77.9543433770565, 16.459515821906], [77.95444326050463, 16.459425699357116], [77.95444118431274, 16.459288695070036], [77.95443776407411, 16.45906299663606], [77.95451816605846, 16.45906186209045], [77.95449150000002, 16.45895429999999], [77.95466866568024, 16.458862349857135], [77.95466823600711, 16.458833997722866], [77.95470736689072, 16.458833445517786], [77.954854, 16.4586877], [77.954899757494, 16.45867428493926], [77.95489870740052, 16.458604998639224], [77.9551325991418, 16.458601697692494], [77.95514809078003, 16.458601479047626], [77.9551545, 16.4585996], [77.9552594, 16.458497300000005], [77.95536432661552, 16.45845562084037], [77.9553630696723, 16.458372698225794], [77.95559696103673, 16.458369396806024], [77.95561033739857, 16.458369207988312], [77.955778, 16.458313700000005], [77.95583009751027, 16.458316304906845], [77.95606421625008, 16.45832801082207], [77.956078, 16.458328699999996], [77.95609596162558, 16.458362352447708], [77.9562093, 16.4585747], [77.9562060457162, 16.458586544641697], [77.9561685, 16.458723199999998], [77.95619280343615, 16.458812478009246], [77.95630547933524, 16.458810887115742], [77.95630890167877, 16.459036585173127], [77.9563093820797, 16.459068266559196], [77.956344, 16.459122699999995], [77.95654592966653, 16.45924007913007], [77.95657768186969, 16.459258536246097], [77.95658290440065, 16.45925846249809], [77.95677846455705, 16.459147282777526], [77.95677668554454, 16.459029979703303], [77.95699052927334, 16.459026959716603], [77.95701041289838, 16.459015830805033], [77.95724238541487, 16.458885995027227], [77.957341, 16.4588308], [77.9573956, 16.4589327], [77.95742756997336, 16.459020786973944], [77.95747836094151, 16.459020069545517], [77.95748055571863, 16.4591647525263], [77.95751074908775, 16.459245358221857], [77.95759486442799, 16.459469916179355], [77.95771910071875, 16.459468161163375], [77.95795299289665, 16.45946485690061], [77.95818688502095, 16.45946155237744], [77.95842077709169, 16.459458247593844], [77.95841735221278, 16.459232549977752], [77.95865124396012, 16.459229244981564], [77.95888513565386, 16.459225939724966], [77.95911902729401, 16.459222634207965], [77.95911560165926, 16.458996936729783], [77.95888171028892, 16.459000242198957], [77.95864781886499, 16.459003547407736], [77.95841392738745, 16.4590068523561], [77.95818003585633, 16.45901015704407], [77.95794614427163, 16.459013461471624], [77.95771225263336, 16.459016765638772], [77.95770882867102, 16.458791067868145], [77.95770540476225, 16.45856537009198], [77.95747151360999, 16.458568673903116], [77.95746809002459, 16.4583429760736], [77.95723419908855, 16.45834627957654], [77.95700030809896, 16.458349582819086], [77.95676641705579, 16.458352885801233], [77.95653252595908, 16.45835618852298], [77.9565291035064, 16.458130490496742], [77.95629521262592, 16.458133792910317], [77.95629179049656, 16.45790809483075], [77.95628836842076, 16.457682396745636], [77.95628494639853, 16.457456698654976], [77.95651883646966, 16.457453396384757], [77.95651541423118, 16.457227698336332], [77.956749303979, 16.457224395853515], [77.95674588152431, 16.456998697847332], [77.9569797709488, 16.45699539515193], [77.9569763482779, 16.456769697187987], [77.95697292566055, 16.456543999218507], [77.95673903677557, 16.456547301818333], [77.95673666953452, 16.456391184217264], [77.95650248310116, 16.45637485300685], [77.95626829666158, 16.45635852152772], [77.9560341102158, 16.456342189779868], [77.9559769, 16.456338199999998], [77.95580010309996, 16.456337688699055], [77.9557003, 16.456337399999995], [77.95556632105617, 16.456348038985766], [77.9553628, 16.456364199999996], [77.9553326463044, 16.456365472895815], [77.95509885682476, 16.456375341842556], [77.9548819, 16.4563845], [77.95486510627933, 16.45638778442015], [77.95468760000001, 16.45642249999999], [77.95463179449202, 16.456429188212756], [77.95439827927484, 16.45645717452462], [77.9542412, 16.456476], [77.9542321, 16.4564317], [77.9542343176966, 16.456356906256755], [77.95416283618049, 16.4563579146839], [77.95415941690727, 16.456132216130097], [77.95415599768758, 16.45590651757075], [77.95415257852137, 16.455680819005853], [77.95414915940869, 16.45545512043541], [77.95414575912817, 16.45523066148452], [77.95391190719823, 16.455236336015044], [77.95367805520912, 16.455242010286227], [77.95344420316086, 16.455247684298072], [77.95321035105341, 16.45525335805057], [77.95297649888681, 16.455259031543726], [77.95274264666106, 16.455264704777534], [77.95250879437616, 16.455270377751997], [77.9522749420321, 16.455276050467123], [77.95204108962889, 16.455281722922894], [77.95180723716656, 16.455287395119328], [77.95157338464509, 16.455293067056413], [77.95133953206447, 16.455298738734147], [77.95134249773531, 16.45549469409248]]]}, "properties": {"emu_id": "SEG01", "emu_type": "segmentation_derived", "member_tile_names": ["grid_00031", "grid_00033", "grid_00034", "grid_00055", "grid_00056", "grid_00057", "grid_00058", "grid_00078", "grid_00079", "grid_00080", "grid_00081", "grid_00102", "grid_00103", "grid_00125", "grid_00126", "grid_00149", "grid_00175", "grid_00204", "grid_00235", "grid_00267", "grid_00268", "grid_00304", "grid_00305", "grid_00303", "grid_00032", "grid_00101", "grid_00124", "grid_00148", "grid_00174", "grid_00203", "grid_00173", "grid_00234", "grid_00266", "grid_00302", "grid_00172", "grid_00201", "grid_00202", "grid_00232", "grid_00233", "grid_00264", "grid_00265", "grid_00300", "grid_00301", "grid_00263", "grid_00297", "grid_00298", "grid_00299", "grid_00330", "grid_00331", "grid_00332", "grid_00333", "grid_00334", "grid_00335", "grid_00356", "grid_00357", "grid_00374", "grid_00375", "grid_00386", "grid_00387", "grid_00398", "grid_00336", "grid_00337", "grid_00338", "grid_00358", "grid_00359", "grid_00360", "grid_00361", "grid_00362", "grid_00377", "grid_00378", "grid_00379", "grid_00380", "grid_00390", "grid_00391", "grid_00376", "grid_00388", "grid_00389", "grid_00399", "grid_00400", "grid_00401", "grid_00402", "grid_00410", "grid_00411", "grid_00412", "grid_00413", "grid_00422", "grid_00423", "grid_00024", "grid_00025", "grid_00026", "grid_00027", "grid_00028", "grid_00029", "grid_00048", "grid_00049", "grid_00050", "grid_00051", "grid_00052", "grid_00053", "grid_00054", "grid_00073", "grid_00074", "grid_00077", "grid_00097", "grid_00030", "grid_00072", "grid_00095", "grid_00096", "grid_00118", "grid_00119", "grid_00120", "grid_00142", "grid_00143", "grid_00075", "grid_00076", "grid_00098", "grid_00099", "grid_00100", "grid_00121", "grid_00122", "grid_00123", "grid_00144", "grid_00145", "grid_00146", "grid_00147", "grid_00168", "grid_00169", "grid_00170", "grid_00171", "grid_00197", "grid_00198", "grid_00199", "grid_00200", "grid_00228", "grid_00229", "grid_00230", "grid_00231", "grid_00260", "grid_00261", "grid_00262", "grid_00296", "grid_00329", "grid_00424", "grid_00425", "grid_00433", "grid_00434", "grid_00442", "grid_00443", "grid_00450", "grid_00451", "grid_00452", "grid_00453", "grid_00454", "grid_00463", "grid_00464", "grid_00465", "grid_00466", "grid_00477", "grid_00478", "grid_00479", "grid_00467", "grid_00480", "grid_00492", "grid_00504", "grid_00490", "grid_00491", "grid_00502", "grid_00503", "grid_00515", "grid_00516", "grid_00529", "grid_00517", "grid_00530", "grid_00531", "grid_00532", "grid_00546", "grid_00547", "grid_00564", "grid_00565", "grid_00583", "grid_00584", "grid_00602", "grid_00621", "grid_00640", "grid_00278", "grid_00314", "grid_00315", "grid_00342", "grid_00343", "grid_00345", "grid_00347", "grid_00348", "grid_00363", "grid_00364", "grid_00365", "grid_00366", "grid_00367", "grid_00368", "grid_00369", "grid_00382", "grid_00383", "grid_00384", "grid_00385", "grid_00381", "grid_00394", "grid_00405", "grid_00392", "grid_00393", "grid_00395", "grid_00396", "grid_00406", "grid_00403", "grid_00404", "grid_00414", "grid_00415", "grid_00416", "grid_00397", "grid_00407", "grid_00408", "grid_00417", "grid_00418", "grid_00426", "grid_00427", "grid_00435", "grid_00436", "grid_00444", "grid_00445", "grid_00455", "grid_00456", "grid_00468", "grid_00469", "grid_00470", "grid_00471", "grid_00482", "grid_00483", "grid_00409", "grid_00419", "grid_00420", "grid_00421", "grid_00428", "grid_00429", "grid_00430", "grid_00431", "grid_00432", "grid_00437", "grid_00438", "grid_00439", "grid_00440", "grid_00441", "grid_00446", "grid_00447", "grid_00448", "grid_00449", "grid_00457", "grid_00458", "grid_00459"]}}, {"type": "Feature", "geometry": {"type": "Polygon", "coordinates": [[[77.95279367932093, 16.45863469544168], [77.95279709756393, 16.458860394220913], [77.95303099005658, 16.45885709557009], [77.95303440862287, 16.45908279429604], [77.95303782724265, 16.459308493016458], [77.95304124591593, 16.45953419173133], [77.95280735261385, 16.459537490525342], [77.9528107710708, 16.45976318928239], [77.95281418958123, 16.459988888033905], [77.95258029568603, 16.459992186662944], [77.95258371398013, 16.460217885456625], [77.95281760814515, 16.460214586779863], [77.95282102676255, 16.46044028552028], [77.95282444543345, 16.46066598425515], [77.95305834008464, 16.460662685222502], [77.95329223468235, 16.460659385929414], [77.95352612922657, 16.460656086375884], [77.9537600237173, 16.460652786561916], [77.95376344352101, 16.460878485100313], [77.95376686337825, 16.461104183633157], [77.95400075835515, 16.46110088346327], [77.95400417853574, 16.46132658194282], [77.95400759876983, 16.461552280416832], [77.95401101905745, 16.461777978885298], [77.95406265530276, 16.461777250253057], [77.9541565, 16.4617356], [77.95424405714368, 16.461718088597976], [77.9543655, 16.4616938], [77.95447669618383, 16.46163188213638], [77.95447538964247, 16.461545679104727], [77.95447196886866, 16.461319980726213], [77.95446854814838, 16.46109428234216], [77.95446778465751, 16.461043906896847], [77.95427391234816, 16.460871282336587], [77.9542312328816, 16.46087188459558], [77.95423063984775, 16.46083275228207], [77.95402433531339, 16.460649057305115], [77.9539939181545, 16.460649486487515], [77.95399349554557, 16.460621597311093], [77.9539415, 16.4605753], [77.95399186723321, 16.460514139796864], [77.95399049813443, 16.460423787991328], [77.95398707816787, 16.460198089489584], [77.95412339006823, 16.460196166162053], [77.95416062183182, 16.459969894085635], [77.95419785355351, 16.459743622012407], [77.95398023839527, 16.459746692469473], [77.95374634503739, 16.4597499923529], [77.95374292550117, 16.459524293786775], [77.95350903235958, 16.459527593362047], [77.95350561314669, 16.459301894742644], [77.95373950601847, 16.459298595215113], [77.95397339883674, 16.459295295427165], [77.95420729160149, 16.45929199537881], [77.95420387163267, 16.45906629689709], [77.95396997913771, 16.4590695968977], [77.9539665594922, 16.45884389836269], [77.95420045171736, 16.45884059840982], [77.95419703185554, 16.45861489991701], [77.9539631399002, 16.45861819982213], [77.95372924789133, 16.458621499466847], [77.95373266721354, 16.45884719805515], [77.95373608658926, 16.459072896637906], [77.95350219398729, 16.459076196117696], [77.95349877488138, 16.458850497487198], [77.95349535582898, 16.45862479885116], [77.95326146371312, 16.458628097975073], [77.953258044984, 16.45840239928576], [77.95302415308446, 16.458405698101533], [77.95279026113141, 16.45840899665691], [77.95279367932093, 16.45863469544168]]]}, "properties": {"emu_id": "SEG03", "emu_type": "segmentation_derived", "member_tile_names": ["grid_00163", "grid_00182", "grid_00183", "grid_00187", "grid_00188", "grid_00189", "grid_00190", "grid_00191", "grid_00211", "grid_00212", "grid_00213", "grid_00214", "grid_00215", "grid_00216", "grid_00217", "grid_00218", "grid_00219", "grid_00220", "grid_00243", "grid_00244", "grid_00245", "grid_00246", "grid_00247", "grid_00249", "grid_00250", "grid_00251", "grid_00283", "grid_00248", "grid_00319", "grid_00281", "grid_00282", "grid_00320", "grid_00321", "grid_00351", "grid_00277", "grid_00311", "grid_00312", "grid_00313", "grid_00344", "grid_00346", "grid_00279", "grid_00280", "grid_00316", "grid_00317", "grid_00318", "grid_00349", "grid_00350", "grid_00352", "grid_00353", "grid_00354", "grid_00355", "grid_00370", "grid_00371", "grid_00372", "grid_00373"]}}, {"type": "Feature", "geometry": {"type": "Polygon", "coordinates": [[[77.95352954876046, 16.46088178496202], [77.95353296834786, 16.4611074835426], [77.95329907326396, 16.4611107831916], [77.95306517812658, 16.461114082580153], [77.95283128293569, 16.46111738170826], [77.95283470176705, 16.461343080426488], [77.95283626191527, 16.46144607451985], [77.9528395, 16.4614557], [77.95287647059436, 16.461568238210766], [77.9529418, 16.4617671], [77.9529524685104, 16.4617929131467], [77.95307543559066, 16.461791178575034], [77.95307885485235, 16.4620168772289], [77.9530801418158, 16.46210182620865], [77.9531003, 16.4621506], [77.9533102, 16.462147599999998], [77.95331480734855, 16.462149296114493], [77.9534922, 16.4622146], [77.95348292252321, 16.462236923686625], [77.95355006708735, 16.462235976362333], [77.95355348699576, 16.462461674909648], [77.95338855121678, 16.462464001935903], [77.9533829, 16.4624776], [77.95343010451677, 16.46268916250193], [77.95355690695766, 16.46268737345141], [77.95356032697308, 16.462913071987625], [77.95356374704198, 16.463138770518295], [77.95379764450115, 16.463135470179193], [77.95403154190682, 16.463132169579612], [77.95402812129814, 16.46290647114442], [77.95402653993732, 16.462802128676582], [77.9540142, 16.4627162], [77.95400105957088, 16.462681106314665], [77.95391697571841, 16.46245654610471], [77.95378738364529, 16.462458374713762], [77.95378396346703, 16.46223267621419], [77.9537816575196, 16.462080504116493], [77.95375581441938, 16.462007326628164], [77.9537379, 16.461956599999997], [77.9537699, 16.461908599999994], [77.95377898510644, 16.46190414651711], [77.953777123271, 16.461781279198412], [77.95401101905745, 16.461777978885298], [77.95400759876983, 16.461552280416832], [77.95400417853574, 16.46132658194282], [77.95400075835515, 16.46110088346327], [77.95376686337825, 16.461104183633157], [77.95376344352101, 16.460878485100313], [77.95352954876046, 16.46088178496202]]]}, "properties": {"emu_id": "SEG04", "emu_type": "segmentation_derived", "member_tile_names": ["grid_00194", "grid_00196", "grid_00223", "grid_00224", "grid_00225", "grid_00226", "grid_00227", "grid_00254", "grid_00255", "grid_00256", "grid_00257", "grid_00258", "grid_00285", "grid_00286", "grid_00287", "grid_00288", "grid_00289", "grid_00290", "grid_00291", "grid_00322", "grid_00323", "grid_00324", "grid_00195", "grid_00259", "grid_00292", "grid_00293", "grid_00294", "grid_00325", "grid_00326", "grid_00327"]}}]}