{"type": "FeatureCollection", "features": [{"type": "Feature", "geometry": {"type": "Polygon", "coordinates": [[[73.8105247777403, 18.648539214204], [73.8106114783977, 18.6481850083595], [73.8106062269365, 18.6480594241357], [73.810634830063, 18.6479106958525], [73.8108227851543, 18.6477512966631], [73.8109582844681, 18.6476470414422], [73.8110021813377, 18.64750132959], [73.8108929538823, 18.6473517292481], [73.8108417792006, 18.647222934713], [73.8107112338414, 18.6470556806644], [73.8106119340476, 18.647020014818], [73.8106128286678, 18.6468915497115], [73.8106568475855, 18.646728319966], [73.8105946380198, 18.6466447122802], [73.8105225522773, 18.6464398707622], [73.8104250382545, 18.6464364707044], [73.8104356121309, 18.646677420383], [73.8105008581421, 18.6468198080912], [73.8105666148875, 18.647053807487], [73.8105233074784, 18.6471148490295], [73.8102841379459, 18.647151292589], [73.8099650484562, 18.6472281069133], [73.809958129269, 18.6473419349378], [73.8101083736075, 18.6473195278182], [73.8102183122092, 18.6473669403898], [73.8103464045129, 18.6474465855514], [73.810477417487, 18.6475466876138], [73.8104645965124, 18.6476283606041], [73.8103448181842, 18.6476743191266], [73.8103032310794, 18.64792807766], [73.8103417268104, 18.6481181076982], [73.8104208132243, 18.6481974426016], [73.8104262679174, 18.6482938301921], [73.8104617541742, 18.6485723929042], [73.8105247777403, 18.648539214204]]]}, "properties": {"name": "Pond_2", "real_kml_name": "Pond 2", "area_ha": 0.7954}}]}