{"type": "FeatureCollection", "features": [{"type": "Feature", "geometry": {"type": "Polygon", "coordinates": [[[73.813172758177, 18.6458567424997], [73.8130517246116, 18.6456428333484], [73.8129428210365, 18.6454465195195], [73.8127634111364, 18.6452585196955], [73.8127638981803, 18.6451884477233], [73.8127588683206, 18.6450307471377], [73.8127717893966, 18.6449344755815], [73.8128152374783, 18.6448529957758], [73.8127553198539, 18.6446599109882], [73.812719154224, 18.6445750085617], [73.812611954711, 18.644574331462], [73.8125232540374, 18.644556252406], [73.812425466348, 18.6445235169468], [73.8123520393384, 18.6445113738645], [73.812213846023, 18.6445630570113], [73.812136604945, 18.6446589220854], [73.8120652254992, 18.6447927814986], [73.8120311280782, 18.6448509618627], [73.8120150625232, 18.6449588926313], [73.8120601118351, 18.6450876482111], [73.8121578185351, 18.6451320625494], [73.8122801093343, 18.645164953019], [73.8124144283021, 18.6452300370742], [73.8124260504452, 18.6453206240906], [73.8125050757714, 18.6454087170956], [73.8126451960074, 18.645520554377], [73.8127303066789, 18.6456145253648], [73.8127847482113, 18.6457141421768], [73.8128358834272, 18.6458487755989], [73.8128568567562, 18.6459160633071], [73.8129173836068, 18.6460215580799], [73.813172758177, 18.6458567424997]]]}, "properties": {"name": "Pond_3", "real_kml_name": "Pond 3", "area_ha": 0.8062}}]}