{"type": "FeatureCollection", "features": [{"type": "Feature", "geometry": {"type": "Polygon", "coordinates": [[[73.8084892351877, 18.639193902787], [73.8084900553968, 18.6392038310717], [73.8084902477122, 18.6392137884098], [73.8084898114374, 18.6392237387478], [73.8084887481521, 18.6392336460573], [73.8084870617061, 18.639243474466], [73.8084847582055, 18.6392531883871], [73.8084818459908, 18.6392627526485], [73.8084810607199, 18.6392653609663], [73.8084804582152, 18.6392680131144], [73.8084800411147, 18.6392706974538], [73.8084798112465, 18.6392734022197], [73.808479769618, 18.6392761155574], [73.8084799164118, 18.6392788255747], [73.8084802509845, 18.6392815203941], [73.8084807718696, 18.6392841882046], [73.8084814767842, 18.6392868173137], [73.8084823626389, 18.6392893961983], [73.808483425551, 18.6392919135556], [73.8084846608621, 18.6392943583525], [73.8084860631578, 18.6392967198737], [73.8084934201867, 18.6393091255742], [73.8084998849558, 18.6393219750416], [73.8085054281632, 18.6393352100372], [73.8085100246865, 18.6393487705792], [73.8085136536938, 18.6393625952102], [73.8085162987379, 18.6393766212759], [73.808517947831, 18.6393907852092], [73.808518593499, 18.6394050228182], [73.8085182328155, 18.6394192695768], [73.8085168674149, 18.6394334609178], [73.808514503485, 18.6394475325247], [73.8085111517391, 18.6394614206241], [73.8085068273673, 18.639475062274], [73.8085015499679, 18.6394883956492], [73.8084828814091, 18.6395280290862], [73.8084619491061, 18.6395666210707], [73.808458309697, 18.6395734318269], [73.8084551589109, 18.6395804604579], [73.8084525110147, 18.6395876751406], [73.8084503779935, 18.6395950432198], [73.8084487695017, 18.6396025313461], [73.8084476928199, 18.6396101056266], [73.8084471528214, 18.6396177317786], [73.8084471519505, 18.6396253752845], [73.808447690211, 18.6396330015481], [73.8084487651669, 18.6396405760514], [73.8084503719528, 18.6396480645105], [73.808452503296, 18.6396554330312], [73.8084551495496, 18.6396626482618], [73.8084582987363, 18.6396696775448], [73.8084619366022, 18.639676489064], [73.8084660466817, 18.6396830519891], [73.8084706103715, 18.6396893366149], [73.8084771702604, 18.6396972160584], [73.8084842407252, 18.6397046834164], [73.8084917933459, 18.6397117086738], [73.8084997977666, 18.6397182635943], [73.8085082218156, 18.6397243218317], [73.8085170316344, 18.6397298590367], [73.808526191814, 18.6397348529535], [73.8085574196536, 18.6397516892245], [73.808587651743, 18.6397701032094], [73.8086168004522, 18.639790041522], [73.8086287411094, 18.6397992994407], [73.8086400050566, 18.6398092983511], [73.8086505417933, 18.6398199934506], [73.8086603040747, 18.6398313367845], [73.8086692481288, 18.6398432774917], [73.808677333852, 18.6398557620324], [73.8086845249894, 18.6398687344286], [73.8086907892971, 18.6398821365147], [73.8086960986871, 18.6398959081984], [73.8087004293529, 18.6399099877303], [73.8087037618764, 18.6399243119806], [73.808706081315, 18.6399388167222], [73.8087182422879, 18.6400551762429], [73.8087296640353, 18.6401722331528], [73.80873084612, 18.6401755484114], [73.8087322628266, 18.6401787790114], [73.8087339075488, 18.6401819098944], [73.8087357726149, 18.6401849264563], [73.8087378493253, 18.6401878146263], [73.8087401279931, 18.6401905609326], [73.8087425979895, 18.6401931525651], [73.8087452477933, 18.640195577435], [73.8087480650445, 18.6401978242316], [73.8087510366019, 18.6401998824747], [73.8087541486047, 18.6402017425636], [73.8087573865371, 18.640203395822], [73.8087607352956, 18.6402048345381], [73.8087641792601, 18.6402060520011], [73.8087677023661, 18.6402070425322], [73.8087712881801, 18.640207801511], [73.808774919976, 18.6402083253973], [73.8087785808134, 18.6402086117474], [73.8087822536163, 18.6402086592255], [73.8087859212528, 18.6402084676104], [73.8087895666153, 18.6402080377956], [73.8087931727, 18.6402073717861], [73.8087967226863, 18.6402064726886], [73.8088002000153, 18.6402053446968], [73.808803588467, 18.6402039930723], [73.8088068722359, 18.6402024241196], [73.8088428835302, 18.640183402912], [73.8088776291055, 18.6401623508017], [73.808910983077, 18.6401393440603], [73.8089428246034, 18.6401144660415], [73.8089730383232, 18.6400878068783], [73.8090015147726, 18.6400594631571], [73.8090808711808, 18.6399787211754], [73.8090849465845, 18.6399749948563], [73.8090892801563, 18.6399715433775], [73.8090938515403, 18.6399683829571], [73.8090986392654, 18.6399655284392], [73.8091036208445, 18.6399629932309], [73.8091087728798, 18.6399607892397], [73.809114071173, 18.6399589268175], [73.809119490839, 18.6399574147117], [73.8091250064222, 18.6399562600244], [73.8091305920171, 18.6399554681791], [73.8091362213888, 18.6399550428949], [73.8091418680971, 18.6399549861694], [73.8091475056202, 18.6399552982689], [73.8091531074798, 18.6399559777275], [73.8091586473646, 18.639957021354], [73.8091640992547, 18.6399584242466], [73.8091694375435, 18.6399601798162], [73.8091746371579, 18.6399622798171], [73.8091796736759, 18.6399647143859], [73.809184523442, 18.6399674720879], [73.8091891636775, 18.6399705399705], [73.8091935725879, 18.6399739036245], [73.8091977294653, 18.6399775472511], [73.8092016147854, 18.639981453737], [73.8092052102995, 18.6399856047339], [73.8092084991199, 18.6399899807452], [73.8092114657996, 18.6399945612176], [73.8092151157288, 18.640001143987], [73.8092183076611, 18.6400079396284], [73.8092210280154, 18.6400149191992], [73.8092232652152, 18.6400220529979], [73.8092250097402, 18.6400293106667], [73.8092262541663, 18.6400366613208], [73.8092269931981, 18.6400440736797], [73.8092272236903, 18.6400515162001], [73.8092269446622, 18.6400589572106], [73.8092261573011, 18.640066365046], [73.8092248649574, 18.6400737081826], [73.8092230731308, 18.6400809553715], [73.8092207894461, 18.6400880757726], [73.8092180236216, 18.6400950390852], [73.8092147874271, 18.6401018156768], [73.8092012868315, 18.6401300538349], [73.8091897202146, 18.6401590615544], [73.8091801355137, 18.6401887186325], [73.809172572453, 18.6402189021577], [73.809167062378, 18.6402494870363], [73.8091599825008, 18.6403127922744], [73.809157121024, 18.6403763978061], [73.8091572907352, 18.6403832862372], [73.8091579606244, 18.640390146909], [73.8091591274755, 18.6403969468599], [73.8091607856818, 18.640403653417], [73.8091629272761, 18.6404102343562], [73.8091655419682, 18.640416658057], [73.8091686171951, 18.6404228936544], [73.8091721381806, 18.6404289111872], [73.809176088007, 18.6404346817418], [73.8091804476959, 18.6404401775917], [73.8091851962997, 18.6404453723298], [73.8091903110019, 18.6404502409963], [73.8091957672272, 18.6404547601977], [73.809201538759, 18.6404589082199], [73.8092075978659, 18.6404626651323], [73.8092139154349, 18.6404660128833], [73.8092204611106, 18.6404689353873], [73.8092495459897, 18.6404818580216], [73.8092776798001, 18.6404965701576], [73.8093047415426, 18.6405130085287], [73.8093306148308, 18.6405311024374], [73.809355188389, 18.6405507740661], [73.8093783565315, 18.6405719388114], [73.8094000196169, 18.6405945056489], [73.8094200844765, 18.6406183775235], [73.8094384648151, 18.6406434517677], [73.8094492553646, 18.6406602955387], [73.8094590082714, 18.6406777048423], [73.8094676910295, 18.6406956216554], [73.8094752746993, 18.6407139862616], [73.8094800177292, 18.6407252968626], [73.809485559116, 18.640736272673], [73.809491873045, 18.6407468625537], [73.809498930099, 18.6407570171648], [73.8095066973979, 18.6407666891943], [73.8095151387528, 18.6407758335787], [73.8095242148343, 18.6407844077127], [73.8095338833553, 18.6407923716481], [73.8095440992689, 18.6407996882795], [73.8095548149773, 18.6408063235175], [73.809807136931, 18.6409521513502], [73.8098194240696, 18.6409598560831], [73.809831138512, 18.6409683327516], [73.8098422269857, 18.6409775428037], [73.8098526390612, 18.6409874443531], [73.8098623273852, 18.6409979923682], [73.8098712478959, 18.6410091388776], [73.8098793600234, 18.641020833188], [73.8098866268742, 18.6410330221147], [73.8098930153991, 18.6410456502233], [73.8098984965434, 18.6410586600822], [73.8099030453791, 18.6410719925238], [73.8099066412182, 18.641085586913], [73.8099093572702, 18.6410958660482], [73.809912788621, 18.641105948954], [73.8099169198945, 18.6411157904405], [73.8099217325799, 18.641125346412], [73.8099272051138, 18.6411345740519], [73.8099333129758, 18.6411434320146], [73.8099400287992, 18.6411518806111], [73.8099473224929, 18.6411598819864], [73.8099551613769, 18.6411674002894], [73.8099635103281, 18.6411744018336], [73.8099723319382, 18.6411808552476], [73.809981586681, 18.6411867316161], [73.8099912330895, 18.6411920046095], [73.8100012279419, 18.6411966506014], [73.8100356792802, 18.6412100285061], [73.8100709905132, 18.6412211844487], [73.8101070041403, 18.6412300686834], [73.8101435595293, 18.6412366415835], [73.8101804936315, 18.6412408738318], [73.8101938515055, 18.6412415463168], [73.8102072266526, 18.6412413655646], [73.810220559162, 18.6412403323704], [73.8102337893149, 18.6412384513618], [73.810246857851, 18.6412357309643], [73.8102597062342, 18.641232183363], [73.8102722769141, 18.6412278244483], [73.8102845135845, 18.6412226737444], [73.8102963614352, 18.6412167543224], [73.8103077673977, 18.6412100926962], [73.8103186803826, 18.6412027187046], [73.8103290515087, 18.6411946653768], [73.8103388343222, 18.6411859687853], [73.8103479850041, 18.6411766678835], [73.8103569442836, 18.641166266284], [73.8103651778403, 18.6411553332021], [73.8103726510829, 18.641143914603], [73.8103793326127, 18.641132058462], [73.8103851943575, 18.6411198145925], [73.8103902116895, 18.6411072344369], [73.8103943635285, 18.6410943708506], [73.810397632431, 18.6410812778798], [73.8104000046629, 18.6410680105343], [73.8104014702574, 18.6410546245567], [73.8104020230571, 18.641041176188], [73.8104016607397, 18.6410277219312], [73.8104003848276, 18.6410143183142], [73.8103982006818, 18.6410010216519], [73.8103813427839, 18.640928587378], [73.8103598718172, 18.6408572708743], [73.8103338680871, 18.6407873388226], [73.8103034288481, 18.6407190527549], [73.8102958406401, 18.6407019740154], [73.8102894048335, 18.6406844705891], [73.8102841473809, 18.6406666130646], [73.8102800894821, 18.6406484734502], [73.8102776216909, 18.6406322098983], [73.8102763428057, 18.6406158223609], [73.8102762589801, 18.6405993897325], [73.8102773706173, 18.6405829911135], [73.810279672366, 18.6405667054406], [73.8102831531461, 18.6405506111066], [73.8102877962022, 18.6405347855835], [73.810293579184, 18.6405193050492], [73.8103004742543, 18.640504244021], [73.8103084482226, 18.6404896749967], [73.810317462705, 18.6404756681059], [73.8103274743092, 18.6404622907723], [73.8103384348431, 18.6404496073892], [73.8103502915468, 18.6404376790092], [73.8103629873465, 18.6404265630509], [73.8103806072608, 18.6404131078811], [73.8103991156864, 18.6404007843005], [73.8104184327835, 18.6403896454595], [73.8104384752278, 18.6403797394053], [73.8104591565664, 18.6403711088676], [73.8104803875906, 18.640363791074], [73.8105020767206, 18.6403578175899], [73.8105241304007, 18.6403532141818], [73.8105464535025, 18.6403500007064], [73.8105502955691, 18.6403494427056], [73.8105540887079, 18.6403486359603], [73.8105578152223, 18.6403475842432], [73.8105614577239, 18.6403462924615], [73.8105649992167, 18.6403447666428], [73.8105684231757, 18.6403430139067], [73.8105717136244, 18.6403410424316], [73.8105748552094, 18.6403388614165], [73.8105778332718, 18.6403364810383], [73.8105806339158, 18.6403339124039], [73.8105832440734, 18.6403311674989], [73.8105856515653, 18.640328259131], [73.810587845158, 18.6403252008711], [73.8105898146161, 18.6403220069891], [73.81059155075, 18.640318692388], [73.8105930454587, 18.6403152725339], [73.8105942917678, 18.6403117633842], [73.810595283862, 18.6403081813128], [73.810596017112, 18.6403045430338], [73.8105964880966, 18.6403008655238], [73.8105966946181, 18.6402971659423], [73.8105966357129, 18.6402934615519], [73.8105963116557, 18.6402897696374], [73.8105957239588, 18.6402861074257], [73.8105948753644, 18.6402824920048], [73.8105937698321, 18.6402789402445], [73.8105924125203, 18.6402754687178], [73.8105908097625, 18.6402720936228], [73.8105889690373, 18.6402688307082], [73.8105868989335, 18.6402656951988], [73.8105846091105, 18.6402627017251], [73.8105821102527, 18.640259864255], [73.8105774569188, 18.6402552455647], [73.8105724970898, 18.6402509264442], [73.8105672519447, 18.6402469253345], [73.8105617438799, 18.6402432593199], [73.810555996414, 18.6402399440539], [73.8105500340883, 18.6402369936922], [73.8105438823612, 18.6402344208327], [73.8105375674999, 18.640232236461], [73.8105045440949, 18.6402208052779], [73.81047238073, 18.6402073287104], [73.8104412166403, 18.6401918650726], [73.8104111867367, 18.6401744813075], [73.8103824210203, 18.6401552526708], [73.8103550440192, 18.6401342624043], [73.8103291742496, 18.6401116013764], [73.8103049237025, 18.6400873676879], [73.8102823973592, 18.6400616662479], [73.8102616927366, 18.6400346083193], [73.8102428994654, 18.6400063110375], [73.8102201326575, 18.6399666227459], [73.8101999970959, 18.6399256624176], [73.810182570616, 18.6398835884272], [73.8101801099788, 18.6398776859438], [73.8101772425835, 18.6398719527173], [73.8101739811523, 18.6398664141892], [73.810170340157, 18.6398610949349], [73.8101663357534, 18.639856018557], [73.8101619857096, 18.6398512075802], [73.8101573093277, 18.6398466833517], [73.8101523273576, 18.6398424659464], [73.8101470619053, 18.6398385740775], [73.8101415363345, 18.6398350250141], [73.8101357751632, 18.6398318345039], [73.8101298039548, 18.6398290167038], [73.8101129688165, 18.6398210408327], [73.8100967578486, 18.6398119656976], [73.8100812499132, 18.6398018354216], [73.8100665204548, 18.6397906992878], [73.810052641131, 18.6397786114725], [73.8100396794631, 18.6397656307819], [73.8100276985085, 18.6397518203659], [73.8100167565531, 18.6397372474111], [73.8100069068283, 18.6397219828134], [73.8099981972518, 18.6397061008339], [73.8099906701945, 18.6396896787369], [73.8099843622745, 18.6396727964143], [73.809979304179, 18.6396555359971], [73.8099755205146, 18.6396379814556], [73.8099730296881, 18.6396202181908], [73.8099718438167, 18.6396023326193], [73.8099719686692, 18.6395844117526], [73.8099734036377, 18.6395665427739], [73.8099761417409, 18.6395488126139], [73.8099801696578, 18.6395313075279], [73.8099854677925, 18.6395141126764], [73.80999201037, 18.6394973117105], [73.8099997655609, 18.6394809863649], [73.8100054633532, 18.6394707237972], [73.8100117272531, 18.6394607655404], [73.8100185394304, 18.6394511399609], [73.8100352836175, 18.6394271569984], [73.8100503340952, 18.6394021746145], [73.8100636254744, 18.6393763013448], [73.8100751000125, 18.6393496495939], [73.8100847078601, 18.6393223351482], [73.8101185988213, 18.6392243685783], [73.8101581843651, 18.639128362275], [73.8102033405634, 18.63903461678], [73.8102539260483, 18.6389434255588], [73.8103097824566, 18.6388550740805], [73.8103162998154, 18.6388460833007], [73.8103234486623, 18.6388375397865], [73.8103311953322, 18.6388294837771], [73.8103395033445, 18.6388219532103], [73.8103483335746, 18.638814983549], [73.8103576444391, 18.6388086076149], [73.8103673920911, 18.6388028554336], [73.8103775306267, 18.6387977540934], [73.8103880123014, 18.6387933276177], [73.8103987877546, 18.6387895968517], [73.8104098062424, 18.6387865793644], [73.8104210158764, 18.6387842893657], [73.810432363868, 18.6387827376399], [73.8104437967771, 18.6387819314942], [73.8104552607636, 18.638781874725], [73.8104726785345, 18.6387818865606], [73.8104900688971, 18.6387809553886], [73.8105073757171, 18.6387790842179], [73.8105245431285, 18.6387762790885], [73.8105415157154, 18.6387725490554], [73.8105448422385, 18.6387716049376], [73.8105480928683, 18.638770445212], [73.8105512522468, 18.6387690753531], [73.8105543054469, 18.6387675018331], [73.8105572380432, 18.6387657320862], [73.8105600361801, 18.638763774474], [73.8105626866373, 18.6387616382457], [73.8105651768923, 18.6387593334942], [73.8105674951793, 18.6387568711087], [73.8105696305451, 18.6387542627233], [73.810571572901, 18.6387515206617], [73.8105733130698, 18.6387486578793], [73.8105748428298, 18.6387456879019], [73.8105761549534, 18.6387426247617], [73.8105772432412, 18.638739482931], [73.8105781025514, 18.638736277254], [73.8105787288241, 18.6387330228766], [73.8105791191004, 18.6387297351745], [73.8105792715363, 18.6387264296813], [73.8105791854116, 18.6387231220142], [73.8105788611332, 18.638719827801], [73.8105783002334, 18.6387165626057], [73.8105775053621, 18.6387133418554], [73.8105764802749, 18.6387101807672], [73.810575229815, 18.6387070942761], [73.8105737598904, 18.6387040969648], [73.8105720774462, 18.6387012029946], [73.8105701904313, 18.6386984260388], [73.8105681077612, 18.6386957792174], [73.810565839276, 18.6386932750359], [73.8105534999138, 18.6386813651509], [73.8105403750675, 18.6386702445121], [73.8105265201776, 18.6386599600876], [73.8105119937658, 18.6386505553179], [73.8104968571902, 18.6386420699276], [73.8104811743864, 18.6386345397582], [73.8104650115968, 18.6386279966163], [73.8104484370915, 18.6386224681394], [73.8104315208795, 18.6386179776792], [73.8104143344131, 18.638614544203], [73.8103969502861, 18.6386121822133], [73.8102991111699, 18.6385993114172], [73.8102021832982, 18.6385812299136], [73.8101912343117, 18.6385792532986], [73.810180169367, 18.6385779934909], [73.8101690400371, 18.6385774563559], [73.810157898199, 18.6385776443972], [73.8101467957882, 18.6385785567383], [73.8101357845564, 18.6385801891267], [73.8101249158301, 18.6385825339531], [73.8101142402718, 18.6385855802876], [73.8101038076435, 18.6385893139305], [73.8100936665749, 18.6385937174779], [73.8100838643364, 18.6385987704038], [73.810064907443, 18.6386101001666], [73.8100467010215, 18.6386224980948], [73.8100293112189, 18.6386359191559], [73.8100128012139, 18.6386503145903], [73.8099972309887, 18.6386656320983], [73.8099826571111, 18.6386818160303], [73.8099691325296, 18.638698807589], [73.8099419467569, 18.6387376704419], [73.8099173239519, 18.6387780559412], [73.8098930634179, 18.6388245722632], [73.8098722024186, 18.6388725635558], [73.8098659851698, 18.6388869381592], [73.809858801245, 18.6389008972908], [73.8098506810055, 18.6389143819256], [73.809841658773, 18.6389273350678], [73.8098317726817, 18.6389397019681], [73.809821064517, 18.6389514303554], [73.8098095795393, 18.6389624706569], [73.8097973662921, 18.6389727762085], [73.8097933027253, 18.6389757715799], [73.8097890360444, 18.6389784981988], [73.8097845857685, 18.6389809436219], [73.8097799722582, 18.6389830966607], [73.8097752166212, 18.6389849474649], [73.8097703406151, 18.6389864875668], [73.8097653665485, 18.63898770992], [73.8097603171786, 18.6389886089323], [73.8097552156069, 18.6389891804904], [73.8097500851741, 18.6389894219793], [73.8097449493525, 18.6389893322943], [73.8097398316396, 18.6389889118457], [73.8097347554494, 18.638988162557], [73.8097297440065, 18.6389870878564], [73.8097248202391, 18.6389856926608], [73.809720006674, 18.6389839833535], [73.8097153253341, 18.6389819677548], [73.8097120880442, 18.6389803111782], [73.8097089785665, 18.6389784453511], [73.809706011769, 18.638976379155], [73.8097032018348, 18.6389741224676], [73.809700562197, 18.6389716860771], [73.8096981054746, 18.638969081631], [73.8096958434121, 18.6389663215799], [73.8096937868237, 18.6389634191187], [73.8096919455409, 18.6389603881226], [73.8096903283661, 18.6389572430818], [73.8096889430305, 18.6389539990313], [73.8096877961566, 18.6389506714797], [73.8096868932272, 18.6389472763345], [73.8096862385589, 18.6389438298265], [73.8096858352813, 18.6389403484321], [73.8096856853222, 18.6389368487943], [73.8096857893987, 18.6389333476436], [73.8096873325847, 18.6389177527432], [73.8096898911595, 18.6389022796629], [73.8096934551946, 18.6388869884272], [73.8096980108649, 18.6388719383506], [73.8097035404987, 18.6388571878125], [73.8097100226464, 18.6388427940301], [73.8097174321633, 18.638828812837], [73.8097257403079, 18.6388152984661], [73.8097349148527, 18.6388023033396], [73.8097408729256, 18.6387949138125], [73.8097473112813, 18.6387878998997], [73.8097542039286, 18.6387812899523], [73.809761523037, 18.6387751106593], [73.8097641029798, 18.638772921734], [73.8097665198559, 18.6387705697601], [73.8097687623497, 18.6387680657325], [73.8097708199616, 18.6387654213753], [73.8097726830574, 18.6387626490698], [73.809774342914, 18.6387597617964], [73.8097757917596, 18.6387567730737], [73.8097770228106, 18.6387536968953], [73.809778030303, 18.6387505476643], [73.8097788095196, 18.6387473401259], [73.809779356812, 18.6387440892982], [73.8097796696177, 18.6387408104021], [73.8097797464722, 18.6387375187898], [73.8097795870155, 18.6387342298732], [73.8097791919944, 18.6387309590514], [73.8097785632584, 18.6387277216389], [73.8097777037512, 18.6387245327936], [73.8097766174974, 18.6387214074463], [73.8097745106745, 18.6387164823209], [73.8097720673241, 18.638711700555], [73.809769298105, 18.6387070830165], [73.8097662151034, 18.6387026498583], [73.8097628317748, 18.6386984204285], [73.8097591628855, 18.6386944131861], [73.809755224448, 18.6386906456204], [73.8097510336514, 18.6386871341747], [73.809746608786, 18.6386838941742], [73.8097419691639, 18.6386809397598], [73.8097371350343, 18.6386782838258], [73.8097321274952, 18.6386759379637], [73.8097269684019, 18.6386739124118], [73.8097216802706, 18.6386722160105], [73.809716286181, 18.6386708561637], [73.8097108096751, 18.6386698388062], [73.8097052746546, 18.6386691683782], [73.8096997052768, 18.6386688478057], [73.809668570928, 18.6386687194302], [73.8096374631713, 18.6386699526541], [73.8095848784959, 18.638671514278], [73.8095323016246, 18.6386697299183], [73.809479966574, 18.6386646075387], [73.8094281062886, 18.6386561699391], [73.8094187195303, 18.6386540407575], [73.809409490278, 18.6386513578424], [73.8094004544417, 18.6386481316303], [73.8093916471764, 18.6386443746733], [73.8093831027481, 18.6386401015884], [73.8093748544002, 18.6386353290006], [73.8093669342239, 18.6386300754784], [73.8093593730338, 18.6386243614613], [73.8093568326546, 18.6386224558437], [73.8093541594141, 18.6386207232615], [73.8093513662587, 18.6386191720848], [73.8093484667116, 18.6386178098237], [73.8093454748112, 18.6386166430737], [73.8093424050429, 18.6386156774836], [73.8093392722691, 18.6386149177285], [73.8093360916575, 18.6386143674868], [73.809332878607, 18.6386140294224], [73.809329648674, 18.6386139051721], [73.8093264174962, 18.6386139953375], [73.8093232007177, 18.6386142994821], [73.8093200139127, 18.6386148161333], [73.8093168725103, 18.6386155427897], [73.8093137917197, 18.6386164759331], [73.8093107864568, 18.6386176110458], [73.8093078712718, 18.6386189426319], [73.8093050602787, 18.6386204642445], [73.8093023670872, 18.6386221685167], [73.8092725201431, 18.6386440006346], [73.8092442816485, 18.6386676975632], [73.8092177795694, 18.6386931519138], [73.8091931340036, 18.6387202483368], [73.8091704566365, 18.6387488640416], [73.8091461263192, 18.6387796936988], [73.8091197981872, 18.6388089938159], [73.8090915777775, 18.6388366469273], [73.8090615782164, 18.6388625421803], [73.8090299197622, 18.6388865757687], [73.8089967293236, 18.638908651349], [73.8089621399507, 18.6389286804271], [73.8087526170463, 18.6390409854372], [73.8086194495824, 18.639115132986], [73.8084892351877, 18.639193902787]]]}, "properties": {"name": "Lake_Sharma", "real_kml_name": "Lake Sharma", "area_ha": 3.6081}}]}