{"type": "FeatureCollection", "features": [{"type": "Feature", "geometry": {"type": "Polygon", "coordinates": [[[73.8111153086254, 18.6457706089915], [73.811002840632, 18.6457703994537], [73.8109459337631, 18.645805076975], [73.8109056287187, 18.6458748969919], [73.8108121198734, 18.6458874445072], [73.8107063290632, 18.6459042939265], [73.8106812569034, 18.6459858894368], [73.8104811945861, 18.6461247734535], [73.8104216579912, 18.6463171028637], [73.8104250382563, 18.6464364707182], [73.8105225522772, 18.6464398707434], [73.8105351494354, 18.6463903140353], [73.8106166612235, 18.6463411934082], [73.8106961840973, 18.6463577554213], [73.8109042695937, 18.646166365691], [73.8111075164499, 18.6460099826226], [73.8111153086254, 18.6457706089915]]]}, "properties": {"name": "Pond_4", "real_kml_name": "Pond 4", "area_ha": 0.2592}}]}