{"type": "FeatureCollection", "features": [{"type": "Feature", "geometry": {"type": "Polygon", "coordinates": [[[73.8122228913221, 18.6419818801252], [73.8121149233276, 18.6418717056988], [73.8120220436082, 18.6416831229262], [73.8117648910325, 18.6416639790538], [73.8113360191942, 18.6416729471968], [73.8111099822834, 18.6415839241525], [73.8110921338132, 18.6415078966823], [73.8107879185477, 18.6415395502931], [73.8101539344377, 18.6419735078036], [73.8098674054956, 18.642153842676], [73.8098831647444, 18.6423445738249], [73.8098060865162, 18.6424880655227], [73.8096803773975, 18.6425459279872], [73.8095699997498, 18.6424908368166], [73.8095437887754, 18.6423989504592], [73.8095390563994, 18.6423024715283], [73.8094224863497, 18.6423701545101], [73.8094134461431, 18.6423763018345], [73.809402484043, 18.642383531902], [73.8093873093263, 18.6423909177471], [73.8093734707659, 18.6423988595277], [73.8093569331814, 18.6424095215181], [73.8093504006073, 18.6424678759607], [73.8093648192852, 18.6425964380911], [73.8093243516559, 18.6426896150898], [73.8093266818822, 18.6427947423598], [73.8093132910703, 18.6429581658356], [73.8092328439467, 18.6430744479157], [73.8092127575216, 18.6433195831009], [73.809172940897, 18.6433193308875], [73.8091418853133, 18.6433804497657], [73.8092058788579, 18.6434275717916], [73.8092538256873, 18.6435797045884], [73.8093115308848, 18.6436501450811], [73.8092897858583, 18.6436938041796], [73.809301202763, 18.6438135879364], [73.809381039739, 18.643784895681], [73.8094612226043, 18.6437065691584], [73.8094833135013, 18.6436132757362], [73.8095454855467, 18.643482278888], [73.8095619593735, 18.6433159551225], [73.8097031134433, 18.6432788916359], [73.8099778923953, 18.6434061822674], [73.8101672178081, 18.6434891348028], [73.8104292988899, 18.6436805798213], [73.8105811187465, 18.6438713269275], [73.8105985605835, 18.6440057476833], [73.8106805252193, 18.6441113787675], [73.8107132203408, 18.6442546554067], [73.8107769910743, 18.6443338932493], [73.8107762389951, 18.6444419207572], [73.8107622395226, 18.6446929342768], [73.810684306432, 18.6448880672346], [73.8105677114018, 18.6451369716754], [73.810568063632, 18.6453063217697], [73.8106274640077, 18.6453534142934], [73.8106424834979, 18.6453958463013], [73.8106269354224, 18.6454293255449], [73.8106022699251, 18.6454525278103], [73.8105562050841, 18.6454697550716], [73.8104606058534, 18.6455625834183], [73.8104160317337, 18.6455856596684], [73.810380412329, 18.6456423701627], [73.8103830176588, 18.6457080819541], [73.8105221338512, 18.6457439998141], [73.8106090594631, 18.6457971061185], [73.8106561170737, 18.6458572595874], [73.8107345758615, 18.6458066596423], [73.8107883081057, 18.6457880209521], [73.8108928722933, 18.6457273668408], [73.8109602654224, 18.6457263332611], [73.8110028406292, 18.645770399449], [73.8111153086254, 18.6457706089915], [73.811073525981, 18.6456126759868], [73.8110141792018, 18.6453378401905], [73.8111143955327, 18.645090428613], [73.8111313289886, 18.6449679044919], [73.8112748759427, 18.6448622398932], [73.8112984199841, 18.6448901267793], [73.8114234951282, 18.6448529603742], [73.8114988548356, 18.6448074501374], [73.8115869015136, 18.6448094666934], [73.8117473228463, 18.6447409988687], [73.8118827378989, 18.6446484214599], [73.8119663298558, 18.6443000345942], [73.811915097651, 18.6437391105905], [73.8119962540235, 18.643520639025], [73.812110877864, 18.6433344965971], [73.8123102476833, 18.6428539903627], [73.812711789943, 18.6429356209395], [73.8127160153795, 18.6428648096365], [73.8127150874992, 18.6427938893803], [73.8127090107621, 18.6427232005591], [73.8126978143404, 18.6426530824501], [73.8126815519784, 18.6425838715907], [73.8126603017348, 18.6425159001634], [73.8126341656075, 18.6424494944017], [73.8126032690443, 18.6423849730242], [73.8125677603403, 18.6423226457048], [73.8125278099265, 18.6422628115866], [73.8125118756875, 18.6422421247057], [73.8124945906257, 18.6422224480755], [73.8124760250387, 18.6422038617193], [73.8124562544317, 18.6421864412266], [73.8124353592106, 18.6421702574451], [73.8124134243551, 18.6421553761929], [73.8123905390727, 18.6421418579909], [73.8123667964362, 18.6421297578165], [73.812349466556, 18.6421209006515], [73.8123327887819, 18.6421109708166], [73.8123168360721, 18.6421000117505], [73.8123016782124, 18.6420880713945], [73.8122873815117, 18.6420752019824], [73.8122740085116, 18.6420614598123], [73.8122616177129, 18.6420469050002], [73.8122502633196, 18.6420316012169], [73.812239995002, 18.6420156154098], [73.812230857679, 18.6419990175098], [73.8122228913221, 18.6419818801252]]]}, "properties": {"name": "Lake_Suman", "real_kml_name": "Lake Suman", "area_ha": 8.466}}]}