{"type": "FeatureCollection", "features": [{"type": "Feature", "geometry": {"type": "Polygon", "coordinates": [[[73.8139805985959, 18.6470735557825], [73.8140408216532, 18.6470024008531], [73.8139755271078, 18.6469216945358], [73.8139482753948, 18.6468762657687], [73.8138404554069, 18.6467441946608], [73.8137675748202, 18.646653221146], [73.8137464489661, 18.6466078310133], [73.8137240654368, 18.6465230157316], [73.8136971078952, 18.6464352517812], [73.8137160833753, 18.6463492376584], [73.8137621781269, 18.6461071857001], [73.8136611946041, 18.6460934093209], [73.8135272090902, 18.6459801515714], [73.8134629598197, 18.6459695267197], [73.8133599175902, 18.6460316518052], [73.813272646077, 18.6460281810776], [73.8132952524643, 18.6460808800646], [73.8133026053617, 18.6461247233896], [73.8132855161422, 18.6461596530082], [73.8132133560541, 18.646185475566], [73.8131257598592, 18.6462287193812], [73.8130413380826, 18.6462559243103], [73.8130058512546, 18.6462936575203], [73.8129764089979, 18.6463431080862], [73.8128939548746, 18.6463075498221], [73.8128450199055, 18.6462970215072], [73.8127695837369, 18.6463534810035], [73.8126418046158, 18.6464490270602], [73.812682564858, 18.6465339585261], [73.8126991975818, 18.6465647213951], [73.8126849478072, 18.6466317866232], [73.8126784668547, 18.6466828420372], [73.8126933550344, 18.6467442517261], [73.81273146855, 18.6467693107196], [73.8128171379443, 18.6467829909234], [73.8128723510176, 18.6467716604555], [73.8129306979869, 18.6467501305057], [73.8130197143451, 18.646722954621], [73.8131240146609, 18.6467002548995], [73.8131944406563, 18.6467036193844], [73.8132443797431, 18.6467900685976], [73.8132823614941, 18.646834105304], [73.8133006373699, 18.6468488196455], [73.813360505627, 18.6468287590647], [73.8133910026151, 18.6468479302834], [73.8134228890714, 18.646887548752], [73.8134410229782, 18.6469227007709], [73.8134315807709, 18.6469591385705], [73.8134051608262, 18.6470144478417], [73.8133790958526, 18.647018662988], [73.8133834569012, 18.6470522681278], [73.8134367227679, 18.647100780994], [73.8134869359111, 18.6471478146767], [73.8135403438059, 18.6471758898261], [73.8136166625734, 18.6472128689693], [73.8136976872428, 18.6472338189635], [73.8138866329991, 18.6471517972907], [73.8139805985959, 18.6470735557825]]]}, "properties": {"name": "Pond_1", "real_kml_name": "Pond 1", "area_ha": 0.996}}]}