{"type": "FeatureCollection", "features": [{"type": "Feature", "geometry": {"type": "Polygon", "coordinates": [[[77.9504536, 16.4585914], [77.9512925, 16.4583874], [77.9512298, 16.4553014], [77.9542678, 16.4552277], [77.9542321, 16.4564317], [77.9542412, 16.456476], [77.9546876, 16.4564225], [77.9548819, 16.4563845], [77.9553628, 16.4563642], [77.9557003, 16.4563374], [77.9559769, 16.4563382], [77.9572345, 16.4564259], [77.957233, 16.4563048], [77.9572409, 16.4562185], [77.9572814, 16.4561765], [77.9576259, 16.4559905], [77.9576883, 16.4559653], [77.9578279, 16.4559596], [77.9578684, 16.4560155], [77.9579627, 16.4560092], [77.9581176, 16.4559621], [77.9582105, 16.4559434], [77.9582859, 16.4558942], [77.9583248, 16.4558894], [77.9583583, 16.455864], [77.9584174, 16.4558481], [77.9585798, 16.455863], [77.9588448, 16.4558292], [77.9592731, 16.4557652], [77.959848, 16.4557113], [77.9600016, 16.455687], [77.9600438, 16.4556944], [77.9600141, 16.4566593], [77.9600085, 16.4576242], [77.959976, 16.457938], [77.959788, 16.4584707], [77.959651, 16.458957], [77.9595062, 16.4591716], [77.9593369, 16.4599736], [77.9593369, 16.4600116], [77.9586042, 16.4601312], [77.9578822, 16.4602816], [77.9576585, 16.4596398], [77.9574569, 16.4591016], [77.9573956, 16.4589327], [77.957341, 16.4588308], [77.9569633, 16.4590422], [77.9565802, 16.45926], [77.956344, 16.4591227], [77.9562273, 16.4589392], [77.9561685, 16.4587232], [77.9562093, 16.4585747], [77.956078, 16.4583287], [77.955778, 16.4583137], [77.9554394, 16.4584258], [77.9552594, 16.4584973], [77.9551545, 16.4585996], [77.954854, 16.4586877], [77.9546888, 16.4588519], [77.9544915, 16.4589543], [77.9545212, 16.4590741], [77.9545685, 16.4592383], [77.9545315, 16.4593573], [77.954502, 16.4593727], [77.9542165, 16.4596303], [77.9541028, 16.4603213], [77.9540115, 16.4604903], [77.9539415, 16.4605753], [77.9544689, 16.4610449], [77.9544705, 16.4611286], [77.9544835, 16.4613622], [77.9545045, 16.4616164], [77.9543655, 16.4616938], [77.9541565, 16.4617356], [77.9538005, 16.4618936], [77.9537699, 16.4619086], [77.9537379, 16.4619566], [77.9538727, 16.4623383], [77.9540142, 16.4627162], [77.9541099, 16.4633826], [77.9536559, 16.4634612], [77.9535369, 16.4635126], [77.9535149, 16.4632456], [77.9534929, 16.4629706], [77.9533829, 16.4624776], [77.9534922, 16.4622146], [77.9533102, 16.4621476], [77.9531003, 16.4621506], [77.9529418, 16.4617671], [77.9528395, 16.4614557], [77.9527118, 16.4610761], [77.9524794, 16.4606039], [77.9523978, 16.4604929], [77.9516953, 16.4606175], [77.9515239, 16.4606726], [77.9512508, 16.4607029], [77.9512681, 16.4602083], [77.950933, 16.4600684], [77.9508901, 16.4600066], [77.9504536, 16.4585914]]]}, "properties": {"name": "Soul Forest Veltoor - Site For Certification", "role": "aoi_boundary", "attr_source": "none", "area_ha": 44.2852}}]}