{"type": "FeatureCollection", "features": [{"type": "Feature", "geometry": {"type": "Polygon", "coordinates": [[[77.9585449, 16.4597361], [77.958541, 16.459714], [77.958545, 16.45969], [77.958562, 16.459669], [77.9585723, 16.4596597], [77.958575, 16.459645], [77.958602, 16.459633], [77.958614, 16.459621], [77.95863, 16.459615], [77.958621, 16.459606], [77.958652, 16.4596], [77.958664, 16.459588], [77.958685, 16.459584], [77.958715, 16.459584], [77.958728, 16.459585], [77.958744, 16.459585], [77.958757, 16.459585], [77.958791, 16.459593], [77.958803, 16.459606], [77.9588171, 16.4596191], [77.9588279, 16.4596281], [77.9588346, 16.4596384], [77.9588453, 16.4596551], [77.958852, 16.4596718], [77.958856, 16.4596847], [77.95886, 16.4597027], [77.9588614, 16.4597143], [77.9588641, 16.4597297], [77.9588641, 16.4597451], [77.9588641, 16.4597606], [77.95886, 16.4597773], [77.958856, 16.4597914], [77.9588493, 16.4598069], [77.9588399, 16.4598172], [77.9588305, 16.4598326], [77.9588211, 16.4598442], [77.9588051, 16.4598545], [77.958793, 16.4598635], [77.9587769, 16.4598763], [77.9587608, 16.4598815], [77.9587487, 16.4598815], [77.95873, 16.4598802], [77.9587125, 16.4598789], [77.9586991, 16.4598776], [77.9586857, 16.459875], [77.9586696, 16.4598712], [77.9586508, 16.4598635], [77.9586307, 16.4598545], [77.9586146, 16.4598455], [77.9586012, 16.4598313], [77.9585865, 16.4598185], [77.9585797, 16.4598056], [77.958569, 16.4597914], [77.9585596, 16.4597773], [77.9585529, 16.459758], [77.9585449, 16.4597361]]]}, "properties": {"name": "Island", "role": "candidate", "attr_source": "schemadata", "area_ha": 0.0878}}]}