{"type": "FeatureCollection", "features": [{"type": "Feature", "geometry": {"type": "Polygon", "coordinates": [[[77.9573096, 16.4566562], [77.957354, 16.456623], [77.9573963, 16.4566694], [77.9574761, 16.456725], [77.9575813, 16.456778], [77.957633, 16.456807], [77.9577344, 16.4568454], [77.957854, 16.45686], [77.9579493, 16.4568791], [77.9580995, 16.456881], [77.9581719, 16.4568742], [77.958247, 16.4568584], [77.958427, 16.456795], [77.9585425, 16.4567396], [77.958716, 16.456626], [77.9588071, 16.4564926], [77.958878, 16.456357], [77.958926, 16.4562404], [77.958961, 16.4560925], [77.9589503, 16.455942], [77.9600087, 16.4558154], [77.9600031, 16.456273], [77.9599976, 16.4567306], [77.9599677, 16.4576484], [77.9599465, 16.4579228], [77.9598193, 16.4583077], [77.9596749, 16.458765], [77.959309, 16.4589198], [77.9590921, 16.4589886], [77.9588926, 16.4590459], [77.9587333, 16.4590812], [77.9585686, 16.4591025], [77.9583708, 16.4591097], [77.9581677, 16.4591182], [77.9578203, 16.4591275], [77.9576512, 16.4591254], [77.9576245, 16.4590286], [77.9577019, 16.4589486], [77.9577714, 16.4588492], [77.9578083, 16.4586737], [77.9577938, 16.4586001], [77.9576252, 16.4584529], [77.9574636, 16.4583952], [77.9573551, 16.4583954], [77.9572465, 16.4584136], [77.9570456, 16.4584503], [77.9570039, 16.4584505], [77.9569282, 16.458434], [77.956859, 16.458407], [77.9567561, 16.4583611], [77.9565994, 16.4582703], [77.9564695, 16.4582115], [77.9563343, 16.4581347], [77.9562607, 16.4580874], [77.9562206, 16.4580259], [77.9562053, 16.4579979], [77.9562007, 16.4579621], [77.9562613, 16.4578508], [77.9563165, 16.4577343], [77.9564541, 16.457456], [77.9566329, 16.4572494], [77.9569954, 16.456837], [77.9571766, 16.4567595], [77.9573096, 16.4566562]]]}, "properties": {"name": "Fruit Forest", "role": "ecological_anchor", "attr_source": "schemadata", "area_ha": 9.2429}}, {"type": "Feature", "geometry": {"type": "Polygon", "coordinates": [[[77.9575976, 16.4594881], [77.9578284, 16.4595058], [77.9580806, 16.4594824], [77.9586387, 16.4593121], [77.9596691, 16.4589407], [77.9595474, 16.4594064], [77.9594671, 16.459748], [77.9593913, 16.4600859], [77.9579313, 16.4603504], [77.9575976, 16.4594881]]]}, "properties": {"name": "Wetland", "role": "ecological_anchor", "attr_source": "schemadata", "area_ha": 1.9306}}, {"type": "Feature", "geometry": {"type": "Polygon", "coordinates": [[[77.95786599929552, 16.45602333179944], [77.95789873138989, 16.45602149082766], [77.9579468771787, 16.45601700173884], [77.95797643136696, 16.45601260287564], [77.95802027352448, 16.45600195697926], [77.95806874312598, 16.4559855137174], [77.95810313831373, 16.45597427606973], [77.95815056581142, 16.45596651949812], [77.95819402424866, 16.4559580505576], [77.95822705160217, 16.45594696795175], [77.95827755437612, 16.45592076988857], [77.95827791980356, 16.45594859422276], [77.9582738816668, 16.45597263817486], [77.95827640311818, 16.4560094821108], [77.9582824795508, 16.45603623425639], [77.95828700945262, 16.45606612354404], [77.95828914801058, 16.45609549373892], [77.95828816338744, 16.45612504008002], [77.95827704519758, 16.45616384081884], [77.95827346974693, 16.45620015978081], [77.95826910864731, 16.45623426982923], [77.95825161780247, 16.45626560834604], [77.95822856201214, 16.45629080754311], [77.9581949313845, 16.45632308542637], [77.95815541460222, 16.45635922594003], [77.95809363549917, 16.45639661031811], [77.95806669202517, 16.45639740620614], [77.95803707276556, 16.4563982813769], [77.95800472160116, 16.45639809841171], [77.95797307457794, 16.45638995853836], [77.95795207902832, 16.45638045722527], [77.95793561188692, 16.45636760664648], [77.95792371612929, 16.45634829233977], [77.95790709281073, 16.45632316161348], [77.95789288166755, 16.45628743711406], [77.95787473186778, 16.45624251566164], [77.95785534907627, 16.45620991685364], [77.95785067761237, 16.45617907770919], [77.9578371657093, 16.45614604831936], [77.95782284575287, 16.45610997104043], [77.95781106080236, 16.45607840688917], [77.9577983756883, 16.45604648324511], [77.95778985472481, 16.45601423286445], [77.95783606451315, 16.45598184186435], [77.95786599929552, 16.45602333179944]]]}, "properties": {"name": "Rock Guild", "role": "ecological_anchor", "attr_source": "none", "area_ha": 0.189}}]}