{"type": "FeatureCollection", "features": [{"type": "Feature", "geometry": {"type": "Polygon", "coordinates": [[[77.9572537, 16.4564204], [77.9572487, 16.4563313], [77.9572468, 16.4562782], [77.957245, 16.4562101], [77.9576677, 16.455997], [77.9576979, 16.4559829], [77.9577636, 16.4559847], [77.957795, 16.45605], [77.9578128, 16.4561047], [77.9578269, 16.4561369], [77.957857, 16.456225], [77.957923, 16.45637], [77.957973, 16.456403], [77.958063, 16.45642], [77.958195, 16.456356], [77.958265, 16.456269], [77.958296, 16.456154], [77.9582931, 16.4560577], [77.9582853, 16.4560262], [77.9582868, 16.4559973], [77.958287, 16.455977], [77.9582907, 16.4559193], [77.9583507, 16.4559104], [77.9583921, 16.455906], [77.958432, 16.455902], [77.9584981, 16.4559039], [77.9585401, 16.4558981], [77.9587201, 16.4558667], [77.958936, 16.455833], [77.958956, 16.45597], [77.958945, 16.456127], [77.958905, 16.456279], [77.958838, 16.456442], [77.9587039, 16.4566196], [77.9586205, 16.4566821], [77.9585318, 16.4567344], [77.958485, 16.4567613], [77.958371, 16.456821], [77.958239, 16.4568494], [77.958113, 16.4568707], [77.957948, 16.4568663], [77.9578363, 16.456853], [77.9577613, 16.4568399], [77.957705, 16.4568217], [77.957564, 16.456758], [77.957509, 16.456728], [77.957354, 16.456623], [77.9572537, 16.4564204]]]}, "properties": {"name": "Admin Area", "role": "exclusion_soft", "attr_source": "schemadata", "area_ha": 1.3012}}, {"type": "Feature", "geometry": {"type": "Polygon", "coordinates": [[[77.9534107, 16.4561192], [77.9541573, 16.4562073], [77.9541574, 16.4564427], [77.9534031, 16.4565195], [77.9526424, 16.4566376], [77.9520105, 16.4567429], [77.9520161, 16.4560623], [77.9534107, 16.4561192]]]}, "properties": {"name": "Guest Area", "role": "exclusion_soft", "attr_source": "schemadata", "area_ha": 1.17}}, {"type": "Feature", "geometry": {"type": "Polygon", "coordinates": [[[77.9540181, 16.4580172], [77.9540316, 16.4580258], [77.9540409, 16.4580339], [77.9540558, 16.4580578], [77.9540729, 16.4580764], [77.9540926, 16.4580877], [77.9541141, 16.4581018], [77.9541609, 16.4581121], [77.9542117, 16.4581134], [77.9542833, 16.4581166], [77.9543777, 16.4581469], [77.954438, 16.458162], [77.9544693, 16.458154], [77.9545354, 16.4581278], [77.9545901, 16.458124], [77.9547105, 16.4580752], [77.9548172, 16.4580701], [77.9548939, 16.4580896], [77.9549518, 16.458122], [77.9550032, 16.4581662], [77.9550305, 16.4582207], [77.9550461, 16.4582525], [77.9550644, 16.4582894], [77.9550732, 16.4583601], [77.955066, 16.4584243], [77.9550507, 16.4584667], [77.955005, 16.458527], [77.9549249, 16.4585827], [77.9548172, 16.4586113], [77.9547014, 16.4585885], [77.9545557, 16.4585196], [77.954292, 16.458522], [77.9538962, 16.4585126], [77.9536782, 16.4584953], [77.9536057, 16.4582778], [77.9535909, 16.4582351], [77.9535753, 16.4581873], [77.953596, 16.4581524], [77.9535824, 16.4581089], [77.9535527, 16.4580706], [77.9535025, 16.4581056], [77.953397, 16.458192], [77.953402, 16.458217], [77.9532984, 16.4582547], [77.9531871, 16.4582444], [77.9531602, 16.4582187], [77.953065, 16.4582213], [77.9529899, 16.4581994], [77.9528518, 16.4581171], [77.9527364, 16.4580001], [77.9526479, 16.4579088], [77.9526845, 16.4578747], [77.9528766, 16.4578407], [77.9532952, 16.4578141], [77.9533346, 16.4578933], [77.9533267, 16.4579255], [77.953269, 16.4579744], [77.9532019, 16.4579769], [77.9531724, 16.4580181], [77.9531738, 16.4580425], [77.9531658, 16.4580747], [77.9531295, 16.4580889], [77.9531242, 16.4581081], [77.9531322, 16.4581519], [77.9531778, 16.4581441], [77.9531966, 16.4581287], [77.9532221, 16.4581493], [77.9532435, 16.458157], [77.9532751, 16.4581428], [77.9532972, 16.4581249], [77.9533366, 16.4580993], [77.9533642, 16.4580772], [77.9533978, 16.4580618], [77.9534238, 16.4580409], [77.9534608, 16.458013], [77.9535031, 16.4579899], [77.9535392, 16.4579657], [77.9535956, 16.4579461], [77.9536486, 16.4579038], [77.95365, 16.4578845], [77.9536701, 16.4578614], [77.9536956, 16.4578523], [77.953722, 16.457868], [77.9537425, 16.4578858], [77.9537707, 16.4578781], [77.9537908, 16.4578884], [77.9538438, 16.4578714], [77.9539055, 16.4578817], [77.9539404, 16.4578714], [77.9539323, 16.4578148], [77.9539564, 16.4577634], [77.9539618, 16.4577042], [77.9539967, 16.4576862], [77.9540181, 16.4577145], [77.9540369, 16.4577582], [77.9540262, 16.4578045], [77.9540101, 16.457856], [77.954011, 16.457912], [77.9539994, 16.4579666], [77.9540181, 16.4580172]]]}, "properties": {"name": "Speciality Zone - Nursery, NV, OV, FP", "role": "exclusion_soft", "attr_source": "schemadata", "area_ha": 1.1021}}]}