<kml xmlns="http://www.opengis.net/kml/2.2"><Document>
<Placemark>
<name>TCF PLANTATION KARPA PF384 Area 150 hqtr.</name><description>&#x3C;table border="1" cellpadding="4" cellspacing="0">&#x3C;tr>&#x3C;th align="left">AltMode&#x3C;/th>&#x3C;td>0&#x3C;/td>&#x3C;/tr>&#x3C;tr>&#x3C;th align="left">Base&#x3C;/th>&#x3C;td>0&#x3C;/td>&#x3C;/tr>&#x3C;tr>&#x3C;th align="left">Clamped&#x3C;/th>&#x3C;td>-1&#x3C;/td>&#x3C;/tr>&#x3C;tr>&#x3C;th align="left">Extruded&#x3C;/th>&#x3C;td>0&#x3C;/td>&#x3C;/tr>&#x3C;tr>&#x3C;th align="left">FolderPath&#x3C;/th>&#x3C;td>Document&#x3C;/td>&#x3C;/tr>&#x3C;tr>&#x3C;th align="left">Name&#x3C;/th>&#x3C;td>TCF PLANTATION KARPA PF384 Area 150 hqtr.&#x3C;/td>&#x3C;/tr>&#x3C;tr>&#x3C;th align="left">Shape_Area&#x3C;/th>&#x3C;td>0.000133971951267&#x3C;/td>&#x3C;/tr>&#x3C;tr>&#x3C;th align="left">Shape_Leng&#x3C;/th>&#x3C;td>0.066149619666&#x3C;/td>&#x3C;/tr>&#x3C;tr>&#x3C;th align="left">SymbolID&#x3C;/th>&#x3C;td>0&#x3C;/td>&#x3C;/tr>&#x3C;/table></description><ExtendedData>
  <Data name="AltMode"><value>0</value></Data>
  <Data name="Base"><value>0</value></Data>
  <Data name="Clamped"><value>-1</value></Data>
  <Data name="Extruded"><value>0</value></Data>
  <Data name="FolderPath"><value>Document</value></Data>
  <Data name="Name"><value>TCF PLANTATION KARPA PF384 Area 150 hqtr.</value></Data>
  <Data name="Shape_Area"><value>0.000133971951267</value></Data>
  <Data name="Shape_Leng"><value>0.066149619666</value></Data>
  <Data name="SymbolID"><value>0</value></Data></ExtendedData>
  <Polygon>
<outerBoundaryIs>
  <LinearRing><coordinates>81.21428120000007,23.812564800000075
81.21644980000008,23.81358320000004
81.21798770000004,23.81316510000005
81.21896132800003,23.81186607700005
81.21549560000005,23.810169800000043
81.21294848600009,23.80834837900005
81.21132541400004,23.806340722000073
81.21150981600005,23.80471555400004
81.21036987800005,23.80336399400005
81.21188532600007,23.801440618000072
81.21250189800008,23.80086697400003
81.21318317900005,23.800060188000035
81.21305074500003,23.798339844000054
81.21202547100006,23.796929930000033
81.21065020000003,23.797760100000062
81.20836390000007,23.797539800000038
81.20785600000005,23.796388200000024
81.20677300000006,23.79667440000003
81.20554560000005,23.79647620000003
81.20207150000005,23.79654160000007
81.20146960000005,23.79997670000006
81.20196320000008,23.802465200000032
81.20270450000004,23.80450270000006
81.20519890000008,23.804016500000046
81.20487600000007,23.80345140000003
81.20595230000005,23.803413100000057
81.20738460000007,23.808119500000032
81.20833010000007,23.811675600000058
81.20938150000006,23.81180070000005
81.20973120000008,23.81344880000006
81.21016640000005,23.81336320000003
81.21019150000006,23.813475200000028
81.21039200000007,23.813451900000075
81.21191380000005,23.81349700000004
81.21268800000007,23.813539900000023
81.21317080000006,23.813238700000056
81.21361270000006,23.81285440000005
81.21428120000007,23.812564800000075</coordinates></LinearRing></outerBoundaryIs></Polygon></Placemark></Document></kml>