<kml xmlns="http://www.opengis.net/kml/2.2"><Document>
<Placemark>
<name>ngo 289+288</name><description>&#x3C;table border="1" cellpadding="4" cellspacing="0">&#x3C;tr>&#x3C;th align="left">AltMode&#x3C;/th>&#x3C;td>0&#x3C;/td>&#x3C;/tr>&#x3C;tr>&#x3C;th align="left">Base&#x3C;/th>&#x3C;td>0&#x3C;/td>&#x3C;/tr>&#x3C;tr>&#x3C;th align="left">Clamped&#x3C;/th>&#x3C;td>-1&#x3C;/td>&#x3C;/tr>&#x3C;tr>&#x3C;th align="left">Extruded&#x3C;/th>&#x3C;td>0&#x3C;/td>&#x3C;/tr>&#x3C;tr>&#x3C;th align="left">FolderPath&#x3C;/th>&#x3C;td>Document&#x3C;/td>&#x3C;/tr>&#x3C;tr>&#x3C;th align="left">Name&#x3C;/th>&#x3C;td>ngo 289+288&#x3C;/td>&#x3C;/tr>&#x3C;tr>&#x3C;th align="left">PopupInfo&#x3C;/th>&#x3C;td>g&#x3C;/td>&#x3C;/tr>&#x3C;tr>&#x3C;th align="left">Shape_Area&#x3C;/th>&#x3C;td>0.000119866839459&#x3C;/td>&#x3C;/tr>&#x3C;tr>&#x3C;th align="left">Shape_Leng&#x3C;/th>&#x3C;td>0.0770511289901&#x3C;/td>&#x3C;/tr>&#x3C;tr>&#x3C;th align="left">SymbolID&#x3C;/th>&#x3C;td>0&#x3C;/td>&#x3C;/tr>&#x3C;/table></description><ExtendedData>
  <Data name="AltMode"><value>0</value></Data>
  <Data name="Base"><value>0</value></Data>
  <Data name="Clamped"><value>-1</value></Data>
  <Data name="Extruded"><value>0</value></Data>
  <Data name="FolderPath"><value>Document</value></Data>
  <Data name="Name"><value>ngo 289+288</value></Data>
  <Data name="PopupInfo"><value>g</value></Data>
  <Data name="Shape_Area"><value>0.000119866839459</value></Data>
  <Data name="Shape_Leng"><value>0.0770511289901</value></Data>
  <Data name="SymbolID"><value>0</value></Data></ExtendedData>
  <Polygon>
<outerBoundaryIs>
  <LinearRing><coordinates>81.53073880000017,23.870484400000123
81.53072710000009,23.870509500000082
81.53071280000012,23.870478400000025
81.53070710000003,23.870458200000087
81.53070950000006,23.87041430000005
81.53070370000012,23.87039920000001
81.53068980000018,23.87037880000014
81.53068150000001,23.870372700000132
81.53066540000015,23.87036950000004
81.53064130000008,23.870386600000078
81.53063500000007,23.87039650000014
81.53062590000008,23.870402700000117
81.5306116000001,23.87040450000012
81.53055330000007,23.87039780000009
81.53053090000003,23.87038580000018
81.53051710000011,23.870382500000062
81.5303732000001,23.870391400000074
81.53036140000017,23.8703852000001
81.53034490000005,23.87036810000012
81.53031130000011,23.870345900000075
81.53023200000014,23.870340000000112
81.53017180000012,23.87035220000007
81.53016190000005,23.870351300000152
81.53015340000002,23.870346200000085
81.53014310000009,23.870344000000102
81.53010970000014,23.870348300000103
81.52998990000003,23.870323300000166
81.52994970000003,23.870323400000135
81.52987530000013,23.870308100000102
81.52981110000013,23.870308100000102
81.52969960000013,23.870279900000128
81.5296777000001,23.870279500000095
81.52962430000014,23.87026650000007
81.52954130000018,23.870264500000076
81.52946880000007,23.870278799999994
81.52945270000015,23.8702775000001
81.5294411000001,23.870274000000165
81.52943360000017,23.870268000000184
81.52939650000013,23.87025210000013
81.52931280000013,23.870247500000062
81.52923110000012,23.870217100000048
81.5292161000001,23.870218000000136
81.52917900000006,23.87023340000019
81.52916190000008,23.870261400000174
81.52915090000005,23.870265300000142
81.52910830000008,23.87026830000019
81.52897970000011,23.87036410000013
81.52888810000013,23.8704259000001
81.52879110000009,23.870511100000044
81.5286061000001,23.870640000000037
81.52848499999999,23.87076840000003
81.52839340000008,23.8708314000001
81.52834690000014,23.870882400000028
81.52833800000013,23.87088800000015
81.52830200000017,23.870886700000028
81.52822970000005,23.870906900000136
81.52821850000015,23.870913200000075
81.52820100000014,23.87093530000016
81.52818630000019,23.870943600000146
81.52817320000014,23.870945200000108
81.52813600000007,23.870960300000093
81.52812270000004,23.870964100000037
81.52804220000013,23.87094580000013
81.52801750000003,23.87094920000004
81.5280069000001,23.87095620000008
81.52799780000005,23.870966700000114
81.52797830000003,23.87098070000019
81.52796460000013,23.870982100000106
81.52792610000012,23.87097270000004
81.52782430000008,23.870978100000116
81.52780240000004,23.870984200000123
81.52778140000004,23.870985500000018
81.52774700000003,23.870973300000117
81.5276745000001,23.87097370000015
81.5275476000001,23.870994600000074
81.52753670000004,23.870994000000053
81.5275254,23.870990400000096
81.52747030000006,23.87098650000013
81.5274487000001,23.870977800000105
81.52742490000003,23.87097400000016
81.52739960000008,23.87097890000001
81.5272991000001,23.870968700000052
81.52726280000013,23.870969300000127
81.52719580000013,23.87098930000019
81.52716680000003,23.870991600000025
81.5271536000002,23.87099450000005
81.52714290000017,23.87100610000016
81.52712550000012,23.871013900000094
81.52708380000007,23.87101560000002
81.52704370000015,23.871028700000068
81.52702490000019,23.87102809999999
81.52699840000014,23.8710162000001
81.52698590000017,23.871014600000137
81.5268243000001,23.871043600000068
81.52658450000013,23.871047800000042
81.52617100000003,23.871083200000157
81.5260426000001,23.871110000000044
81.52595370000017,23.870692700000177
81.5258586000001,23.87043570000003
81.52585500000004,23.870394300000157
81.52575480000007,23.87019079999999
81.52574650000008,23.87010310000005
81.5257486000001,23.870026400000086
81.5257455000002,23.870013600000107
81.52573950000004,23.87000420000004
81.52572220000002,23.86999160000005
81.52568539999999,23.869981000000053
81.52566850000005,23.86998000000017
81.52565810000004,23.86998180000012
81.52562690000013,23.869995500000186
81.52560940000012,23.869996100000094
81.52560010000008,23.869991800000093
81.52558390000013,23.86998850000015
81.52553510000018,23.86999620000006
81.5254953000001,23.870015500000083
81.52548569999999,23.87002690000014
81.52548360000003,23.870036100000164
81.52549710000007,23.870059700000184
81.52549650000003,23.8700697000001
81.52549330000011,23.870078700000136
81.52548450000006,23.870084600000098
81.52545720000012,23.87008710000015
81.52544699999999,23.870083600000047
81.52543490000005,23.870082300000092
81.52542240000008,23.87008370000001
81.52527050000015,23.87014930000015
81.52525870000005,23.870175500000187
81.52523020000018,23.870202300000074
81.5250480000002,23.8702952000001
81.52501010000009,23.870324800000105
81.52498540000016,23.87035790000016
81.52491370000013,23.87040570000005
81.52482410000016,23.87043420000009
81.52462820000011,23.87056910000007
81.52455640000005,23.870582800000136
81.52454890000013,23.8705930000001
81.52454590000008,23.87060460000015
81.52453960000008,23.8706150000001
81.52453180000015,23.870623200000068
81.52446340000017,23.870651900000155
81.5244542000001,23.870662300000106
81.524449,23.870676900000095
81.52444150000014,23.87068820000013
81.52441260000006,23.87071229999998
81.52440020000006,23.870717900000102
81.52438700000005,23.870720200000108
81.52437620000006,23.870719700000052
81.52435600000013,23.87071200000014
81.52433610000008,23.87071500000002
81.5242921000002,23.870735200000126
81.52425050000011,23.870776500000147
81.52423020000003,23.87078490000016
81.52421960000004,23.87079280000006
81.52420620000004,23.870827300000087
81.5242063,23.870845100000167
81.52422109999998,23.870884400000023
81.52422290000015,23.87089630000014
81.52422060000015,23.87090730000017
81.52419510000016,23.870938100000046
81.52409390000014,23.87112210000015
81.52408750000012,23.871149400000093
81.52404260000014,23.871210000000133
81.52404010000015,23.87123200000019
81.52403330000011,23.871248400000127
81.52402460000008,23.8712589000001
81.52401480000015,23.871265500000106
81.52400130000012,23.871271000000036
81.52394460000005,23.871281700000054
81.52393460000008,23.871287200000154
81.52387970000018,23.87133760000006
81.52385990000018,23.87138090000008
81.52385020000003,23.871393300000022
81.52377950000005,23.871448500000156
81.52375120000005,23.871499600000107
81.52371210000018,23.871538700000144
81.52370350000018,23.871543100000167
81.5236384000001,23.871601199999986
81.52363279999997,23.871614400000055
81.5236353000002,23.871630200000084
81.52364370000005,23.87163490000012
81.52369540000001,23.871643100000085
81.52371570000008,23.871654400000125
81.52379410000003,23.871680400000177
81.52392800000007,23.87174370000008
81.52405160000018,23.871782400000086
81.52414470000008,23.87185870000019
81.52418500000005,23.871935100000087
81.52419420000007,23.87194340000008
81.52421760000004,23.87195630000008
81.52430290000018,23.872027200000105
81.52431530000018,23.872050000000176
81.52431600000006,23.872067500000014
81.52430580000009,23.872096700000156
81.52430570000007,23.872113500000125
81.52433900000017,23.872237600000062
81.52433900000017,23.872275200000164
81.52435420000018,23.87232260000019
81.52437920000011,23.872359500000016
81.52439850000013,23.872419200000024
81.52442230000014,23.872452900000155
81.52445790000007,23.872638000000165
81.52454270000015,23.872883500000057
81.52456750000005,23.872926300000017
81.52463890000013,23.872996100000137
81.52465560000007,23.873019300000124
81.5247010000001,23.873053800000093
81.52470810000017,23.873063400000035
81.52472240000009,23.87314249999997
81.5247826000001,23.873255800000155
81.52478630000007,23.87326890000014
81.5247806000001,23.873323200000186
81.5247924000002,23.873398400000042
81.52477770000007,23.87346010000016
81.52476940000008,23.873474000000044
81.52475030000011,23.873486500000013
81.52474440000015,23.87349710000018
81.5247394000001,23.87356280000012
81.52474630000012,23.87358100000006
81.52474700000016,23.873596500000076
81.52473770000012,23.87363550000009
81.52470850000003,23.873690400000044
81.5246901000001,23.873706000000084
81.52466630000009,23.87371420000005
81.52465950000004,23.87372110000007
81.5246537000001,23.873732300000142
81.52464300000008,23.87385400000005
81.52464550000013,23.873862900000063
81.52464490000006,23.87387510000019
81.52464690000005,23.87388590000006
81.52464050000009,23.87390140000008
81.52461560000012,23.87392530000011
81.52457360000005,23.873996999999974
81.52454080000018,23.874151900000186
81.52453420000018,23.874161800000138
81.52447780000013,23.874204900000166
81.52443820000019,23.874278200000163
81.52432480000004,23.874374000000106
81.52431620000004,23.8743846000001
81.52431220000005,23.874396600000182
81.52431130000019,23.874411000000123
81.52430760000004,23.874420500000042
81.52422610000008,23.874526600000138
81.52417270000007,23.874580300000105
81.52405450000009,23.874621000000104
81.52401430000015,23.87465300000008
81.52399320000018,23.874662000000114
81.52398460000018,23.874674200000072
81.5239519000001,23.874701900000048
81.52391850000004,23.874711400000137
81.52390150000019,23.874720499999967
81.52387660000012,23.874752100000137
81.52386960000007,23.874773200000106
81.52383200000014,23.874822700000095
81.5238196000002,23.874828100000173
81.5237018000002,23.874844200000098
81.5236834000001,23.874857300000144
81.5235945,23.87499910000014
81.52349800000002,23.87506420000017
81.52347590000016,23.875067800000124
81.52345330000009,23.875063200000113
81.52342570000008,23.875050800000167
81.5233894000001,23.87504410000014
81.52336950000006,23.875043900000094
81.52335360000018,23.875047200000044
81.52323760000019,23.87510709999998
81.52316930000018,23.875120500000037
81.52300590000016,23.87520840000002
81.52298390000016,23.87521370000013
81.52297390000018,23.875213000000088
81.52294760000012,23.875218500000187
81.52265910000006,23.875364400000137
81.52263960000005,23.875381500000174
81.52262340000016,23.875404400000093
81.52262210000004,23.87541500000009
81.52260520000004,23.875437000000147
81.52255450000013,23.87547470000004
81.52249250000017,23.875483500000087
81.52248090000006,23.87548850000013
81.52244460000009,23.875494100000026
81.52215560000019,23.875614700000085
81.52205030000016,23.875690400000114
81.52191980000003,23.875711500000083
81.52188500000017,23.87570870000002
81.52187340000006,23.875716000000125
81.52186770000014,23.875740500000177
81.5218733000001,23.875786600000083
81.52189800000019,23.875809600000025
81.52190190000016,23.875823999999966
81.52189500000009,23.875833600000078
81.52187840000016,23.875840000000096
81.52179680000012,23.8758385000001
81.52167340000005,23.875817000000097
81.52159400000005,23.875840000000096
81.52158020000019,23.875840500000095
81.52151760000015,23.875817200000142
81.52126320000002,23.87584470000013
81.52123050000017,23.875855700000102
81.52116770000015,23.875897500000008
81.5211498000001,23.87593230000005
81.52114570000009,23.875953400000018
81.5211369000001,23.875962100000038
81.52112230000012,23.87596860000008
81.52084530000013,23.875976400000184
81.52073039999999,23.87600370000013
81.52060150000017,23.876008899999988
81.5204912000001,23.876030100000154
81.52042180000007,23.87603160000009
81.52040780000016,23.876027900000167
81.52035290000005,23.875999100000115
81.52034100000014,23.875996600000065
81.52032950000006,23.87599770000014
81.52031760000017,23.875995999999986
81.52028380000019,23.87597649999998
81.52025850000007,23.875968100000023
81.5202483000001,23.87596770000016
81.52022630000005,23.875972700000034
81.52013590000001,23.876027800000145
81.5200715000002,23.876033400000097
81.52001030000014,23.876025600000162
81.51983140000004,23.8760635000001
81.51979250000005,23.87606530000005
81.5197800000001,23.876071000000024
81.51975930000015,23.876089900000125
81.51974760000007,23.876096600000153
81.5197344,23.876100600000147
81.51961690000007,23.87609350000008
81.51956070000006,23.876103099999966
81.51954590000008,23.876110800000106
81.51953290000006,23.876123300000074
81.51949270000011,23.87613540000018
81.51943840000007,23.876180300000158
81.51933570000006,23.87619690000014
81.51913660000014,23.876276300000086
81.51912860000016,23.876283900000033
81.51910600000008,23.87632150000013
81.5190944000002,23.876320800000087
81.51908490000011,23.876316300000042
81.51907310000018,23.876315200000136
81.51906240000005,23.876316500000087
81.51904450000012,23.876328100000137
81.51903100000011,23.87633250000016
81.51898930000004,23.876367300000027
81.51897660000003,23.876372100000026
81.51894920000007,23.876374300000066
81.51891410000019,23.87639220000011
81.5189069000001,23.876399600000184
81.51889560000006,23.876406600000053
81.51888590000016,23.876410000000135
81.5187691000001,23.87642670000014
81.51875220000011,23.8764245000001
81.51869300000004,23.87639860000013
81.51865340000012,23.87639730000018
81.51863880000013,23.876409400000114
81.51863240000017,23.87644300000005
81.51860440000013,23.87646589999997
81.5185832000002,23.876493000000096
81.51857980000005,23.876504599999976
81.51858170000003,23.876515400000187
81.51858770000018,23.876523500000133
81.51859600000017,23.87653020000016
81.51860600000009,23.876534900000024
81.51860980000004,23.876543200000185
81.51859900000005,23.876560600000175
81.51858830000003,23.876571000000183
81.51853070000011,23.87659100000002
81.51848080000002,23.876619900000094
81.51838970000017,23.87670640000016
81.51828630000011,23.876743900000065
81.51826050000011,23.876739900000075
81.51824800000014,23.87674010000012
81.51823339999999,23.876744800000154
81.51822330000005,23.87675270000011
81.51821920000009,23.876771200000007
81.51822420000015,23.876783000000103
81.5184708000001,23.876946100000115
81.51854770000006,23.877022800000077
81.51861050000014,23.87704520000011
81.51871840000018,23.877111500000126
81.51874480000004,23.877120100000127
81.51887580000005,23.877199600000097
81.51901400000008,23.877241300000037
81.51905030000012,23.877239700000075
81.5191362000001,23.877262100000166
81.51914690000007,23.877262700000188
81.51915460000004,23.877254700000037
81.51916560000006,23.877251400000148
81.51921040000019,23.87725350000017
81.51923280000011,23.87726280000004
81.51924020000018,23.87726980000008
81.51926100000016,23.87728050000004
81.51926890000004,23.877288600000043
81.51928130000005,23.877294700000164
81.51930590000012,23.87729980000006
81.51931969999998,23.877296200000103
81.51933100000002,23.87728290000007
81.51933630000013,23.877264200000127
81.51933650000014,23.877250900000092
81.51932450000004,23.87722610000003
81.51937250000009,23.877151000000026
81.51939490000018,23.877144800000053
81.51940660000008,23.87713790000015
81.5194178000001,23.87712660000011
81.51942870000016,23.87712350000004
81.51946100000015,23.877128400000117
81.51955190000001,23.877122100000122
81.51968020000015,23.87716910000006
81.51973150000015,23.877176899999995
81.51976820000017,23.87720620000016
81.5197794,23.877211900000077
81.5199016000002,23.877242700000124
81.51994669999999,23.8772613000001
81.52007670000013,23.87729430000013
81.52020360000012,23.877341200000107
81.52022890000006,23.877344600000015
81.5202540000002,23.877354000000082
81.52031220000003,23.877400300000033
81.52034460000004,23.87741150000005
81.52036940000018,23.877436200000147
81.52038130000011,23.877435700000095
81.52045390000006,23.877466400000174
81.52046680000007,23.87747540000004
81.52047620000013,23.877489700000126
81.52052860000003,23.877525700000092
81.5205749000001,23.877537500000187
81.52063280000012,23.87755900000019
81.52065340000001,23.87756939999997
81.52068630000008,23.87760000000003
81.52069540000014,23.877622500000143
81.52069560000018,23.877649200000178
81.5207088000002,23.87767800000012
81.52072350000014,23.87769550000013
81.52075070000012,23.877709800000048
81.52078190000003,23.8777381000001
81.52081970000012,23.87778860000003
81.52086100000014,23.877910900000188
81.52089370000004,23.87795010000002
81.5209503000001,23.877987300000086
81.52096710000006,23.87803180000003
81.52099830000014,23.878067100000123
81.52102790000009,23.87808330000007
81.52103860000011,23.878086100000132
81.52105070000005,23.878092000000038
81.52113460000004,23.878157699999974
81.52114690000019,23.878177400000027
81.52127100000018,23.878296800000157
81.52147830000007,23.8783739000001
81.5215297000001,23.87841070000013
81.52159590000002,23.87844010000009
81.52182880000015,23.878492100000134
81.52195600000016,23.8785003000001
81.52196870000017,23.87849760000006
81.52200890000012,23.87850070000013
81.52205680000014,23.878519600000118
81.52213200000017,23.878585800000053
81.52220790000007,23.878690200000165
81.52250980000014,23.878954100000158
81.52265330000012,23.87905030000013
81.5227839000001,23.87917390000007
81.52284750000001,23.879217500000095
81.5230069000001,23.87931760000004
81.52310420000015,23.87934750000005
81.52317790000018,23.879388000000176
81.52319090000003,23.87939790000013
81.52322950000018,23.879444000000035
81.52328630000011,23.879471499999966
81.52332310000014,23.879473100000098
81.5233439000001,23.87947670000006
81.52335320000014,23.87948140000009
81.52338370000018,23.879526900000144
81.52339610000013,23.87953810000016
81.52342480000004,23.879553500000043
81.5234869000002,23.879569100000083
81.52350810000019,23.879568600000027
81.52353640000018,23.87956070000007
81.52356050000003,23.87954630000013
81.5235769000002,23.879544599999974
81.52358850000007,23.879547400000035
81.52360890000017,23.87956340000011
81.52361340000016,23.87957200000011
81.52361570000016,23.879580800000156
81.52363820000011,23.879578100000117
81.52365100000009,23.8795846000001
81.52365530000009,23.87959560000013
81.52365150000014,23.87960750000002
81.52365320000007,23.87961950000016
81.5236660000001,23.879611100000147
81.52369040000013,23.87958400000008
81.52370330000014,23.879579500000034
81.52371050000005,23.879587400000162
81.52370990000014,23.879611600000032
81.52371510000006,23.879619900000023
81.5237456000001,23.879641000000163
81.52376840000005,23.879647900000183
81.52389180000011,23.879643800000053
81.52402540000016,23.879656100000147
81.52408870000005,23.879679300000134
81.52420680000006,23.879694900000178
81.52424250000018,23.87969230000016
81.52427110000008,23.87969690000017
81.52443540000013,23.87968720000009
81.52454990000001,23.879713200000083
81.52459550000009,23.879711100000065
81.52461230000006,23.879714900000067
81.52462550000007,23.87972130000003
81.52463660000012,23.87972230000014
81.52466580000004,23.879717900000117
81.52499830000016,23.87975260000013
81.5250233000001,23.879751100000192
81.52509279999998,23.879762100000054
81.52511830000014,23.87977310000008
81.52514020000018,23.87979210000003
81.52515480000017,23.87981660000014
81.52516650000007,23.87986950000004
81.52510640000008,23.879965500000026
81.52508270000004,23.879982700000028
81.5250713,23.880007700000135
81.52503850000011,23.88004580000006
81.52503490000004,23.880054400000063
81.52503490000004,23.880064900000036
81.52496470000006,23.880171599999983
81.52496170000018,23.880183600000123
81.52496300000013,23.880222200000105
81.52494690000005,23.880286200000057
81.52494980000007,23.88030470000018
81.52494220000017,23.880364699999973
81.52493760000016,23.880373000000134
81.52492800000005,23.88041320000008
81.52492270000016,23.88046710000009
81.52493420000019,23.880489900000043
81.5249391000001,23.880512900000156
81.5249810000002,23.8805574000001
81.52503050000018,23.880582600000082
81.5250769000001,23.88063089999997
81.52513110000018,23.880779200000177
81.52513810000005,23.88078840000003
81.52514220000018,23.880779500000187
81.52519190000004,23.880911400000116
81.52519890000008,23.88092040000015
81.52520840000017,23.880947100000014
81.5251904000001,23.8810979000001
81.52518920000017,23.88117960000011
81.52519730000012,23.881210700000167
81.5252230000001,23.88125460000009
81.52523260000004,23.881263600000125
81.52527620000006,23.881287800000166
81.52532350000007,23.881301800000074
81.52537700000005,23.881304700000157
81.5254010000001,23.88131700000008
81.52543220000018,23.88135310000007
81.52547279999999,23.881383800000094
81.52550719999999,23.88141860000013
81.52569030000006,23.881524400000046
81.52575260000009,23.881582700000024
81.52578150000016,23.8816432000001
81.52578390000019,23.881676800000037
81.52578840000018,23.881690900000137
81.52586240000011,23.88179750000006
81.52590830000014,23.881898600000056
81.52591630000012,23.88190860000003
81.52594670000013,23.881929799999966
81.52597170000007,23.881937200000095
81.52599680000003,23.88195410000003
81.52600230000013,23.88196610000017
81.52600540000003,23.881989400000123
81.52597320000018,23.882073200000153
81.52597120000001,23.88211730000006
81.52596560000012,23.88213110000015
81.5259483000001,23.882153200000175
81.52588480000014,23.882198100000153
81.52586530000013,23.882256199999972
81.52586610000003,23.88227880000011
81.52585930000004,23.8823220000001
81.5258712000001,23.882356500000128
81.52587020000004,23.882368700000086
81.52582680000017,23.88246730000003
81.52578680000005,23.882512200000065
81.52577120000018,23.882557400000053
81.5257721000001,23.88263040000004
81.52582200000012,23.882725200000095
81.52583100000015,23.882763300000192
81.5258300000001,23.882776900000067
81.52582130000008,23.882795200000032
81.5257764000001,23.882845100000054
81.5257733000002,23.882854000000066
81.52577130000003,23.882873500000073
81.52576660000017,23.882884300000114
81.52574280000016,23.882911300000046
81.52573860000012,23.882925000000114
81.52575460000004,23.883075300000087
81.5257499,23.883099500000128
81.52575320000011,23.88317150000006
81.52574880000009,23.883195300000068
81.52574340000018,23.883207400000174
81.52572050000009,23.88323760000003
81.52570780000008,23.883296800000096
81.5257068000002,23.883306900000093
81.52572490000006,23.88341820000005
81.52573150000012,23.883432700000185
81.52575140000016,23.883457200000066
81.52581960000009,23.88360580000011
81.52582180000013,23.883630500000038
81.52584280000008,23.883702100000107
81.5258672000001,23.883872400000143
81.52588830000008,23.883918600000072
81.52594929999998,23.88398460000019
81.5259850000001,23.884002800000076
81.52604940000009,23.88401310000006
81.52619150000015,23.884088500000075
81.52629220000011,23.88411310000015
81.52648290000008,23.88409470000005
81.52649340000005,23.884097900000143
81.5265034000002,23.88410440000013
81.52657290000008,23.884124600000064
81.52660290000006,23.884144100000075
81.52668220000004,23.88417250000009
81.52670080000019,23.88417250000009
81.5267269000002,23.884177899999997
81.52679310000019,23.884251000000006
81.52679810000006,23.88428020000015
81.52680470000007,23.884289900000056
81.5268137000001,23.884294100000034
81.52683120000012,23.884295000000122
81.52684750000009,23.884282900000187
81.52686980000016,23.884247400000106
81.52690840000014,23.884223200000008
81.5269157000002,23.884216500000036
81.52692810000013,23.884209700000156
81.52698000000004,23.884202600000094
81.52699600000011,23.884205599999973
81.52700540000018,23.884213300000113
81.52700850000008,23.88422300000019
81.52701820000016,23.88423300000011
81.52702720000019,23.88423740000013
81.52709210000008,23.88428910000016
81.52711990000006,23.88433500000002
81.52713060000002,23.884342100000083
81.52721590000016,23.884353500000145
81.52724040000004,23.884365100000025
81.52725249999997,23.884374400000127
81.52727350000015,23.88440510000015
81.52727800000015,23.88442890000016
81.52725750000008,23.88451030000016
81.52729640000007,23.88461930000011
81.52730230000003,23.884665400000188
81.5272991000001,23.884688500000152
81.52726440000009,23.88475270000015
81.52726270000011,23.884765000000073
81.52726630000006,23.884774800000002
81.52728889999997,23.88479100000012
81.52729530000016,23.884800100000177
81.52730550000012,23.88484970000019
81.52731490000019,23.88485730000008
81.52735890000008,23.884867300000053
81.52744490000009,23.884865800000114
81.52748580000014,23.884875400000173
81.52763070000003,23.884871900000064
81.5277971000001,23.884933400000023
81.52781970000001,23.88495580000006
81.52789540000009,23.884996100000023
81.52790850000008,23.884998300000063
81.5279536000001,23.88498040000013
81.52796900000016,23.884960300000103
81.52797770000012,23.88495260000019
81.5280441000001,23.884925100000032
81.5280527000001,23.884916600000054
81.52807710000019,23.884901700000057
81.52808970000018,23.884900700000117
81.52815290000007,23.884916900000064
81.52825770000004,23.884912600000064
81.52831190000006,23.884922400000168
81.52837390000008,23.884918100000164
81.52839770000008,23.88492040000017
81.52844590000018,23.884941000000083
81.52846470000009,23.884943900000167
81.52847930000007,23.884942400000057
81.52849330000015,23.88493760000017
81.52862680000004,23.88484180000006
81.52880860000016,23.884775200000036
81.52885820000019,23.884748000000116
81.52888060000004,23.88474229999997
81.5288915000001,23.884736600000053
81.5289393000001,23.88467040000006
81.52902280000013,23.88461410000002
81.5291268000002,23.88449500000013
81.52920810000018,23.884441300000162
81.52935270000006,23.884312600000158
81.5294477000001,23.884154200000182
81.52947590000014,23.884052500000113
81.52953600000012,23.883954200000176
81.52956610000012,23.883921300000114
81.52959460000017,23.883854500000098
81.52971020000012,23.88370200000009
81.52977700000014,23.883539900000187
81.52979260000001,23.88351800000015
81.52981340000014,23.883462600000144
81.52991190000012,23.883310499999993
81.53001520000015,23.883248299999995
81.53004300000015,23.883219000000054
81.53010430000006,23.883114400000125
81.53013360000017,23.88310409999997
81.53014280000002,23.883099400000106
81.53016410000004,23.88307930000008
81.53018280000015,23.88304330000011
81.53020080000006,23.8830220000001
81.5302538000002,23.882993600000077
81.53033400000004,23.88297990000018
81.53043600000012,23.882986500000186
81.53047520000018,23.882974300000058
81.5305385000001,23.882961800000093
81.53059210000009,23.882942100000093
81.53064310000008,23.88293830000015
81.53065380000004,23.882939600000043
81.53066460000008,23.882937800000096
81.53070310000005,23.88289060000011
81.53080860000006,23.88280060000011
81.53081890000004,23.88279510000018
81.53082990000007,23.882791900000086
81.53092980000014,23.88279140000003
81.53094080000017,23.882785100000035
81.53097850000012,23.88273150000009
81.53099060000005,23.882686000000035
81.53100720000015,23.88265480000013
81.5310856000001,23.8826011000001
81.53113940000009,23.882541300000128
81.53129120000006,23.882419500000026
81.53133020000007,23.88237370000013
81.53138960000018,23.882341800000177
81.53140040000017,23.882329800000036
81.5314105000001,23.882307700000183
81.5314114000002,23.88229780000006
81.53140120000006,23.882258199999967
81.53140530000007,23.882232400000134
81.53140420000017,23.88220850000016
81.53142810000014,23.882166600000062
81.5314564000002,23.882142000000158
81.5316337000001,23.882060799999977
81.53165990000014,23.882030800000166
81.53167000000013,23.88202360000014
81.53168270000009,23.88201990000016
81.53176420000011,23.882026500000165
81.53179990000018,23.882020900000043
81.53194970000015,23.881872300000055
81.53201220000017,23.881750100000033
81.53203650000006,23.881719000000146
81.53209360000017,23.88169000000005
81.53210070000006,23.88168360000003
81.53214300000019,23.881622200000095
81.53215310000013,23.881612800000028
81.53216540000005,23.881607800000154
81.53226660000007,23.881598100000076
81.532283,23.881600700000092
81.53231470000014,23.88161869999999
81.53234110000007,23.881623400000024
81.53258560000017,23.881556100000182
81.53261190000006,23.88154060000011
81.53262760000013,23.88152420000017
81.53263279999999,23.88151440000007
81.53264050000013,23.881506000000115
81.53273980000017,23.881475600000044
81.53289870000015,23.88137510000013
81.53296230000012,23.881350000000168
81.53298440000015,23.88134850000006
81.53303110000013,23.88132530000007
81.5330436000001,23.88130870000009
81.53307870000015,23.881286200000034
81.53314530000011,23.88121380000007
81.5331715,23.881201999999973
81.53323660000007,23.8811927000001
81.53329050000008,23.88113620000007
81.53330690000018,23.881094000000132
81.53331130000004,23.88105040000005
81.53333480000003,23.880996500000037
81.53336090000005,23.880972000000156
81.53338870000006,23.88093300000014
81.53343860000008,23.880892000000074
81.53344859999999,23.88088790000012
81.53345990000008,23.88087840000003
81.5334637000002,23.880869299999972
81.53346360000018,23.880859700000087
81.53345970000004,23.88084930000014
81.53344470000002,23.8808342000001
81.53343860000008,23.88082060000005
81.53343640000008,23.88080870000016
81.53345070000017,23.8807374000001
81.53344940000007,23.880725000000155
81.5334453000001,23.88071330000008
81.53342360000005,23.880684200000132
81.53336810000008,23.88057150000003
81.53336840000014,23.880526700000075
81.53333800000007,23.8804176000001
81.5333212000001,23.88039460000016
81.53327800000012,23.88036310000001
81.53322350000002,23.880291000000113
81.53320159999998,23.88021100000009
81.53320460000009,23.880144400000063
81.53322060000016,23.880114100000014
81.53323460000007,23.88002040000009
81.53315890000005,23.879792500000065
81.53316210000008,23.879608800000142
81.53320020000007,23.879504500000053
81.53317420000002,23.879406400000107
81.53319099999999,23.87933640000017
81.53319670000013,23.879328500000042
81.53322320000018,23.879308200000143
81.53323410000019,23.879295500000183
81.53333140000007,23.879112200000122
81.53336110000004,23.87909100000013
81.5333682000001,23.87908329999999
81.53337130000017,23.879069400000105
81.53336610000015,23.879053900000088
81.53333630000014,23.879028600000083
81.53331880000013,23.879018700000188
81.53329630000019,23.87899610000011
81.53326210000006,23.87892610000017
81.53325570000004,23.878918400000032
81.53325010000009,23.87890490000018
81.53324140000012,23.878817900000058
81.53321019999998,23.878556700000164
81.53314560000018,23.87844530000018
81.5331215000001,23.87836690000006
81.53311359999998,23.878267400000027
81.53310420000014,23.878246900000082
81.53309560000014,23.878238500000123
81.53308640000006,23.87823309999999
81.533071,23.878231800000094
81.53304200000014,23.878238200000055
81.53291460000008,23.878225200000088
81.53289340000009,23.87821760000014
81.53288040000007,23.878215899999987
81.53286700000001,23.87821820000005
81.53282350000018,23.878239800000017
81.5328037000001,23.878260600000146
81.53279430000003,23.878281200000064
81.53277780000013,23.878304000000185
81.5327662000002,23.878312900000026
81.53275430000014,23.878317800000104
81.53267000000005,23.878298100000052
81.53263290000018,23.87827450000009
81.53262020000005,23.87827080000011
81.53258600000004,23.87827850000002
81.53253450000005,23.87831430000017
81.53248420000017,23.878326400000105
81.53235060000009,23.87838070000015
81.53229970000018,23.878429200000085
81.53229390000001,23.878439800000084
81.53228710000019,23.87844650000011
81.53226610000007,23.878459000000078
81.53224490000008,23.878461100000038
81.5322172000001,23.878455000000088
81.53219630000012,23.878444200000047
81.53207670000018,23.878295100000173
81.5320650000001,23.878255900000113
81.53205790000004,23.878246300000058
81.53192080000008,23.878189600000155
81.53190110000003,23.878189000000077
81.53187600000012,23.87820320000003
81.53186,23.87820170000009
81.53185780000018,23.878174400000148
81.53185330000021,23.878158700000085
81.53180420000018,23.87809490000012
81.53175110000006,23.878051100000054
81.53170980000004,23.877990600000032
81.53169860000014,23.87798290000012
81.53166000000016,23.87796970000005
81.53160930000007,23.877926000000173
81.53159030000006,23.877895400000114
81.53157730000011,23.87788620000009
81.53155000000015,23.87787450000019
81.53153610000004,23.877864400000078
81.53152250000016,23.877843200000086
81.5314681000001,23.87780810000004
81.53145810000018,23.877795500000047
81.5314552000001,23.877786900000046
81.53145760000012,23.877777100000117
81.53149010000016,23.87773920000018
81.53150150000005,23.87773160000006
81.53152380000012,23.87773530000004
81.53153440000006,23.87773410000011
81.53154580000012,23.87772920000009
81.53156540000015,23.87771240000012
81.5315753000001,23.87771270000013
81.53158380000008,23.877707800000053
81.53159630000005,23.87769000000003
81.5315945000001,23.877680700000155
81.53159590000018,23.877668400000175
81.53161330000006,23.877649200000178
81.53166410000017,23.877618000000098
81.53166950000008,23.877609900000156
81.5316708000002,23.87759580000005
81.53167620000012,23.87758290000005
81.53169640000016,23.877568900000142
81.5317045000001,23.877559600000044
81.53171560000015,23.877536500000136
81.53177599999998,23.877466500000025
81.53177840000018,23.877452400000095
81.53178710000003,23.87743970000008
81.53186390000019,23.877382100000148
81.53186970000013,23.877373600000112
81.53187110000005,23.87734210000019
81.53189700000007,23.877290700000003
81.5319327000002,23.877257700000143
81.53194989999997,23.877227400000095
81.5319598000001,23.87721780000004
81.5319954000002,23.877199300000086
81.53210680000018,23.877090600000145
81.53219430000013,23.877031500000044
81.53237560000002,23.876807000000156
81.5324318000001,23.876763100000062
81.53250570000017,23.876683100000037
81.53257760000008,23.87656620000013
81.5328017000001,23.876335000000154
81.53286330000009,23.87629630000015
81.53287330000018,23.87629420000019
81.53289840000014,23.87628290000015
81.53291250000007,23.87627040000018
81.53291930000012,23.876260100000025
81.53292930000003,23.876228300000037
81.53292930000003,23.876217600000075
81.53293290000016,23.876205900000173
81.53301620000013,23.876124200000163
81.53309350000012,23.876016200000095
81.53329780000013,23.875808700000164
81.5333164000001,23.875777099999993
81.53332290000009,23.875756700000125
81.53333980000009,23.87573230000004
81.53335000000004,23.8757007000001
81.53337070000015,23.875666700000124
81.53339269999998,23.87565070000005
81.53340780000019,23.875612900000135
81.53344020000003,23.875568200000146
81.53344510000005,23.87556040000004
81.53347150000013,23.875479700000085
81.53346750000014,23.875427800000068
81.53349940000015,23.87530540000006
81.53352840000002,23.87524180000014
81.53356030000003,23.87520480000012
81.53358140000017,23.875118000000043
81.53362080000005,23.875051600000006
81.53366790000001,23.874871600000063
81.53374950000006,23.87466830000011
81.53379940000008,23.874608400000113
81.53383580000008,23.87452020000012
81.53383540000004,23.874508100000185
81.53383190000011,23.874496700000122
81.53383250000013,23.87445440000016
81.53384670000008,23.87441369999999
81.53384660000006,23.874402200000134
81.53384360000018,23.87439350000011
81.53380680000015,23.87433590000012
81.53380430000016,23.874322600000088
81.53379400000017,23.874303000000115
81.53379250000006,23.874286600000175
81.53378840000005,23.874274500000013
81.5337922,23.87425550000006
81.53380590000006,23.87423309999997
81.53383830000013,23.8742084000001
81.53385640000016,23.874200900000176
81.53386670000015,23.87418170000018
81.53387670000006,23.874121600000024
81.53385820000017,23.87408650000009
81.53385570000012,23.874075300000072
81.5338622000001,23.87402540000005
81.53386030000013,23.874013500000103
81.53385220000018,23.874001000000135
81.53380440000012,23.873982099999978
81.53374480000019,23.873977799999977
81.53370310000008,23.87395590000017
81.5336496000001,23.873951500000146
81.53359180000012,23.87393390000011
81.53350920000004,23.873877900000082
81.53348910000017,23.87385370000004
81.5334700000002,23.873846100000094
81.53343960000018,23.873845300000028
81.53342700000019,23.873841000000027
81.53341780000011,23.87383530000011
81.53338040000006,23.873798500000078
81.53317330000016,23.87371690000009
81.5331449000001,23.873694399999977
81.5331353000002,23.873690099999976
81.53311940000016,23.87367740000019
81.53310920000018,23.8736581
81.53309820000015,23.873647900000037
81.53298410000014,23.873591000000147
81.53295950000006,23.87358990000007
81.53294540000013,23.873586000000103
81.5328355000001,23.873520200000144
81.53273580000018,23.87349280000018
81.53272230000016,23.87348710000009
81.53271070000005,23.873478400000067
81.53255969999998,23.87342430000001
81.53254970000006,23.873418300000083
81.53253040000004,23.873390800000095
81.53251680000017,23.873359500000163
81.53251570000009,23.873349900000107
81.53252220000007,23.87330860000003
81.53252020000015,23.873296900000128
81.5325063000002,23.873265100000026
81.5325074000001,23.873165100000108
81.53247640000006,23.873048400000187
81.53247020000003,23.872862100000077
81.53245070000003,23.872818500000164
81.53244640000003,23.872794200000104
81.53245860000015,23.87271650000008
81.53240440000013,23.87242330000015
81.53241250000008,23.872327700000085
81.53239560000009,23.872274100000084
81.53237740000003,23.872103400000185
81.5323622000002,23.87208970000012
81.53234920000017,23.872082200000023
81.53232350000019,23.872077600000182
81.53231380000011,23.872073500000173
81.5322111000001,23.871962500000055
81.53218380000015,23.871946100000116
81.53213190000014,23.871892300000127
81.53212220000006,23.871889200000055
81.53210400000012,23.87187800000015
81.53202960000004,23.87177990000004
81.53196070000018,23.87173350000012
81.53188920000014,23.871641400000158
81.53185520000017,23.871625400000028
81.53184680000015,23.871616500000187
81.53179690000013,23.871528099999978
81.53167370000006,23.871400500000107
81.53166900000019,23.871381500000098
81.53165980000017,23.87136710000016
81.53161900000015,23.871341700000187
81.5311223000001,23.870852100000036
81.5310872,23.87083170000011
81.53104350000012,23.87079000000006
81.53097750000018,23.870747800000117
81.53096750000009,23.870732500000088
81.53097750000018,23.87071710000004
81.53094350000003,23.870697800000016
81.5307964000001,23.870581800000025
81.53074220000009,23.870494200000053
81.53074630000009,23.870482000000152
81.53073880000017,23.870484400000123</coordinates></LinearRing></outerBoundaryIs></Polygon></Placemark></Document></kml>