{"type": "FeatureCollection", "features": [{"type": "Feature", "geometry": {"type": "Point", "coordinates": [77.95850861219769, 16.457538165393963]}, "properties": {"emu_id": "EMU_ANCHOR_Fruit_Forest", "label": "EMU_ANCHOR_Fruit_Forest \u2014 Centre (real candidate SFV-T0596)", "sample_type": "soil_chemistry_composite"}}, {"type": "Feature", "geometry": {"type": "Point", "coordinates": [77.95687480554109, 16.457786989445918]}, "properties": {"emu_id": "EMU_ANCHOR_Fruit_Forest", "label": "EMU_ANCHOR_Fruit_Forest \u2014 Corner 1 (real candidate SFV-T0488)", "sample_type": "soil_chemistry_composite"}}, {"type": "Feature", "geometry": {"type": "Point", "coordinates": [77.95942704301365, 16.456396457465004]}, "properties": {"emu_id": "EMU_ANCHOR_Fruit_Forest", "label": "EMU_ANCHOR_Fruit_Forest \u2014 Corner 2 (real candidate SFV-T0667)", "sample_type": "soil_chemistry_composite"}}, {"type": "Feature", "geometry": {"type": "Point", "coordinates": [77.95829184469343, 16.458669958253903]}, "properties": {"emu_id": "EMU_ANCHOR_Fruit_Forest", "label": "EMU_ANCHOR_Fruit_Forest \u2014 Corner 3 (real candidate SFV-T0582)", "sample_type": "soil_chemistry_composite"}}, {"type": "Feature", "geometry": {"type": "Point", "coordinates": [77.95922055755274, 16.458205342763918]}, "properties": {"emu_id": "EMU_ANCHOR_Fruit_Forest", "label": "EMU_ANCHOR_Fruit_Forest \u2014 Corner 4 (real candidate SFV-T0656)", "sample_type": "soil_chemistry_composite"}}, {"type": "Feature", "geometry": {"type": "Point", "coordinates": [77.95877675312323, 16.459791836236352]}, "properties": {"emu_id": "EMU_ANCHOR_Wetland", "label": "EMU_ANCHOR_Wetland \u2014 Centre (real candidate SFV-T0625)", "sample_type": "soil_chemistry_composite"}}, {"type": "Feature", "geometry": {"type": "Point", "coordinates": [77.9580785003854, 16.46002744886685]}, "properties": {"emu_id": "EMU_ANCHOR_Wetland", "label": "EMU_ANCHOR_Wetland \u2014 Corner 1 (real candidate SFV-T0569)", "sample_type": "soil_chemistry_composite"}}, {"type": "Feature", "geometry": {"type": "Point", "coordinates": [77.9590106454647, 16.459788530729984]}, "properties": {"emu_id": "EMU_ANCHOR_Wetland", "label": "EMU_ANCHOR_Wetland \u2014 Corner 2 (real candidate SFV-T0644)", "sample_type": "soil_chemistry_composite"}}, {"type": "Feature", "geometry": {"type": "Point", "coordinates": [77.95783775893669, 16.459579357930277]}, "properties": {"emu_id": "EMU_ANCHOR_Wetland", "label": "EMU_ANCHOR_Wetland \u2014 Corner 3 (real candidate SFV-T0549)", "sample_type": "soil_chemistry_composite"}}, {"type": "Feature", "geometry": {"type": "Point", "coordinates": [77.95941444573252, 16.459323167064827]}, "properties": {"emu_id": "EMU_ANCHOR_Wetland", "label": "EMU_ANCHOR_Wetland \u2014 Corner 4 (real candidate SFV-T0680)", "sample_type": "soil_chemistry_composite"}}, {"type": "Feature", "geometry": {"type": "Point", "coordinates": [77.95381713067724, 16.4567014116555]}, "properties": {"emu_id": "SEG01", "label": "SEG01 \u2014 Centre (real candidate SFV-T0303)", "sample_type": "soil_chemistry_composite"}}, {"type": "Feature", "geometry": {"type": "Point", "coordinates": [77.95194942808394, 16.456953496228273]}, "properties": {"emu_id": "SEG01", "label": "SEG01 \u2014 Corner 1 (real candidate SFV-T0080)", "sample_type": "soil_chemistry_composite"}}, {"type": "Feature", "geometry": {"type": "Point", "coordinates": [77.95263059396456, 16.455589410261165]}, "properties": {"emu_id": "SEG01", "label": "SEG01 \u2014 Corner 2 (real candidate SFV-T0144)", "sample_type": "soil_chemistry_composite"}}, {"type": "Feature", "geometry": {"type": "Point", "coordinates": [77.95592555738168, 16.456897406142016]}, "properties": {"emu_id": "SEG01", "label": "SEG01 \u2014 Corner 3 (real candidate SFV-T0438)", "sample_type": "soil_chemistry_composite"}}, {"type": "Feature", "geometry": {"type": "Point", "coordinates": [77.95454615957506, 16.4584971003584]}, "properties": {"emu_id": "SEG01", "label": "SEG01 \u2014 Corner 4 (real candidate SFV-T0384)", "sample_type": "soil_chemistry_composite"}}, {"type": "Feature", "geometry": {"type": "Point", "coordinates": [77.95665460549591, 16.458693084187768]}, "properties": {"emu_id": "SEG01", "label": "SEG01 \u2014 Corner 5 (real candidate SFV-T0479)", "sample_type": "soil_chemistry_composite"}}, {"type": "Feature", "geometry": {"type": "Point", "coordinates": [77.95234595451022, 16.45889180625871]}, "properties": {"emu_id": "SEG02", "label": "SEG02 \u2014 Centre (geometric centroid)", "sample_type": "soil_chemistry_composite"}}, {"type": "Feature", "geometry": {"type": "Point", "coordinates": [77.95176337529988, 16.46011657929475]}, "properties": {"emu_id": "SEG02", "label": "SEG02 \u2014 Corner 1 (real candidate SFV-T0070)", "sample_type": "soil_chemistry_composite"}}, {"type": "Feature", "geometry": {"type": "Point", "coordinates": [77.95173262131802, 16.45808528842398]}, "properties": {"emu_id": "SEG02", "label": "SEG02 \u2014 Corner 2 (real candidate SFV-T0061)", "sample_type": "soil_chemistry_composite"}}, {"type": "Feature", "geometry": {"type": "Point", "coordinates": [77.95336302531096, 16.45761080440747]}, "properties": {"emu_id": "SEG02", "label": "SEG02 \u2014 Corner 3 (real candidate SFV-T0239)", "sample_type": "soil_chemistry_composite"}}, {"type": "Feature", "geometry": {"type": "Point", "coordinates": [77.95318041610396, 16.460999583593036]}, "properties": {"emu_id": "SEG02", "label": "SEG02 \u2014 Corner 4 (real candidate SFV-T0223)", "sample_type": "soil_chemistry_composite"}}, {"type": "Feature", "geometry": {"type": "Point", "coordinates": [77.95339721448603, 16.459867791006534]}, "properties": {"emu_id": "SEG03", "label": "SEG03 \u2014 Centre (real candidate SFV-T0249)", "sample_type": "soil_chemistry_composite"}}, {"type": "Feature", "geometry": {"type": "Point", "coordinates": [77.9531701587968, 16.460322487611517]}, "properties": {"emu_id": "SEG03", "label": "SEG03 \u2014 Corner 1 (real candidate SFV-T0220)", "sample_type": "soil_chemistry_composite"}}, {"type": "Feature", "geometry": {"type": "Point", "coordinates": [77.95435673161825, 16.46143448032992]}, "properties": {"emu_id": "SEG03", "label": "SEG03 \u2014 Corner 2 (real candidate SFV-T0373)", "sample_type": "soil_chemistry_composite"}}, {"type": "Feature", "geometry": {"type": "Point", "coordinates": [77.95314622695228, 16.45874259679389]}, "properties": {"emu_id": "SEG03", "label": "SEG03 \u2014 Corner 3 (real candidate SFV-T0213)", "sample_type": "soil_chemistry_composite"}}, {"type": "Feature", "geometry": {"type": "Point", "coordinates": [77.95408179574133, 16.458729399161154]}, "properties": {"emu_id": "SEG03", "label": "SEG03 \u2014 Corner 4 (real candidate SFV-T0345)", "sample_type": "soil_chemistry_composite"}}, {"type": "Feature", "geometry": {"type": "Point", "coordinates": [77.95342456967784, 16.461673379886523]}, "properties": {"emu_id": "SEG04", "label": "SEG04 \u2014 Centre (real candidate SFV-T0257)", "sample_type": "soil_chemistry_composite"}}, {"type": "Feature", "geometry": {"type": "Point", "coordinates": [77.95391288296712, 16.46302097068313]}, "properties": {"emu_id": "SEG04", "label": "SEG04 \u2014 Corner 1 (real candidate SFV-T0328)", "sample_type": "soil_chemistry_composite"}}, {"type": "Feature", "geometry": {"type": "Point", "coordinates": [77.95388894096196, 16.461441081333824]}, "properties": {"emu_id": "SEG04", "label": "SEG04 \u2014 Corner 2 (real candidate SFV-T0324)", "sample_type": "soil_chemistry_composite"}}, {"type": "Feature", "geometry": {"type": "Point", "coordinates": [77.9531872545762, 16.461450980886315]}, "properties": {"emu_id": "SEG04", "label": "SEG04 \u2014 Corner 3 (real candidate SFV-T0225)", "sample_type": "soil_chemistry_composite"}}, {"type": "Feature", "geometry": {"type": "Point", "coordinates": [77.95319851923318, 16.46208141987477]}, "properties": {"emu_id": "SEG04", "label": "SEG04 \u2014 Corner 4 (real candidate SFV-T0228)", "sample_type": "soil_chemistry_composite"}}], "substitutions": {"SEG02": "centre replaced with real geometric centroid (given name duplicated a corner)"}}