{"type": "FeatureCollection", "features": [{"type": "Feature", "geometry": {"type": "MultiPolygon", "coordinates": [[[[86.7936658, 22.00411328], [86.7936958, 22.00418644], [86.79370667, 22.00425788], [86.79376046, 22.00447503], [86.79376142, 22.00451022], [86.79381549, 22.00443798], [86.79387722, 22.00438037], [86.79394071, 22.00438233], [86.79396815, 22.00439016], [86.7939838, 22.00440595], [86.79422135, 22.00443394], [86.79420114, 22.00438428], [86.79411212, 22.00436096], [86.79410848, 22.00435904], [86.79407931, 22.00434751], [86.79408079, 22.00431905], [86.79410106, 22.0042782], [86.79415514, 22.00429109], [86.79416055, 22.00429293], [86.79419111, 22.00431717], [86.79419204, 22.0043687], [86.79420302, 22.00438428], [86.79422374, 22.00437258], [86.7942591, 22.00432471], [86.79429929, 22.00430408], [86.79432056, 22.00435711], [86.79431964, 22.00440199], [86.79429609, 22.00447269], [86.79425956, 22.00448927], [86.79421944, 22.00443394], [86.79398364, 22.00440793], [86.79395663, 22.00445831], [86.79387156, 22.00449971], [86.79376052, 22.00451656], [86.79372468, 22.00456273], [86.79374958, 22.00460778], [86.79376629, 22.00466211], [86.79377584, 22.00466672], [86.79380613, 22.00468525], [86.79377632, 22.004742], [86.7937378, 22.0047956], [86.79377406, 22.00482551], [86.79377582, 22.00488928], [86.79381628, 22.00493521], [86.79387058, 22.00501644], [86.79390002, 22.00503029], [86.79395856, 22.00506886], [86.79401713, 22.00512263], [86.79403756, 22.0051715], [86.79407861, 22.00519535], [86.79403715, 22.00517664], [86.79396146, 22.00527922], [86.79399971, 22.00547217], [86.7940325, 22.005561], [86.79409899, 22.00559743], [86.79410944, 22.00568603], [86.7941113, 22.00568478], [86.79410858, 22.00573237], [86.794049, 22.00577095], [86.79397117, 22.00574697], [86.79392394, 22.00574529], [86.79378906, 22.00583418], [86.79370888, 22.0058476], [86.79369747, 22.00588829], [86.79367392, 22.00599631], [86.79370257, 22.00606468], [86.79368724, 22.00619327], [86.79381999, 22.00615978], [86.79391302, 22.00615977], [86.79398399, 22.00617725], [86.79403963, 22.00620087], [86.79411155, 22.00620285], [86.79424562, 22.00617335], [86.79434161, 22.00618705], [86.7944175, 22.00622889], [86.79472316, 22.00625535], [86.79472315, 22.00625538], [86.79480178, 22.00627248], [86.79493746, 22.00626772], [86.79499748, 22.00627602], [86.79513094, 22.00630753], [86.79512212, 22.0062782], [86.79520797, 22.005959], [86.79529021, 22.00573753], [86.79534535, 22.00560455], [86.79534322, 22.00560336], [86.79538691, 22.00548828], [86.79539104, 22.00539574], [86.7953812, 22.00529272], [86.7954261, 22.00525914], [86.79533756, 22.00525746], [86.79531349, 22.00517779], [86.79536532, 22.00510204], [86.7953791, 22.00506505], [86.79539354, 22.00492156], [86.79534923, 22.00489062], [86.79528656, 22.00488294], [86.79526471, 22.00492935], [86.79528235, 22.0050004], [86.79529849, 22.00506096], [86.79525221, 22.00508554], [86.7952331, 22.0052331], [86.79521669, 22.00531301], [86.79518692, 22.00531981], [86.79519237, 22.00527928], [86.7952117, 22.00512263], [86.7951303, 22.00499925], [86.79505463, 22.0049822], [86.79496191, 22.00495857], [86.79493614, 22.00500954], [86.79487101, 22.00504773], [86.79479067, 22.00503725], [86.794686, 22.00510096], [86.79455177, 22.00510816], [86.79449518, 22.00505475], [86.79451317, 22.00501298], [86.79461505, 22.0049856], [86.79458067, 22.00491767], [86.79450623, 22.00492935], [86.79440576, 22.00500039], [86.794265, 22.00492528], [86.79424444, 22.0048603], [86.79427724, 22.00483173], [86.79431226, 22.00480046], [86.79430738, 22.00472739], [86.79428161, 22.00470068], [86.7942949, 22.00466563], [86.79432316, 22.00467433], [86.79438763, 22.00468016], [86.79441492, 22.00463122], [86.79448174, 22.00458353], [86.79452283, 22.00460022], [86.79455198, 22.00458076], [86.79460877, 22.00453433], [86.79461801, 22.00449431], [86.79462633, 22.00447593], [86.79469954, 22.00449959], [86.79475787, 22.00447332], [86.79481643, 22.00447332], [86.79488479, 22.00445773], [86.7949117, 22.0044143], [86.79496043, 22.00443206], [86.79498604, 22.00436363], [86.79499773, 22.00431778], [86.79469921, 22.00439336], [86.79462067, 22.00435361], [86.79458125, 22.00431328], [86.79455922, 22.00426727], [86.79457239, 22.00423472], [86.79460516, 22.00422215], [86.79460346, 22.00421511], [86.79464924, 22.00419484], [86.79468213, 22.00421129], [86.79471382, 22.0042398], [86.79473066, 22.00428652], [86.79472633, 22.00438482], [86.79479543, 22.00436861], [86.79499757, 22.00431686], [86.79497718, 22.00426263], [86.79498279, 22.00425498], [86.79499041, 22.00423013], [86.79501081, 22.00420228], [86.79501048, 22.00412983], [86.79500235, 22.00400427], [86.79502719, 22.00384361], [86.79503083, 22.00380148], [86.79500063, 22.00378724], [86.79498197, 22.00377174], [86.79501412, 22.00362977], [86.79498446, 22.00361902], [86.79497509, 22.00348637], [86.79498142, 22.003439], [86.79493909, 22.00343162], [86.794935, 22.00336507], [86.79496917, 22.00334833], [86.79495462, 22.00328576], [86.79497032, 22.00323751], [86.79521221, 22.00323056], [86.79531829, 22.00326422], [86.79542304, 22.00328744], [86.79563506, 22.00328251], [86.7956789, 22.00289543], [86.79547436, 22.00283116], [86.79540652, 22.00281239], [86.79539687, 22.00285753], [86.79536182, 22.00286829], [86.79537751, 22.00281046], [86.79525489, 22.00278888], [86.79518767, 22.00280237], [86.79513103, 22.00281664], [86.7951429, 22.0028629], [86.79511076, 22.00291189], [86.7950796, 22.00288454], [86.7951279, 22.00281765], [86.79490474, 22.00282492], [86.79489454, 22.00275979], [86.79383204, 22.00284372], [86.79385233, 22.00286841], [86.79388255, 22.00289092], [86.7938806, 22.00293263], [86.79383581, 22.00293474], [86.79379802, 22.00292631], [86.79378659, 22.00289298], [86.79383194, 22.0028462], [86.7937299, 22.00281193], [86.79342893, 22.00283311], [86.79342556, 22.00290157], [86.79339263, 22.00293577], [86.79333972, 22.00301165], [86.79329101, 22.00308245], [86.79331111, 22.00309019], [86.7933299, 22.00310484], [86.79333463, 22.00310976], [86.793333, 22.0031413], [86.79328816, 22.00314635], [86.79326488, 22.00311799], [86.79339115, 22.00293577], [86.79330572, 22.00290888], [86.79331682, 22.00285546], [86.79321018, 22.0028791], [86.79317543, 22.00281701], [86.79305358, 22.00284056], [86.79303379, 22.00289054], [86.79305698, 22.00292882], [86.79308221, 22.0029699], [86.79299716, 22.00301576], [86.79288408, 22.00304402], [86.79289324, 22.0031531], [86.79292785, 22.00318045], [86.79292541, 22.00320518], [86.79296063, 22.00320997], [86.79301441, 22.00338971], [86.79304702, 22.00337586], [86.79305799, 22.00340769], [86.79309009, 22.00342183], [86.79311816, 22.00339768], [86.79318683, 22.00338376], [86.79333952, 22.00338376], [86.7934751, 22.00335048], [86.79351293, 22.00338178], [86.79354064, 22.0034077], [86.79354239, 22.0034077], [86.7935725, 22.00338971], [86.79361002, 22.00336214], [86.79367144, 22.00332551], [86.79370564, 22.00334083], [86.79371101, 22.00334275], [86.79373976, 22.00336605], [86.79375913, 22.00341981], [86.79375413, 22.00345944], [86.79373697, 22.00347734], [86.7936765, 22.00343512], [86.79361353, 22.00344978], [86.793524, 22.00343095], [86.79343056, 22.00345188], [86.79337999, 22.00349452], [86.79333824, 22.00347094], [86.79321032, 22.0034752], [86.79316266, 22.00346881], [86.79308518, 22.00350101], [86.79312762, 22.00358304], [86.79315998, 22.00360359], [86.79317375, 22.00363835], [86.79317462, 22.00370023], [86.79320902, 22.00376677], [86.79325475, 22.00379967], [86.79327674, 22.00380991], [86.7932696, 22.00385668], [86.79329786, 22.00385668], [86.79336056, 22.00385931], [86.79340189, 22.00385931], [86.79343218, 22.00392085], [86.79345536, 22.00395376], [86.7935014, 22.00398721], [86.79353032, 22.00401838], [86.79354308, 22.00408812], [86.79357611, 22.00409392], [86.79361231, 22.00406833], [86.7936491, 22.00407639], [86.7936658, 22.00411328]], [[86.79370011, 22.00363284], [86.79373946, 22.00359882], [86.79377507, 22.00362062], [86.79376543, 22.00367974], [86.79376464, 22.00367741], [86.79375622, 22.00376161], [86.79374921, 22.00377641], [86.79370224, 22.00369752], [86.79370011, 22.00363284]], [[86.79386282, 22.00381162], [86.79389174, 22.00378779], [86.79393521, 22.00380365], [86.79412929, 22.00374343], [86.79393506, 22.0038063], [86.79395478, 22.00385464], [86.79392813, 22.00388196], [86.79388466, 22.00385464], [86.79386402, 22.0038628], [86.7938603, 22.00387921], [86.79383468, 22.00388471], [86.79377317, 22.00370263], [86.7938159, 22.00382376], [86.79386282, 22.00381162]], [[86.7941278, 22.00366991], [86.79412867, 22.0036109], [86.79416911, 22.00357009], [86.79420437, 22.00359882], [86.79423517, 22.0036109], [86.79427595, 22.00363775], [86.79425551, 22.00370258], [86.79417005, 22.00373024], [86.79415644, 22.00368995], [86.7941278, 22.00366991]], [[86.79451615, 22.00400046], [86.79447626, 22.00398315], [86.79444097, 22.00399757], [86.79442384, 22.00396597], [86.79449771, 22.00395742], [86.79452611, 22.00396027], [86.79455168, 22.00399179], [86.79457934, 22.00411513], [86.79455658, 22.00402083], [86.79451615, 22.00400046]], [[86.79521096, 22.00559971], [86.79519119, 22.00554688], [86.79522732, 22.00549476], [86.795277, 22.00556122], [86.79530247, 22.00558042], [86.79527687, 22.00556601], [86.79521096, 22.00559971]], [[86.79489737, 22.00568106], [86.79498429, 22.00598024], [86.79476804, 22.00606087], [86.79464162, 22.00575591], [86.79489737, 22.00568106]], [[86.79424454, 22.0056437], [86.79426663, 22.00559033], [86.79431795, 22.00559235], [86.79429774, 22.00547164], [86.79426424, 22.00544198], [86.79428351, 22.00541288], [86.79431618, 22.00543648], [86.79429809, 22.00546977], [86.7943183, 22.00559033], [86.79436336, 22.00562095], [86.79435762, 22.00568134], [86.79427387, 22.00574853], [86.79423371, 22.00570673], [86.79411164, 22.00568455], [86.79415375, 22.00565619], [86.79424454, 22.0056437]], [[86.79416262, 22.00520512], [86.79418599, 22.00516125], [86.79425528, 22.00513835], [86.79426307, 22.00514088], [86.79429364, 22.00517921], [86.79428957, 22.0052366], [86.79421112, 22.00525515], [86.79413485, 22.00522073], [86.7941614, 22.00522869], [86.79416262, 22.00520512]]], [[[86.78422085, 22.04364712], [86.7841988, 22.04361946], [86.78418947, 22.04359354], [86.78418954, 22.0435914], [86.78419034, 22.04356509], [86.78419554, 22.04353636], [86.78421267, 22.04354551], [86.78427491, 22.04371643], [86.7843269, 22.0437284], [86.7843245, 22.04376755], [86.78433887, 22.04380162], [86.78435426, 22.04382098], [86.78438681, 22.04381062], [86.78442108, 22.04379396], [86.7844764, 22.04378889], [86.78455107, 22.04377629], [86.78456119, 22.04378005], [86.78456023, 22.04381061], [86.78460457, 22.0438132], [86.78463454, 22.04376382], [86.78471429, 22.04376134], [86.78476532, 22.04375393], [86.78479258, 22.04376186], [86.78484722, 22.04374524], [86.78488412, 22.04373891], [86.78490578, 22.0437276], [86.78493271, 22.04373136], [86.78493703, 22.04374651], [86.78494949, 22.04374905], [86.78496905, 22.04374144], [86.78497001, 22.04372261], [86.78499967, 22.04371268], [86.78502317, 22.04371022], [86.78503448, 22.04370653], [86.78506556, 22.04372012], [86.78509146, 22.04374905], [86.78511846, 22.04377479], [86.78513363, 22.04375928], [86.78514338, 22.04375928], [86.78516345, 22.04376185], [86.78516344, 22.04383616], [86.7851937, 22.04389355], [86.78517485, 22.04393874], [86.78519611, 22.04394618], [86.78521197, 22.04397637], [86.7851909, 22.0440026], [86.78517961, 22.04402618], [86.78520364, 22.04405018], [86.7852165, 22.04409784], [86.78521381, 22.04412486], [86.78518349, 22.04415813], [86.78522066, 22.04427675], [86.7852278, 22.04430294], [86.78525751, 22.04431475], [86.78527795, 22.04429561], [86.78528705, 22.04429561], [86.78530227, 22.04430441], [86.78532253, 22.04432219], [86.78533864, 22.04432518], [86.78535706, 22.04431475], [86.78536949, 22.04428977], [86.78539479, 22.04425816], [86.78539715, 22.04425674], [86.78540335, 22.04425532], [86.78545161, 22.04424545], [86.78545288, 22.04424545], [86.78548985, 22.0442667], [86.78549637, 22.0442956], [86.78553562, 22.04432368], [86.78556083, 22.04437084], [86.78558354, 22.04438416], [86.78561803, 22.04438557], [86.78561931, 22.04438557], [86.78565029, 22.04437709], [86.78566615, 22.04435338], [86.78567404, 22.04433827], [86.78568405, 22.04434101], [86.78569152, 22.04434649], [86.78569271, 22.044352], [86.78569744, 22.04438274], [86.78573452, 22.04437991], [86.78578038, 22.04437428], [86.78575316, 22.04433555], [86.78576047, 22.04432065], [86.78577286, 22.04431662], [86.78579195, 22.04433147], [86.78581445, 22.04433011], [86.78582354, 22.04430727], [86.78584053, 22.04429931], [86.78585682, 22.04430328], [86.78587357, 22.04431394], [86.78589622, 22.04433554], [86.78598196, 22.0443274], [86.78598739, 22.04429666], [86.78596424, 22.0442387], [86.78595344, 22.04419455], [86.7859469, 22.04417151], [86.78595822, 22.04415618], [86.78597052, 22.0441515], [86.7859928, 22.04416323], [86.78599709, 22.04417985], [86.78601624, 22.04419187], [86.7860537, 22.04418104], [86.7860618, 22.04412498], [86.78606384, 22.04410181], [86.78609154, 22.04409748], [86.78607091, 22.04407326], [86.78606619, 22.04406763], [86.78603094, 22.04403572], [86.78602184, 22.04402481], [86.78599228, 22.04404811], [86.78597297, 22.04402482], [86.78592533, 22.0439887], [86.78592395, 22.04398738], [86.78588255, 22.04397951], [86.78588009, 22.04397951], [86.78581928, 22.04395107], [86.78577738, 22.04391211], [86.78575095, 22.04387441], [86.78572539, 22.04383905], [86.78570106, 22.04383905], [86.78568114, 22.04379578], [86.78563588, 22.04378245], [86.78563068, 22.04375735], [86.78564755, 22.04374661], [86.78566314, 22.04373598], [86.7857183, 22.04372965], [86.78577645, 22.04372335], [86.78578166, 22.04373916], [86.78581017, 22.04375197], [86.78583334, 22.04376384], [86.78585126, 22.04376384], [86.78586995, 22.04374768], [86.78588105, 22.04373598], [86.78590368, 22.04372022], [86.78590024, 22.04369854], [86.78591611, 22.04368533], [86.7859584, 22.04371897], [86.78596565, 22.04373175], [86.78596017, 22.04374875], [86.78594985, 22.04376384], [86.78594196, 22.04377256], [86.78591178, 22.04378466], [86.78592323, 22.04382634], [86.78593967, 22.04386843], [86.78596348, 22.0438804], [86.78599364, 22.0438768], [86.78600803, 22.04384927], [86.7860245, 22.04381834], [86.78604634, 22.043798], [86.78612964, 22.04381038], [86.7861934, 22.04386962], [86.78618439, 22.04390348], [86.78616771, 22.04392161], [86.78616072, 22.04392778], [86.78612387, 22.04392329], [86.78610691, 22.04394216], [86.78612777, 22.04396909], [86.78615533, 22.04396004], [86.78618067, 22.04395875], [86.78620001, 22.04396908], [86.78620009, 22.04400328], [86.7861816, 22.04406482], [86.78621418, 22.04408602], [86.78624121, 22.04405274], [86.78627828, 22.04404018], [86.78626195, 22.04401084], [86.78627383, 22.04398663], [86.78633022, 22.04395114], [86.78633699, 22.04392373], [86.78634304, 22.04389915], [86.7863466, 22.04389915], [86.78638412, 22.043883], [86.78641018, 22.04386789], [86.78642835, 22.04386244], [86.78647289, 22.0438941], [86.78648787, 22.04390109], [86.78650758, 22.04388853], [86.78649812, 22.04386789], [86.78651066, 22.04385972], [86.78653181, 22.04386652], [86.78654633, 22.04387062], [86.78656648, 22.04385783], [86.78656706, 22.04385818], [86.78677327, 22.04379781], [86.78682464, 22.04373584], [86.78680574, 22.04365476], [86.78681179, 22.0436168], [86.78679757, 22.04358002], [86.78677211, 22.04359093], [86.78675233, 22.04360072], [86.78671642, 22.0435946], [86.78671518, 22.04354554], [86.78669603, 22.04351548], [86.78665471, 22.04349066], [86.78664024, 22.04345227], [86.78664599, 22.04341727], [86.78665807, 22.04339659], [86.7867255, 22.04339556], [86.7867602, 22.04348732], [86.78679488, 22.04351662], [86.78676492, 22.04335837], [86.78674748, 22.04326365], [86.78671241, 22.04314635], [86.78669347, 22.04310023], [86.78667815, 22.04311158], [86.78665203, 22.04310332], [86.78663474, 22.04309716], [86.78662269, 22.0430669], [86.78664103, 22.04301223], [86.78664509, 22.04298866], [86.7866211, 22.042963], [86.78661365, 22.04295541], [86.78660744, 22.04294786], [86.78659938, 22.04290479], [86.78659654, 22.04287851], [86.78661905, 22.04284821], [86.78663292, 22.04281646], [86.78662779, 22.04279871], [86.7866289, 22.04276511], [86.78657849, 22.04263462], [86.78652173, 22.04265656], [86.78646806, 22.04267843], [86.78636667, 22.0425816], [86.78634395, 22.04247348], [86.78637428, 22.0424208], [86.78648302, 22.04224168], [86.78624504, 22.04204808], [86.78600583, 22.04216021], [86.78602566, 22.04219386], [86.78600359, 22.04215944], [86.78567495, 22.04225144], [86.78572358, 22.04236963], [86.78575334, 22.04238436], [86.78578704, 22.04245388], [86.78583439, 22.04249626], [86.78587131, 22.04256686], [86.78594402, 22.04265546], [86.78595919, 22.0427076], [86.78598796, 22.04276126], [86.78601613, 22.04287578], [86.78599948, 22.04289217], [86.78590418, 22.04294496], [86.78585722, 22.0429937], [86.7854896, 22.04319299], [86.78547049, 22.0432791], [86.78537749, 22.04335281], [86.78530305, 22.04335281], [86.78523327, 22.04335281], [86.78520547, 22.04340413], [86.78515183, 22.04342764], [86.78516826, 22.0435565], [86.78518032, 22.04363445], [86.78515341, 22.04361485], [86.78512414, 22.04357103], [86.78505873, 22.04351318], [86.78499509, 22.04344653], [86.7850121, 22.04337608], [86.78500935, 22.04331583], [86.78491257, 22.04331123], [86.78481755, 22.04332968], [86.78479898, 22.04332968], [86.78472327, 22.04330664], [86.78463189, 22.04332969], [86.78454756, 22.0433948], [86.78452346, 22.04339948], [86.78445109, 22.04344183], [86.78439556, 22.04343711], [86.78433649, 22.04339949], [86.78425393, 22.04344184], [86.78424171, 22.04350843], [86.7840881, 22.043496], [86.78241603, 22.04402298], [86.78213415, 22.04407305], [86.78220065, 22.04443535], [86.78218329, 22.04443898], [86.78214868, 22.04431127], [86.7821441, 22.04428121], [86.78210815, 22.04430643], [86.78205391, 22.04428384], [86.78204167, 22.04423989], [86.78209362, 22.0442235], [86.78207075, 22.04411594], [86.78183058, 22.0441228], [86.7817429, 22.04411822], [86.78175796, 22.04413705], [86.78174917, 22.04420241], [86.78178196, 22.04422978], [86.78180094, 22.04425981], [86.78181325, 22.04427728], [86.78183018, 22.04431474], [86.78186525, 22.04435569], [86.78178844, 22.04440842], [86.78177767, 22.04443191], [86.78180095, 22.04443899], [86.78177796, 22.04447925], [86.78175549, 22.04450194], [86.78172145, 22.04451766], [86.78169206, 22.04452242], [86.78167004, 22.04446305], [86.78165284, 22.04443448], [86.78144639, 22.04449634], [86.78143385, 22.04454452], [86.78145494, 22.0445917], [86.78150154, 22.04458448], [86.78153844, 22.04461671], [86.78156288, 22.04465745], [86.78158095, 22.04468533], [86.78157414, 22.04470584], [86.78157102, 22.04472587], [86.78150632, 22.04473477], [86.78147755, 22.04477433], [86.78148702, 22.04486072], [86.78149854, 22.0449415], [86.78150398, 22.04493867], [86.7815522, 22.04492883], [86.78158159, 22.04492743], [86.78161019, 22.04491906], [86.78161258, 22.04490387], [86.78163112, 22.04489022], [86.78164766, 22.04488616], [86.78169358, 22.0448647], [86.78171227, 22.04486204], [86.78173849, 22.04485279], [86.78175962, 22.0448423], [86.78180016, 22.04483839], [86.78180384, 22.04483839], [86.78182867, 22.04486072], [86.78183443, 22.04491214], [86.78184886, 22.0449979], [86.78188883, 22.04518595], [86.78191765, 22.04517488], [86.78205956, 22.0451224], [86.78201859, 22.04490979], [86.7820206, 22.04488694], [86.78208442, 22.04487215], [86.78212373, 22.04486604], [86.78219596, 22.04485876], [86.78222152, 22.04487952], [86.78226378, 22.04503454], [86.78265306, 22.04490015], [86.7826641, 22.04487055], [86.78269762, 22.04485468], [86.7827154, 22.04487302], [86.78279432, 22.04484982], [86.78304801, 22.04478277], [86.78318776, 22.04474997], [86.78331327, 22.04472779], [86.78353719, 22.04471202], [86.78364397, 22.04472291], [86.78366908, 22.04472413], [86.78372527, 22.04467294], [86.78374707, 22.04460736], [86.78376672, 22.04457489], [86.78376109, 22.04454543], [86.78373161, 22.0444933], [86.78375292, 22.0444437], [86.7837584, 22.0444047], [86.78375756, 22.04438506], [86.78374868, 22.04437779], [86.78373064, 22.04436815], [86.7837287, 22.04430174], [86.78370625, 22.04422416], [86.78370495, 22.04419604], [86.7837022, 22.04416264], [86.78371965, 22.04413997], [86.78373475, 22.04412454], [86.78375972, 22.04414148], [86.78377521, 22.04413494], [86.78380342, 22.04411039], [86.78382443, 22.04410656], [86.78384851, 22.04412454], [86.78386376, 22.04413363], [86.78386394, 22.04411423], [86.7838468, 22.0441002], [86.78383782, 22.04407759], [86.78385931, 22.04406871], [86.78388636, 22.04409014], [86.78389424, 22.0441168], [86.78392752, 22.04410911], [86.78396118, 22.04412066], [86.78398594, 22.04410528], [86.78401395, 22.04409514], [86.78402016, 22.04407263], [86.78404169, 22.04406276], [86.7840633, 22.04407759], [86.78408171, 22.0441002], [86.78409587, 22.04408508], [86.78410627, 22.04407015], [86.78415831, 22.04405908], [86.78418736, 22.04406131], [86.78418699, 22.04402409], [86.78420877, 22.04399685], [86.7842024, 22.04398641], [86.78418715, 22.04396871], [86.78420178, 22.04395414], [86.78421775, 22.0439255], [86.78423712, 22.04390165], [86.78423727, 22.04388235], [86.78422374, 22.04385931], [86.78420715, 22.04381709], [86.78420216, 22.04376755], [86.78422095, 22.04371524], [86.78422376, 22.0436824], [86.78422523, 22.04365952], [86.78422085, 22.04364712]], [[86.78646008, 22.04379374], [86.78637771, 22.04370948], [86.78635033, 22.04367068], [86.78635401, 22.04365006], [86.78635092, 22.04361982], [86.7863234, 22.04361541], [86.78630077, 22.04354611], [86.78627876, 22.04354405], [86.78625859, 22.04353583], [86.78624144, 22.0435206], [86.78622881, 22.04350557], [86.78621978, 22.04349568], [86.78620401, 22.04344174], [86.7862115, 22.04342274], [86.78625032, 22.04340188], [86.78634782, 22.04336026], [86.7864079, 22.04338927], [86.7864358, 22.04344358], [86.7864429, 22.04349365], [86.78647936, 22.04358031], [86.78651163, 22.04370609], [86.78651969, 22.04374895], [86.78651405, 22.04382629], [86.78652933, 22.04383548], [86.78648718, 22.04381186], [86.78646008, 22.04379374]], [[86.78599254, 22.04291109], [86.78601615, 22.04287586], [86.78601631, 22.04287655], [86.78599254, 22.04291109]], [[86.78595773, 22.04309513], [86.78592178, 22.04307755], [86.78590043, 22.04301221], [86.78595669, 22.04296433], [86.78601678, 22.04307316], [86.78595773, 22.04309513]], [[86.78611488, 22.04221583], [86.78610898, 22.04225343], [86.78608333, 22.04228381], [86.78604761, 22.04222811], [86.7860761, 22.04220464], [86.78611488, 22.04221583]]], [[[86.78428572, 22.04624079], [86.78426754, 22.04631542], [86.78480565, 22.04624078], [86.78489319, 22.04598166], [86.78490346, 22.04586103], [86.78515503, 22.04584633], [86.78558468, 22.04578363], [86.78596442, 22.04565818], [86.78595656, 22.0455692], [86.78600292, 22.04558674], [86.78601348, 22.04540052], [86.78601223, 22.04517581], [86.78572751, 22.04515379], [86.78560495, 22.04512117], [86.78546744, 22.04514286], [86.78546068, 22.04512117], [86.78539891, 22.04509257], [86.78531363, 22.04507489], [86.7853259, 22.04503994], [86.78532906, 22.04498856], [86.78530296, 22.04491212], [86.78527792, 22.04482893], [86.78529536, 22.0448071], [86.78534096, 22.044804], [86.78539555, 22.04506785], [86.78543512, 22.04507488], [86.78599747, 22.04513923], [86.78598553, 22.04479164], [86.78597505, 22.04476108], [86.78595593, 22.04457421], [86.78589949, 22.04449396], [86.78585479, 22.04440441], [86.78575773, 22.04440945], [86.78567086, 22.04444518], [86.78561707, 22.04445552], [86.78561079, 22.04455119], [86.78561215, 22.04461497], [86.7856082, 22.04472062], [86.78555027, 22.04476677], [86.785487, 22.04478227], [86.78547802, 22.04473211], [86.78543827, 22.04472063], [86.78540254, 22.04470536], [86.78537519, 22.0447398], [86.78530783, 22.04475519], [86.78528429, 22.04468637], [86.78526899, 22.04461126], [86.78526221, 22.04446162], [86.785154, 22.0444979], [86.78472717, 22.04462173], [86.78461342, 22.04466657], [86.78451982, 22.04469055], [86.78445698, 22.04473216], [86.78440292, 22.04475523], [86.78437514, 22.04475524], [86.78435712, 22.04473984], [86.78416723, 22.044794], [86.78413648, 22.04481351], [86.78423387, 22.04521161], [86.78424372, 22.04529317], [86.78426575, 22.04570855], [86.78429381, 22.04592043], [86.7842888, 22.04600711], [86.78427084, 22.04614068], [86.78428572, 22.04624079]], [[86.78462119, 22.0447841], [86.78468664, 22.04475413], [86.78472564, 22.04476656], [86.78473105, 22.04479418], [86.78472093, 22.04482726], [86.78474247, 22.04484527], [86.78477016, 22.04485045], [86.78481324, 22.04485563], [86.7848357, 22.04486604], [86.78483812, 22.04486864], [86.78484824, 22.04487125], [86.78487509, 22.04490283], [86.78485072, 22.04492681], [86.78479883, 22.04492681], [86.78477066, 22.04488174], [86.78475579, 22.04487388], [86.78471434, 22.04487912], [86.78467262, 22.04491613], [86.78463997, 22.0449055], [86.78463062, 22.04486865], [86.78462094, 22.04478662], [86.78461342, 22.04466657], [86.78462119, 22.0447841]]], [[[86.78131496, 22.04597655], [86.78136319, 22.0461569], [86.7813597, 22.04623521], [86.7814044, 22.04624212], [86.7814684, 22.04627342], [86.78145537, 22.04632915], [86.78150523, 22.04631624], [86.78156032, 22.04635519], [86.78153461, 22.04642694], [86.78150351, 22.04647048], [86.78143288, 22.04648977], [86.78139598, 22.04648148], [86.78139839, 22.04655709], [86.78142811, 22.0466199], [86.78143687, 22.04674972], [86.78145527, 22.04681768], [86.78149494, 22.04695559], [86.7815158, 22.04702669], [86.78152084, 22.04706895], [86.78156695, 22.04719612], [86.78163605, 22.04747948], [86.78174707, 22.04784779], [86.78218437, 22.04768611], [86.78236236, 22.04757198], [86.78236314, 22.04757745], [86.78249854, 22.04750875], [86.78252338, 22.04746182], [86.78265516, 22.04744649], [86.78299633, 22.04733766], [86.78299826, 22.04734385], [86.78325934, 22.04727856], [86.7832644, 22.04722853], [86.78331447, 22.04716564], [86.78336088, 22.0471382], [86.78345423, 22.04707754], [86.78350192, 22.04713908], [86.78367923, 22.04700395], [86.7838216, 22.04690781], [86.78399173, 22.04684266], [86.78401329, 22.046796], [86.7840152, 22.046796], [86.78404187, 22.0467937], [86.78409981, 22.04677316], [86.78413388, 22.04674616], [86.78410014, 22.0465297], [86.78409694, 22.04652935], [86.78409963, 22.04649705], [86.78409134, 22.04642515], [86.7840916, 22.04635762], [86.78425616, 22.04632352], [86.78425262, 22.04616814], [86.78426479, 22.04594368], [86.78424316, 22.04583123], [86.78423228, 22.0455404], [86.78419883, 22.04523696], [86.78397587, 22.04528784], [86.78372457, 22.04531125], [86.78372878, 22.04548524], [86.78365149, 22.0454952], [86.78347973, 22.04557088], [86.78337843, 22.04561716], [86.78333585, 22.0455811], [86.78323811, 22.04559136], [86.78329051, 22.04578728], [86.78328605, 22.04585341], [86.78320077, 22.04592667], [86.78314479, 22.04603082], [86.7831257, 22.04602385], [86.78310596, 22.04601387], [86.78307838, 22.0460278], [86.78299685, 22.0460659], [86.78291707, 22.04605998], [86.78244103, 22.04619876], [86.78240115, 22.0461545], [86.78237853, 22.04604816], [86.78234032, 22.04596086], [86.78231109, 22.04585341], [86.78231079, 22.04578727], [86.7822377, 22.04582569], [86.78219986, 22.0457601], [86.78227801, 22.0456852], [86.78225104, 22.04555559], [86.78220966, 22.04552525], [86.78220706, 22.04548523], [86.78216836, 22.04547036], [86.78220112, 22.04541155], [86.78220266, 22.04534907], [86.78214414, 22.04532537], [86.78214921, 22.04529717], [86.78216609, 22.04522778], [86.7821511, 22.04514212], [86.78187798, 22.04521865], [86.78176159, 22.04522778], [86.78162268, 22.04532065], [86.78174657, 22.04577638], [86.7815865, 22.04587456], [86.78155138, 22.04588092], [86.78131496, 22.04597655]], [[86.78162603, 22.04586821], [86.78167337, 22.04589372], [86.78169631, 22.04593257], [86.78163403, 22.04596106], [86.78158203, 22.04597814], [86.78155384, 22.04594786], [86.7815865, 22.04587456], [86.78162603, 22.04586821]], [[86.78339123, 22.04615199], [86.78346553, 22.04618444], [86.78346491, 22.04626473], [86.78346504, 22.04627158], [86.78346521, 22.04628076], [86.78346191, 22.04634151], [86.78346208, 22.04635104], [86.78348895, 22.04635867], [86.78347485, 22.04638996], [86.78344226, 22.04636541], [86.78339763, 22.04632984], [86.78338436, 22.04634152], [86.78332826, 22.04638232], [86.78332896, 22.04638334], [86.78330354, 22.04642182], [86.783247, 22.04644407], [86.78322708, 22.04643595], [86.78321043, 22.04638799], [86.78326358, 22.04631089], [86.78322767, 22.04627846], [86.78317174, 22.04623085], [86.78317111, 22.04617138], [86.78312916, 22.04619538], [86.78310773, 22.04622414], [86.78307588, 22.04617139], [86.78309795, 22.04613492], [86.78312055, 22.04608674], [86.78318754, 22.04610753], [86.7832182, 22.04616059], [86.78323977, 22.04614985], [86.78327213, 22.04612645], [86.78332856, 22.04612645], [86.78323682, 22.04608005], [86.7833286, 22.04612434], [86.78339123, 22.04615199]], [[86.78358169, 22.04661261], [86.78358986, 22.04667398], [86.78355825, 22.04673503], [86.7835028, 22.04675182], [86.78348053, 22.04672077], [86.78345643, 22.04668789], [86.78342572, 22.04668789], [86.78341323, 22.04665329], [86.78345267, 22.04661708], [86.78348926, 22.04661708], [86.78352565, 22.04659924], [86.78358169, 22.04661261]], [[86.78408241, 22.04647256], [86.78404853, 22.04648381], [86.78403459, 22.04648193], [86.78401365, 22.04643565], [86.7840083, 22.04638727], [86.78400823, 22.04638551], [86.78400454, 22.04637673], [86.78398796, 22.04633027], [86.78398212, 22.04630178], [86.78398196, 22.04629682], [86.78400232, 22.04627875], [86.78404339, 22.04626415], [86.78406462, 22.04627062], [86.78409013, 22.04631344], [86.78409132, 22.04642495], [86.78409109, 22.04642295], [86.78408241, 22.04647256]], [[86.78398299, 22.04654925], [86.78398911, 22.04657503], [86.78391782, 22.04658105], [86.78389102, 22.04656705], [86.78387514, 22.04654532], [86.7838452, 22.04653944], [86.78384263, 22.0465891], [86.78378285, 22.04660738], [86.78377013, 22.04656506], [86.78375001, 22.04653944], [86.78372435, 22.04655713], [86.78371242, 22.04657904], [86.78368261, 22.04657104], [86.78365368, 22.04653164], [86.78362756, 22.04648947], [86.78356791, 22.04648005], [86.7835421, 22.0464503], [86.78353785, 22.04644296], [86.78353637, 22.04644113], [86.78356247, 22.04640678], [86.78358592, 22.04637673], [86.78361239, 22.0463961], [86.78364951, 22.04641395], [86.78369062, 22.04643019], [86.78371306, 22.04645214], [86.78371477, 22.04645214], [86.783749, 22.04645214], [86.78376877, 22.04643019], [86.78374761, 22.04637848], [86.78372432, 22.04632183], [86.78374715, 22.04629186], [86.7837601, 22.04629186], [86.78379553, 22.04629681], [86.78381559, 22.04633366], [86.7838379, 22.04636975], [86.78388444, 22.04638199], [86.78392686, 22.04643748], [86.78397496, 22.04651425], [86.78402332, 22.04652116], [86.78397851, 22.04651617], [86.78398299, 22.04654925]], [[86.78276836, 22.04698096], [86.7827368, 22.04691868], [86.78275218, 22.04684996], [86.78279783, 22.04682306], [86.78280288, 22.04682039], [86.78285444, 22.04684996], [86.78285544, 22.04688818], [86.782958, 22.04721537], [86.78286719, 22.04693831], [86.78276836, 22.04698096]], [[86.78223436, 22.04747347], [86.78221823, 22.04740811], [86.78221096, 22.04735523], [86.78226276, 22.04734066], [86.7823407, 22.04736668], [86.78236245, 22.0473892], [86.78238343, 22.04743508], [86.78235636, 22.04750647], [86.78232385, 22.04749694], [86.78223436, 22.04747347]], [[86.7821444, 22.04727134], [86.78205655, 22.04728577], [86.78199509, 22.04728215], [86.7819903, 22.0472427], [86.78200674, 22.04718293], [86.78204448, 22.04714843], [86.78214618, 22.04714159], [86.78219599, 22.04723915], [86.78220292, 22.04729667], [86.7821955, 22.04724271], [86.7821444, 22.04727134]]]]}, "properties": {"site_id": "FCF_Soova_EMU_Mayurbhanj_4", "name": "FCF_Soova_EMU_Mayurbhanj_4", "n_member_parcels": 4}}]}