{"type": "FeatureCollection", "features": [{"type": "Feature", "geometry": {"type": "MultiPolygon", "coordinates": [[[[86.55013165, 22.04558347], [86.55021688, 22.04555636], [86.55026068, 22.04558773], [86.55029698, 22.04566523], [86.55027001, 22.0457222], [86.5501852, 22.0457845], [86.55022566, 22.04582508], [86.5502592, 22.04592607], [86.55026849, 22.0459923], [86.55029403, 22.04602209], [86.55035089, 22.04603207], [86.55040837, 22.04603707], [86.55044404, 22.04607767], [86.55046901, 22.04613113], [86.55047496, 22.0462002], [86.55048646, 22.04629073], [86.5505534, 22.04624521], [86.55056722, 22.04618034], [86.55061522, 22.0461116], [86.55059792, 22.04605212], [86.55056864, 22.04599724], [86.55054832, 22.04594469], [86.55056521, 22.04586149], [86.55067085, 22.0457999], [86.55076804, 22.04586604], [86.5508167, 22.04597257], [86.55097347, 22.04591889], [86.55103821, 22.04600218], [86.55109917, 22.04614957], [86.55117968, 22.04609256], [86.55121144, 22.04600714], [86.55137703, 22.04597788], [86.5513754, 22.0459824], [86.5514758, 22.04594466], [86.55147899, 22.04608246], [86.55151815, 22.04617041], [86.55159043, 22.04616054], [86.55164229, 22.04609698], [86.55164726, 22.04604876], [86.55161036, 22.04601534], [86.5515872, 22.04593998], [86.55170588, 22.04590921], [86.55171446, 22.04591405], [86.55183409, 22.04592858], [86.55202752, 22.04579581], [86.55193689, 22.04580457], [86.55186907, 22.0456044], [86.55186819, 22.04560493], [86.55164818, 22.0449942], [86.55159173, 22.04495433], [86.55158488, 22.04491497], [86.55146722, 22.04439259], [86.55145876, 22.04433474], [86.55155008, 22.04431728], [86.55173057, 22.04429547], [86.55198554, 22.04425848], [86.5522285, 22.04417977], [86.55222851, 22.04417977], [86.55277866, 22.04410874], [86.55273096, 22.04388275], [86.55308062, 22.04385097], [86.5529771, 22.04363891], [86.5530028, 22.043543], [86.55310001, 22.04344066], [86.55310017, 22.0434417], [86.55321476, 22.04344815], [86.55335311, 22.04337763], [86.55342744, 22.04343974], [86.55349718, 22.04339716], [86.5536379, 22.043365], [86.5537609, 22.04333384], [86.55381192, 22.0432092], [86.55391709, 22.04325046], [86.55391995, 22.04331289], [86.55389466, 22.04337126], [86.55409841, 22.04327813], [86.5542383, 22.04334523], [86.55429657, 22.04320566], [86.55435674, 22.04315076], [86.5544437, 22.04316443], [86.55472336, 22.04318499], [86.55476965, 22.04309634], [86.55484274, 22.04289681], [86.55487472, 22.04274207], [86.55489979, 22.04256061], [86.55506263, 22.04246903], [86.55522122, 22.04246297], [86.5552216, 22.04245896], [86.55531232, 22.0424268], [86.5554701, 22.04243718], [86.5556024, 22.0423493], [86.5557702, 22.0422924], [86.55570869, 22.04214358], [86.55574402, 22.04196352], [86.55566427, 22.0417665], [86.55615544, 22.04185928], [86.55592723, 22.04150143], [86.55578746, 22.04141476], [86.55573335, 22.04132419], [86.55579706, 22.04120406], [86.55573329, 22.04111194], [86.55570731, 22.0410364], [86.55567825, 22.04091292], [86.55554212, 22.04090805], [86.55541258, 22.04071202], [86.55531204, 22.04087116], [86.55527546, 22.04103908], [86.55519585, 22.04102026], [86.55519484, 22.04102322], [86.5550289, 22.0408799], [86.55496526, 22.04073375], [86.5548813, 22.04079255], [86.55476096, 22.04086458], [86.55460642, 22.04094538], [86.55453459, 22.04088761], [86.55446576, 22.04095747], [86.55445269, 22.04102061], [86.55424749, 22.04109582], [86.5543078, 22.0414148], [86.5539821, 22.0415088], [86.553968, 22.041518], [86.55407055, 22.04168976], [86.5539206, 22.04171181], [86.55370922, 22.04176074], [86.553695, 22.04176074], [86.5535146, 22.04183749], [86.55340518, 22.04186951], [86.55329475, 22.04186951], [86.55302959, 22.04193893], [86.55290192, 22.04196702], [86.5528066, 22.04198585], [86.5526112, 22.04204284], [86.55216363, 22.0421936], [86.55221969, 22.0424272], [86.55211792, 22.04246384], [86.55193778, 22.04253802], [86.55193565, 22.04255478], [86.5517335, 22.0426243], [86.55158409, 22.0426956], [86.55163882, 22.04278487], [86.55161985, 22.0428644], [86.55142913, 22.04291625], [86.55139059, 22.04305249], [86.55146167, 22.04341203], [86.55138017, 22.04300982], [86.5512925, 22.0429868], [86.5512218, 22.0429888], [86.55121487, 22.04303453], [86.55112611, 22.04306192], [86.55108634, 22.04308951], [86.55112129, 22.04335093], [86.55093957, 22.04335093], [86.55100012, 22.04338816], [86.55101504, 22.04345988], [86.55098339, 22.04350972], [86.55092202, 22.04357192], [86.55096366, 22.04394083], [86.55074371, 22.04398769], [86.55059586, 22.04401918], [86.55051128, 22.04403612], [86.55045255, 22.0440581], [86.55035277, 22.04409351], [86.55040458, 22.04422434], [86.55043272, 22.04421062], [86.5504886, 22.04421976], [86.55050106, 22.04429826], [86.55044015, 22.04435925], [86.55037643, 22.04436871], [86.55033862, 22.04441631], [86.55040359, 22.04446927], [86.55039283, 22.04455237], [86.55032545, 22.04461197], [86.55036936, 22.04469775], [86.54991056, 22.04487722], [86.5498052, 22.0449194], [86.5498343, 22.0449609], [86.54986038, 22.04494908], [86.54990322, 22.04495239], [86.54989799, 22.04500589], [86.54986944, 22.04502281], [86.55000525, 22.04522661], [86.55007099, 22.04523052], [86.55000177, 22.04522661], [86.55003875, 22.0453272], [86.55003658, 22.04532647], [86.55013165, 22.04558347]], [[86.55445612, 22.04287725], [86.55432043, 22.04285775], [86.55424941, 22.04292962], [86.55410996, 22.04297583], [86.55405684, 22.04290339], [86.55416248, 22.04281941], [86.55412238, 22.04270992], [86.55417148, 22.0425447], [86.55430496, 22.04249587], [86.5543609, 22.04261032], [86.5543881, 22.04267885], [86.55447994, 22.04282538], [86.55435674, 22.04315076], [86.55445612, 22.04287725]], [[86.55477414, 22.04283829], [86.55468912, 22.04287073], [86.55469496, 22.04278677], [86.55468953, 22.04270405], [86.55477902, 22.04269773], [86.55487472, 22.04274207], [86.55477414, 22.04283829]], [[86.55201082, 22.04269558], [86.55201611, 22.04270111], [86.55206953, 22.0427736], [86.55201406, 22.04287297], [86.5520719, 22.04302159], [86.55200602, 22.04285866], [86.55190226, 22.04279473], [86.55192321, 22.04265247], [86.55191866, 22.04268821], [86.55201082, 22.04269558]], [[86.5521882, 22.04297557], [86.55220927, 22.04306578], [86.55215014, 22.04312938], [86.55210572, 22.04310522], [86.55207191, 22.04302162], [86.55210304, 22.04298325], [86.5521882, 22.04297557]], [[86.55246749, 22.04339165], [86.55252233, 22.0434058], [86.55250605, 22.04345852], [86.5524553, 22.04347069], [86.55242849, 22.0434344], [86.55240475, 22.04339448], [86.55242402, 22.0434153], [86.55246749, 22.04339165]], [[86.55519684, 22.0422845], [86.55512364, 22.04234335], [86.55503911, 22.04241481], [86.55493009, 22.04241482], [86.55495499, 22.04230797], [86.55480699, 22.04224467], [86.55494946, 22.0423021], [86.55504188, 22.04232563], [86.55510507, 22.04227866], [86.55508631, 22.0422032], [86.55509146, 22.04219744], [86.5551851, 22.04214016], [86.55527071, 22.04215156], [86.5552318, 22.04235201], [86.55523936, 22.04227281], [86.55519684, 22.0422845]], [[86.55449821, 22.04220899], [86.55441701, 22.04224373], [86.55441165, 22.04224373], [86.55437227, 22.0421345], [86.55445794, 22.04210613], [86.55446324, 22.04210613], [86.55464133, 22.0421779], [86.55459912, 22.04227284], [86.55449821, 22.04220899]], [[86.55290578, 22.04279611], [86.552889, 22.04267901], [86.55299238, 22.04266251], [86.55301609, 22.0427344], [86.55300286, 22.04280742], [86.55300763, 22.04283853], [86.55300347, 22.04281308], [86.55290578, 22.04279611]], [[86.55269125, 22.04257016], [86.55272377, 22.04265156], [86.55268349, 22.04267351], [86.55261516, 22.04267351], [86.55262888, 22.04257016], [86.55264577, 22.04251669], [86.55273099, 22.04248489], [86.55265025, 22.04243763], [86.55264919, 22.04235479], [86.55270884, 22.04233943], [86.55280843, 22.04237535], [86.55281872, 22.04241414], [86.5527357, 22.04247962], [86.55269125, 22.04257016]], [[86.55225584, 22.04407491], [86.55221759, 22.04400149], [86.55222016, 22.0439987], [86.55226349, 22.04396002], [86.55227109, 22.04396277], [86.55232708, 22.04398205], [86.5523278, 22.04403794], [86.55224002, 22.04416137], [86.55226885, 22.0441153], [86.55225584, 22.04407491]], [[86.55122514, 22.0442821], [86.55114012, 22.04435675], [86.55101394, 22.04441229], [86.55099762, 22.04441738], [86.55088939, 22.04440214], [86.5508802, 22.04427224], [86.55088914, 22.04420383], [86.550965, 22.04417002], [86.55104171, 22.04421354], [86.5510391, 22.0442821], [86.5511135, 22.04421354], [86.55112375, 22.04421354], [86.55122237, 22.04414603], [86.55123956, 22.04407013], [86.55128309, 22.04397708], [86.55139276, 22.04391313], [86.55142024, 22.04419563], [86.55132531, 22.04425749], [86.55122514, 22.0442821]], [[86.55142586, 22.04584226], [86.55140348, 22.04590441], [86.55142476, 22.04584012], [86.55142586, 22.04584226]], [[86.55109091, 22.04561769], [86.55102636, 22.04544587], [86.55112137, 22.04540863], [86.55121651, 22.04538316], [86.55137456, 22.04574178], [86.55142361, 22.04583786], [86.55119272, 22.04587558], [86.55109091, 22.04561769]], [[86.55179972, 22.04575803], [86.55175163, 22.04579521], [86.55167601, 22.04579989], [86.5516422, 22.04573041], [86.55168254, 22.04569393], [86.55183875, 22.04562285], [86.55175911, 22.04567132], [86.55179972, 22.04575803]], [[86.55500483, 22.0412877], [86.55499586, 22.04149393], [86.5548577, 22.04155377], [86.55476213, 22.0414345], [86.55461257, 22.04148486], [86.55461412, 22.04148178], [86.55461869, 22.04133636], [86.55470415, 22.04122005], [86.55471369, 22.04121043], [86.55476917, 22.04111481], [86.55487818, 22.0413388], [86.55500003, 22.04128333], [86.55500174, 22.04114987], [86.55515277, 22.04113757], [86.55517851, 22.04107089], [86.55510423, 22.0412877], [86.55500483, 22.0412877]], [[86.55462176, 22.04167407], [86.55461953, 22.04177801], [86.55457747, 22.04182886], [86.55456916, 22.04183312], [86.55450448, 22.04180759], [86.5544808, 22.04174728], [86.55460212, 22.04150567], [86.55454628, 22.04164545], [86.55462176, 22.04167407]], [[86.55429593, 22.04167819], [86.5542919, 22.04167819], [86.55427603, 22.04161299], [86.55433305, 22.04159283], [86.55433703, 22.04159283], [86.55442799, 22.04160491], [86.55444722, 22.04166178], [86.55444562, 22.04165769], [86.55429593, 22.04167819]], [[86.55161516, 22.04359889], [86.55168773, 22.04348708], [86.55177892, 22.0435001], [86.55184709, 22.04353938], [86.55185168, 22.04363224], [86.55178602, 22.04373364], [86.55171061, 22.04370641], [86.55163424, 22.04372001], [86.55154155, 22.04369963], [86.551509, 22.04364566], [86.55150203, 22.04361127], [86.55154089, 22.04357898], [86.55161516, 22.04359889]], [[86.55020655, 22.04508109], [86.55020068, 22.04498571], [86.55018921, 22.04487721], [86.55024254, 22.04485473], [86.55032034, 22.04487721], [86.55037218, 22.04491619], [86.55034796, 22.04497233], [86.55029476, 22.04508455], [86.5503594, 22.04508109], [86.55038262, 22.04512294], [86.55040933, 22.04519765], [86.55032512, 22.04524485], [86.5501894, 22.0452372], [86.55022039, 22.04515828], [86.55020655, 22.04508109]], [[86.5505038, 22.04533022], [86.55051499, 22.0453949], [86.55049741, 22.04544921], [86.55043236, 22.04546097], [86.55036573, 22.04543832], [86.55042227, 22.04534154], [86.5505038, 22.04533022]]], [[[86.54973881, 22.05102282], [86.54981785, 22.05100132], [86.54992311, 22.05095871], [86.55000423, 22.05099418], [86.5502572, 22.0509587], [86.55020148, 22.05073323], [86.55015383, 22.05054045], [86.5501553, 22.05040586], [86.55014693, 22.05031719], [86.55016589, 22.05028817], [86.55020264, 22.0502358], [86.5501716, 22.05008781], [86.55010146, 22.05002772], [86.5500733, 22.04990788], [86.55003107, 22.04986226], [86.54996545, 22.04980901], [86.549881, 22.04969854], [86.54983617, 22.04975846], [86.54984031, 22.04979445], [86.54988212, 22.04985697], [86.54993375, 22.04987193], [86.54997182, 22.04990974], [86.54993424, 22.04994044], [86.54988304, 22.04990213], [86.54979176, 22.0498421], [86.54971056, 22.04991356], [86.54965528, 22.04987192], [86.54966843, 22.0498384], [86.54974354, 22.04983471], [86.54976763, 22.04977638], [86.54977898, 22.0497125], [86.54987765, 22.04970202], [86.5497541, 22.04954329], [86.54960177, 22.04958413], [86.54907674, 22.04968653], [86.54906789, 22.04981735], [86.54909767, 22.04993491], [86.54915685, 22.05002244], [86.5491867, 22.05021961], [86.54941262, 22.05018027], [86.54943962, 22.05038965], [86.54948137, 22.05042765], [86.54953689, 22.05061625], [86.54963319, 22.05057814], [86.54970335, 22.05080678], [86.54973881, 22.05102282]], [[86.55014105, 22.05019268], [86.55006762, 22.05018413], [86.55002568, 22.05018413], [86.54998614, 22.05022286], [86.54999131, 22.05029323], [86.55002123, 22.05040256], [86.54997731, 22.05040722], [86.54991877, 22.05032013], [86.54991903, 22.0502272], [86.54992552, 22.05015441], [86.54999624, 22.05010843], [86.55006848, 22.05011257], [86.5501716, 22.05008781], [86.55014105, 22.05019268]]], [[[86.55234166, 22.05218599], [86.55235334, 22.05212045], [86.55288794, 22.05199229], [86.55300659, 22.05195041], [86.5527814, 22.05122969], [86.55274537, 22.05116803], [86.55271727, 22.05108008], [86.5526436, 22.05110187], [86.55265783, 22.0511736], [86.55257081, 22.05123534], [86.55252395, 22.05121277], [86.55249498, 22.05114585], [86.55209744, 22.05122403], [86.55206711, 22.05116802], [86.55192853, 22.05113948], [86.55120574, 22.05104668], [86.55089491, 22.05099408], [86.55070002, 22.05098792], [86.55011529, 22.0510252], [86.55014691, 22.05133264], [86.55047437, 22.0513268], [86.55050279, 22.05148149], [86.55058399, 22.05164632], [86.55050445, 22.05183231], [86.5505997, 22.05206833], [86.55065925, 22.05226731], [86.55064166, 22.05235739], [86.55064192, 22.05243705], [86.5505463, 22.0527965], [86.5505372, 22.052795], [86.5505, 22.0529216], [86.55039724, 22.05310091], [86.55044445, 22.05326897], [86.55062736, 22.05408794], [86.55150727, 22.05389445], [86.55135416, 22.05318308], [86.55124776, 22.05266422], [86.55139089, 22.05255945], [86.5513912, 22.05256135], [86.55236401, 22.0523088], [86.55234166, 22.05218599]]], [[[86.55203259, 22.05382047], [86.55206781, 22.05400209], [86.55214137, 22.05401299], [86.5522286, 22.05400209], [86.55267331, 22.05391579], [86.55308314, 22.0538415], [86.55328659, 22.05381], [86.55316402, 22.05321464], [86.55302736, 22.05311033], [86.55294972, 22.05302985], [86.55285832, 22.05298575], [86.55266986, 22.05300333], [86.55257546, 22.05304761], [86.55251646, 22.05290745], [86.55242111, 22.05269697], [86.55240504, 22.05242623], [86.55141617, 22.05271457], [86.55160848, 22.05389445], [86.55203259, 22.05382047]]]]}, "properties": {"site_id": "FCF_Soova_EMU_Mayurbhanj_9", "name": "FCF_Soova_EMU_Mayurbhanj_9", "n_member_parcels": 3}}]}