{"type": "FeatureCollection", "features": [{"type": "Feature", "geometry": {"type": "MultiPolygon", "coordinates": [[[[86.61780112, 21.98690077], [86.61792196, 21.9869245], [86.61809824, 21.98690076], [86.61824807, 21.98693243], [86.61840678, 21.98706877], [86.61836008, 21.98722458], [86.6184877, 21.98719973], [86.61883204, 21.987085], [86.61898121, 21.98738411], [86.61919091, 21.98784096], [86.61931672, 21.98804371], [86.61947406, 21.98802503], [86.61964773, 21.98793792], [86.6197125, 21.98811122], [86.62003189, 21.98810668], [86.61992499, 21.98791874], [86.61977939, 21.98776726], [86.61954992, 21.98733834], [86.61940102, 21.98723163], [86.61917355, 21.98695593], [86.61887817, 21.98657064], [86.618864, 21.98655387], [86.61864836, 21.98635065], [86.61866823, 21.98628029], [86.61874714, 21.98628028], [86.61927972, 21.98698535], [86.61952843, 21.98720078], [86.61952686, 21.98720216], [86.61965883, 21.98735382], [86.61968805, 21.98750666], [86.6201058, 21.9880758], [86.62023716, 21.98800258], [86.62020313, 21.98794457], [86.62018806, 21.98780306], [86.62027776, 21.98785211], [86.62035425, 21.98776622], [86.62043171, 21.98783769], [86.62057489, 21.98783616], [86.62067811, 21.98780353], [86.62078152, 21.98780699], [86.6207479, 21.98762609], [86.62078978, 21.98780651], [86.62080683, 21.98767472], [86.62087134, 21.98762735], [86.62089596, 21.98769129], [86.62101482, 21.98758289], [86.62097399, 21.98743781], [86.6210634, 21.98754361], [86.62115224, 21.98753472], [86.62105918, 21.98720836], [86.62093225, 21.98653947], [86.62098822, 21.98652882], [86.62117124, 21.98718512], [86.62121958, 21.98729607], [86.62134635, 21.9873429], [86.62138966, 21.98729513], [86.6214689, 21.98724949], [86.62158804, 21.98712572], [86.62157792, 21.9869882], [86.62146732, 21.98681442], [86.62131908, 21.98661491], [86.62123816, 21.98642148], [86.62123115, 21.98596274], [86.62121538, 21.98573698], [86.62072154, 21.98580576], [86.62074656, 21.98579983], [86.62122447, 21.98573289], [86.62134047, 21.98556623], [86.62135676, 21.98539314], [86.62141698, 21.98537675], [86.62144276, 21.98526909], [86.62144751, 21.98514859], [86.62150051, 21.98501646], [86.62161117, 21.98492742], [86.62147196, 21.98458087], [86.62142075, 21.98462142], [86.62133936, 21.98455628], [86.62108195, 21.98461194], [86.62110724, 21.98466482], [86.62108329, 21.98471101], [86.62105283, 21.98477708], [86.62106362, 21.98481703], [86.62106432, 21.98489778], [86.6210174, 21.98496455], [86.62101741, 21.98496898], [86.62096969, 21.98498724], [86.62088419, 21.98501871], [86.62086524, 21.98499163], [86.62086319, 21.98498712], [86.62085257, 21.98497824], [86.6209192, 21.98489473], [86.62096918, 21.98479358], [86.62101728, 21.98466043], [86.62105167, 21.98461789], [86.62133122, 21.98455431], [86.62139238, 21.98445737], [86.62131629, 21.98438429], [86.62129136, 21.98423408], [86.62120516, 21.98423817], [86.62108137, 21.98423817], [86.62104051, 21.98418937], [86.62100566, 21.98383557], [86.62054544, 21.98385392], [86.62023186, 21.98415204], [86.62014416, 21.98439966], [86.6201212, 21.98474566], [86.62021357, 21.98473542], [86.62021654, 21.98473537], [86.62032056, 21.98476219], [86.62031801, 21.98481131], [86.62031811, 21.98482295], [86.62031521, 21.9848347], [86.62017963, 21.9848461], [86.62007503, 21.98479847], [86.62002569, 21.98507049], [86.61999748, 21.98513053], [86.62002689, 21.98544209], [86.62006473, 21.98544779], [86.62013408, 21.98544121], [86.62017674, 21.98550517], [86.62003218, 21.98553691], [86.62006737, 21.9857424], [86.6203814, 21.98564315], [86.62038572, 21.98564316], [86.62056505, 21.98561895], [86.62057557, 21.98561672], [86.62057968, 21.98561457], [86.62063974, 21.9856435], [86.62062299, 21.98569969], [86.62049473, 21.98572941], [86.62047938, 21.98572937], [86.6203357, 21.98575948], [86.62014688, 21.98582326], [86.62003992, 21.98586771], [86.6198475, 21.9859225], [86.61951477, 21.98591859], [86.6193285, 21.9859335], [86.6185767, 21.9861236], [86.6183152, 21.9852417], [86.6182096, 21.98508], [86.6175536, 21.98520463], [86.61749935, 21.98529746], [86.61759377, 21.98533823], [86.61758643, 21.9854214], [86.61777147, 21.98549805], [86.6178255, 21.98545467], [86.61793105, 21.98548127], [86.61794539, 21.98553872], [86.61789638, 21.985549], [86.61755993, 21.98541202], [86.61750761, 21.9853829], [86.61747031, 21.98534457], [86.61755287, 21.9852058], [86.61693856, 21.98533752], [86.61698321, 21.98543615], [86.61717626, 21.98539897], [86.61734925, 21.98638501], [86.61749939, 21.98635594], [86.61758147, 21.98631259], [86.61767385, 21.98634869], [86.61766059, 21.98656979], [86.61767791, 21.98666045], [86.61772152, 21.98666575], [86.6177242, 21.9866643], [86.61778118, 21.98669095], [86.61786269, 21.98672929], [86.61780112, 21.98690077]], [[86.61950297, 21.98678531], [86.61949688, 21.98672307], [86.61952057, 21.98667166], [86.61958525, 21.98662809], [86.61963883, 21.98666795], [86.61927972, 21.98698535], [86.61950297, 21.98678531]], [[86.617859, 21.98643302], [86.61786222, 21.98643302], [86.61791159, 21.98641568], [86.61799647, 21.98647609], [86.61799161, 21.98652872], [86.61792477, 21.98656141], [86.61781763, 21.98661381], [86.61788066, 21.98657975], [86.61782959, 21.98654683], [86.617859, 21.98643302]], [[86.61813099, 21.98633629], [86.61820291, 21.98632026], [86.61810763, 21.98639651], [86.61801997, 21.98644816], [86.61806931, 21.98635496], [86.6180733, 21.98635142], [86.61813099, 21.98633629]], [[86.62051711, 21.98718782], [86.62055687, 21.98712409], [86.62056066, 21.98712399], [86.62063415, 21.98707715], [86.62067362, 21.98713476], [86.62064884, 21.98719936], [86.62064886, 21.98719946], [86.6205886, 21.98726652], [86.62051571, 21.98724544], [86.62051711, 21.98718782]], [[86.61969309, 21.98695326], [86.61969611, 21.98695326], [86.61975587, 21.98697372], [86.61975891, 21.98697372], [86.61974862, 21.98700817], [86.61960453, 21.98713422], [86.61968515, 21.9870607], [86.61968193, 21.98699779], [86.61969309, 21.98695326]], [[86.61992362, 21.98626604], [86.61998546, 21.98629838], [86.61999884, 21.98634974], [86.61978307, 21.98654046], [86.61993594, 21.9864018], [86.61988308, 21.98632165], [86.61992362, 21.98626604]], [[86.62072279, 21.98595221], [86.62068513, 21.98595096], [86.62065562, 21.98591001], [86.62065047, 21.98591346], [86.62064101, 21.98588764], [86.62068172, 21.98581672], [86.62068374, 21.9858147], [86.62071841, 21.9858065], [86.62074791, 21.9858597], [86.62076797, 21.98592235], [86.62072279, 21.98595221]], [[86.62044972, 21.98616232], [86.62039205, 21.98618691], [86.62037215, 21.98614405], [86.62037009, 21.98609531], [86.62041416, 21.98606738], [86.62055077, 21.98598036], [86.62043372, 21.98605891], [86.6204971, 21.98609203], [86.62044972, 21.98616232]]], [[[86.60401246, 21.98604306], [86.60401095, 21.9861109], [86.60403326, 21.98621646], [86.60400574, 21.98632424], [86.60401869, 21.98641297], [86.60408798, 21.98647193], [86.60410005, 21.98654112], [86.604091, 21.9866121], [86.60412276, 21.98682868], [86.60420467, 21.98678722], [86.60429571, 21.98681872], [86.60433713, 21.98688635], [86.60433683, 21.98696289], [86.60427802, 21.98700003], [86.6041785, 21.98707961], [86.60417226, 21.98717831], [86.60422715, 21.98735325], [86.60437432, 21.98745165], [86.60448383, 21.98748032], [86.60454798, 21.98732123], [86.60448359, 21.98748513], [86.60456787, 21.98755315], [86.6046318, 21.98765254], [86.60457797, 21.98766385], [86.60451116, 21.98773249], [86.60450504, 21.9877712], [86.6045812, 21.98784589], [86.60464678, 21.9878698], [86.60473154, 21.98780639], [86.60477799, 21.98781271], [86.6048492, 21.98791404], [86.6049291, 21.98808798], [86.6048974, 21.98813791], [86.6045346, 21.98831466], [86.60461737, 21.98841162], [86.60465539, 21.98854177], [86.60471007, 21.98861981], [86.60477059, 21.98872135], [86.60479904, 21.98882076], [86.60475067, 21.98891225], [86.60474023, 21.98892318], [86.6046617, 21.98905706], [86.60491636, 21.98979907], [86.60510567, 21.98979212], [86.60515427, 21.98968264], [86.60533604, 21.98966917], [86.60533175, 21.9895762], [86.60533596, 21.98950473], [86.60540413, 21.98947907], [86.60557825, 21.98937819], [86.60570624, 21.98925588], [86.60582594, 21.98920216], [86.605853, 21.98916093], [86.60578901, 21.98906844], [86.60570848, 21.9890231], [86.60570475, 21.98895064], [86.60570542, 21.98888508], [86.60574085, 21.98881016], [86.60570656, 21.9887733], [86.60561594, 21.98877854], [86.60552106, 21.98877854], [86.6054378, 21.98880487], [86.60541531, 21.98882076], [86.60535626, 21.98886351], [86.6053278, 21.9888314], [86.60534456, 21.9887733], [86.6054538, 21.98874203], [86.60557089, 21.98870079], [86.60560707, 21.98861981], [86.60567039, 21.98860982], [86.60585439, 21.98852616], [86.60599553, 21.98852616], [86.60604636, 21.98855054], [86.60607053, 21.98862481], [86.60610865, 21.98879958], [86.6061488, 21.98890136], [86.60622047, 21.98892317], [86.60626659, 21.9888905], [86.60630816, 21.98891771], [86.60630884, 21.98898389], [86.60629453, 21.98909134], [86.60638331, 21.98907415], [86.60644093, 21.98901747], [86.60641923, 21.98892865], [86.6064053, 21.98882607], [86.60636364, 21.98874722], [86.60637248, 21.98865499], [86.60633805, 21.98855054], [86.60633967, 21.9885213], [86.60626707, 21.98854424], [86.60617644, 21.98856526], [86.60612785, 21.9885108], [86.60612371, 21.98845586], [86.60617063, 21.98840904], [86.60623648, 21.98834539], [86.60623927, 21.98822542], [86.60623655, 21.98814265], [86.60619792, 21.98791389], [86.6061887, 21.987799], [86.60612326, 21.98782041], [86.60604403, 21.98786709], [86.60594027, 21.98789071], [86.60590189, 21.98784755], [86.60591553, 21.98779735], [86.60594607, 21.98773633], [86.60601726, 21.98776311], [86.60609198, 21.98778971], [86.6061205, 21.98777448], [86.60613117, 21.98771064], [86.60611715, 21.98765913], [86.60607883, 21.98761571], [86.60608866, 21.98753783], [86.60609904, 21.98747572], [86.60611417, 21.98738513], [86.60613348, 21.9873333], [86.60610288, 21.98711441], [86.60603147, 21.98703351], [86.60598806, 21.98696256], [86.6060227, 21.98687713], [86.60597819, 21.98676648], [86.60590973, 21.98676319], [86.60591367, 21.9866845], [86.60588513, 21.9865569], [86.60588429, 21.98654871], [86.60589387, 21.98636158], [86.6058165, 21.98617069], [86.60581741, 21.98617007], [86.60578866, 21.98610674], [86.60573277, 21.98598632], [86.60564012, 21.98583975], [86.60563294, 21.98583832], [86.60559613, 21.98574266], [86.60556076, 21.98575785], [86.60549774, 21.98574263], [86.6054406, 21.98565247], [86.60543024, 21.98553508], [86.6054512, 21.98544908], [86.60551563, 21.98541142], [86.60550485, 21.98526719], [86.60546216, 21.98526388], [86.60540622, 21.98528044], [86.60536428, 21.98522132], [86.60536444, 21.98522126], [86.60537177, 21.98516965], [86.60548458, 21.98512525], [86.60541497, 21.98469174], [86.60534224, 21.98471065], [86.60532941, 21.98477388], [86.60528605, 21.98480793], [86.60522827, 21.98484651], [86.60513967, 21.98479939], [86.60494848, 21.98478237], [86.60484006, 21.98482711], [86.60466293, 21.984885], [86.60455572, 21.98496918], [86.60452753, 21.9850446], [86.6046067, 21.98508464], [86.60467449, 21.98510019], [86.60462382, 21.98514104], [86.60454469, 21.98515372], [86.60448625, 21.98513787], [86.60455211, 21.98497216], [86.60439447, 21.98499032], [86.60431773, 21.98505888], [86.60428131, 21.9851182], [86.6042794, 21.98512678], [86.60416464, 21.98520957], [86.60419132, 21.98532625], [86.60423697, 21.9853986], [86.60430026, 21.98540675], [86.60433082, 21.98538274], [86.60435643, 21.98529058], [86.6044454, 21.98534739], [86.60447207, 21.98545659], [86.60447163, 21.9854591], [86.60435846, 21.98548986], [86.60435137, 21.98548976], [86.6042531, 21.98553076], [86.60425393, 21.9855781], [86.60432044, 21.9855745], [86.60437265, 21.98562884], [86.60437003, 21.98568748], [86.60440605, 21.98582968], [86.60440272, 21.98593716], [86.60425672, 21.98600454], [86.60426039, 21.98601742], [86.60425594, 21.98600838], [86.60418516, 21.98603118], [86.6041136, 21.98598787], [86.60401246, 21.98604306]], [[86.60579681, 21.98762253], [86.6057194, 21.9876714], [86.60564842, 21.98773248], [86.60558455, 21.98771711], [86.60543616, 21.98777898], [86.60538784, 21.98785782], [86.60536217, 21.9879262], [86.60542618, 21.98798347], [86.60547547, 21.98804163], [86.60538046, 21.98806263], [86.60531317, 21.98798347], [86.60522131, 21.98795472], [86.60511958, 21.98802076], [86.60509908, 21.98803327], [86.60501599, 21.98804164], [86.60504089, 21.98793026], [86.60509627, 21.98791404], [86.60516972, 21.98785384], [86.60525843, 21.98784192], [86.60528776, 21.9877907], [86.60532613, 21.987698], [86.60558079, 21.98771711], [86.60554814, 21.9876375], [86.60561163, 21.9875817], [86.60568161, 21.98756329], [86.60574063, 21.98757801], [86.60594607, 21.98773633], [86.60579681, 21.98762253]], [[86.60508169, 21.98541285], [86.60508247, 21.9854123], [86.60509995, 21.98533747], [86.60514516, 21.98530044], [86.60519355, 21.98528297], [86.60517212, 21.98529101], [86.60520859, 21.98536127], [86.60516832, 21.98543386], [86.60508169, 21.98541285]], [[86.60459909, 21.98575387], [86.6046472, 21.98571987], [86.60466021, 21.9857961], [86.60463541, 21.98582236], [86.60459836, 21.98579936], [86.60459909, 21.98575387]], [[86.60535574, 21.98593015], [86.60501945, 21.986016], [86.60506692, 21.98609539], [86.60506931, 21.98609704], [86.60505452, 21.9861669], [86.60500133, 21.98618086], [86.60495145, 21.98613917], [86.60497519, 21.98602179], [86.60535447, 21.98592977], [86.60527902, 21.98589583], [86.60526214, 21.98586987], [86.60528001, 21.98577152], [86.60542854, 21.98580185], [86.6054269, 21.98583118], [86.60548805, 21.98591319], [86.60544358, 21.98597568], [86.60535574, 21.98593015]], [[86.60500816, 21.98642116], [86.60503346, 21.98636139], [86.60503388, 21.98635793], [86.60510869, 21.9863649], [86.60509077, 21.98642474], [86.60505454, 21.9864605], [86.60500816, 21.98642116]], [[86.60534548, 21.98627234], [86.60531329, 21.98626895], [86.60522382, 21.98620387], [86.60527909, 21.98624208], [86.60529549, 21.9862354], [86.60534779, 21.98621217], [86.60534548, 21.98627234]], [[86.60574458, 21.98635211], [86.60574156, 21.98635505], [86.60562442, 21.98635013], [86.60559925, 21.98630491], [86.60558029, 21.98631547], [86.60553105, 21.9863128], [86.60550053, 21.98623472], [86.60554757, 21.98621179], [86.60559697, 21.98623219], [86.60562887, 21.98627349], [86.60563466, 21.98621944], [86.60569349, 21.98621821], [86.60576956, 21.98620219], [86.60578756, 21.98619011], [86.6057707, 21.986202], [86.60581054, 21.98625541], [86.60580538, 21.98629437], [86.60574458, 21.98635211]], [[86.60561288, 21.98671319], [86.60555066, 21.98671319], [86.60551562, 21.98665265], [86.60556817, 21.98658654], [86.60551954, 21.98660954], [86.60549036, 21.98661614], [86.60544994, 21.98655394], [86.60545484, 21.98648643], [86.60551184, 21.98649281], [86.60557202, 21.986512], [86.60569731, 21.98639817], [86.60562302, 21.98647055], [86.6055682, 21.98658327], [86.60562606, 21.98661614], [86.60561288, 21.98671319]], [[86.60447189, 21.98716526], [86.60456334, 21.98716883], [86.60456315, 21.98716896], [86.60458339, 21.9872311], [86.60454802, 21.98732113], [86.60448833, 21.98730745], [86.60442156, 21.98721782], [86.60445619, 21.98716526], [86.60447189, 21.98716526]], [[86.6047872, 21.98684097], [86.6048303, 21.98681858], [86.60483028, 21.98682383], [86.60486353, 21.98683524], [86.60492258, 21.98685056], [86.60493959, 21.98694772], [86.60502561, 21.98700835], [86.60506847, 21.98698271], [86.60512679, 21.98694298], [86.60515734, 21.98689317], [86.60514216, 21.9868618], [86.60510843, 21.98679985], [86.60510895, 21.98670459], [86.60512746, 21.98670888], [86.60514228, 21.98671745], [86.60520182, 21.98673898], [86.60519879, 21.98683958], [86.60511137, 21.98696584], [86.60518205, 21.98702768], [86.60516485, 21.98705033], [86.60511646, 21.98706333], [86.60507933, 21.98705033], [86.60493361, 21.98694455], [86.60482583, 21.98698911], [86.60482446, 21.98699004], [86.60478635, 21.98695184], [86.6047632, 21.98692221], [86.60477752, 21.98688423], [86.6047872, 21.98684097]], [[86.60472351, 21.98628948], [86.60471195, 21.98627374], [86.60474136, 21.98620832], [86.60475277, 21.98616024], [86.6048016, 21.98614215], [86.60482273, 21.9861444], [86.60483329, 21.9861945], [86.60483096, 21.98668175], [86.60483039, 21.98629747], [86.60476923, 21.98630942], [86.60471975, 21.98629298], [86.60472351, 21.98628948]], [[86.60474889, 21.98645681], [86.60472099, 21.98644486], [86.60467234, 21.98642504], [86.60464103, 21.98636627], [86.60469206, 21.98631876], [86.60465979, 21.98635078], [86.60471118, 21.98637407], [86.60475294, 21.98638578], [86.60474889, 21.98645681]], [[86.60440136, 21.98611343], [86.60435061, 21.98613321], [86.60431354, 21.98612528], [86.60427065, 21.98603824], [86.60436414, 21.98601606], [86.60436764, 21.9860199], [86.60440494, 21.98607027], [86.60440136, 21.98611343]]], [[[86.59431909, 21.99750927], [86.59430127, 21.99756347], [86.59425236, 21.99758684], [86.5942305, 21.99772049], [86.59432072, 21.99770358], [86.59432978, 21.99764484], [86.59439554, 21.99756219], [86.59439432, 21.99757039], [86.59445948, 21.99757861], [86.5945425, 21.99760333], [86.59454269, 21.99770358], [86.59462395, 21.99775451], [86.59471656, 21.99765319], [86.59481262, 21.99769514], [86.59477407, 21.99780599], [86.59483612, 21.99779737], [86.59486937, 21.9978049], [86.59495258, 21.99778031], [86.59501127, 21.9977399], [86.59513952, 21.99775195], [86.59524901, 21.99775074], [86.59525496, 21.99761022], [86.59536649, 21.99759509], [86.59537498, 21.99763428], [86.59536434, 21.99755547], [86.59536204, 21.99755179], [86.59534208, 21.99743363], [86.5953411, 21.99742321], [86.59533552, 21.99734496], [86.59533261, 21.99728571], [86.59531253, 21.99717829], [86.59528603, 21.99709987], [86.59528064, 21.99708808], [86.59526702, 21.99703017], [86.59525984, 21.99701597], [86.59525465, 21.99700467], [86.59524226, 21.99693559], [86.59523154, 21.99686373], [86.5952096, 21.99683268], [86.59521266, 21.99668495], [86.59523789, 21.99672558], [86.59528206, 21.99683524], [86.59526766, 21.99691133], [86.59532064, 21.9970188], [86.5953423, 21.99714775], [86.59537082, 21.997302], [86.59537947, 21.99733836], [86.59538985, 21.99742246], [86.59539621, 21.99746103], [86.59539776, 21.99746103], [86.5954063, 21.99749553], [86.59541403, 21.99756865], [86.59540863, 21.99763841], [86.59541533, 21.99780122], [86.59544918, 21.99779546], [86.59550097, 21.99779721], [86.59568526, 21.99778719], [86.59570618, 21.9977972], [86.59573008, 21.99780246], [86.59572528, 21.99777525], [86.59570852, 21.99773968], [86.59570603, 21.99768777], [86.59571757, 21.99764081], [86.59571613, 21.99759525], [86.59575062, 21.99756195], [86.59571895, 21.99755413], [86.59569545, 21.9975448], [86.59570701, 21.99750956], [86.59569193, 21.99746923], [86.59568416, 21.99742427], [86.59567506, 21.99736415], [86.59566187, 21.99733972], [86.59565965, 21.99730387], [86.59571026, 21.99733569], [86.5957251, 21.99736141], [86.59573933, 21.99747661], [86.59576347, 21.9975005], [86.5958391, 21.99752325], [86.59583715, 21.99761624], [86.59576051, 21.99769459], [86.59580489, 21.99771333], [86.59582212, 21.99772305], [86.5958713, 21.99774261], [86.59590724, 21.99782456], [86.5958767, 21.99793099], [86.59585135, 21.99807749], [86.59584739, 21.99813383], [86.59589353, 21.99814523], [86.59597906, 21.99815669], [86.59604078, 21.99818554], [86.59603811, 21.99826197], [86.59613717, 21.99831007], [86.5961821, 21.99824415], [86.59625799, 21.99829797], [86.59626606, 21.99830401], [86.59629469, 21.99834669], [86.5965012, 21.99842767], [86.59652178, 21.99834668], [86.59652608, 21.99819716], [86.59652305, 21.99813952], [86.59657214, 21.99804974], [86.59655946, 21.99796821], [86.5965404, 21.99783764], [86.5965398, 21.99782747], [86.59658119, 21.99776194], [86.59637449, 21.99764277], [86.59658148, 21.99775775], [86.59658545, 21.99768917], [86.59659887, 21.99762743], [86.59664073, 21.99757636], [86.59676643, 21.99763683], [86.59679713, 21.99768917], [86.59684064, 21.99772304], [86.59690268, 21.99772792], [86.59690383, 21.99726228], [86.59692164, 21.99712167], [86.59687469, 21.99703988], [86.59686334, 21.99696669], [86.5968624, 21.99696664], [86.59692092, 21.99688155], [86.59696253, 21.99634699], [86.59690443, 21.99632419], [86.59668174, 21.99621791], [86.59635202, 21.99648758], [86.59635228, 21.99648681], [86.59667741, 21.99621787], [86.59652962, 21.99616231], [86.59651112, 21.99615634], [86.59650189, 21.99615336], [86.59648628, 21.99614741], [86.59637064, 21.99610918], [86.59636785, 21.99610918], [86.59625557, 21.99609179], [86.59622427, 21.99611794], [86.59624605, 21.99617431], [86.59624251, 21.99624787], [86.59621747, 21.99626984], [86.59613452, 21.99622305], [86.59612824, 21.9961653], [86.59614957, 21.99610627], [86.59613599, 21.99607455], [86.59601898, 21.99606883], [86.5959344, 21.99610337], [86.59586083, 21.99609179], [86.59578236, 21.99608315], [86.59571511, 21.99612087], [86.5956795, 21.99626354], [86.59571495, 21.99611794], [86.59568848, 21.99609179], [86.59568983, 21.99606314], [86.595648, 21.99605179], [86.59542778, 21.99605746], [86.59532546, 21.99606598], [86.59520184, 21.99605746], [86.59508641, 21.99605462], [86.59508386, 21.99607556], [86.59508585, 21.99605771], [86.59488809, 21.99608662], [86.59482809, 21.99612159], [86.59468442, 21.99613691], [86.59468315, 21.996138], [86.5945993, 21.99611574], [86.59448175, 21.99611574], [86.59431397, 21.99614508], [86.59422121, 21.99611236], [86.59421846, 21.99614508], [86.5942402, 21.99632583], [86.59429567, 21.99643198], [86.59429252, 21.9965801], [86.59428819, 21.99680915], [86.59431099, 21.9970739], [86.59440341, 21.99702478], [86.59431231, 21.99707344], [86.59432692, 21.99725279], [86.59432708, 21.99741297], [86.59431909, 21.99750927]], [[86.5957594, 21.99633393], [86.59578689, 21.99639001], [86.59577764, 21.99652458], [86.5957323, 21.99660066], [86.5957262, 21.99660435], [86.59567956, 21.99664166], [86.59568748, 21.99674677], [86.59563185, 21.99682642], [86.59553405, 21.99685132], [86.59550739, 21.99665292], [86.595619, 21.99665051], [86.59563017, 21.99661207], [86.5955868, 21.99655325], [86.59558341, 21.99653887], [86.59557856, 21.99644763], [86.59558118, 21.99642712], [86.59561207, 21.99634372], [86.59562056, 21.99633068], [86.5956795, 21.99626354], [86.5957594, 21.99633393]], [[86.59441196, 21.99697719], [86.5944648, 21.99695845], [86.5945173, 21.9969819], [86.59456426, 21.99697249], [86.59456464, 21.9969445], [86.59456486, 21.99694218], [86.59455951, 21.9968806], [86.5946004, 21.99680123], [86.5946074, 21.99679691], [86.59466582, 21.99678185], [86.59472562, 21.9968099], [86.59474619, 21.99683833], [86.59475878, 21.9968099], [86.594759, 21.99680556], [86.59478441, 21.99673317], [86.59478903, 21.99672691], [86.59484186, 21.99669999], [86.59489114, 21.9967103], [86.59489545, 21.9967103], [86.59491871, 21.99674787], [86.59492292, 21.99676054], [86.59494671, 21.99680339], [86.59493514, 21.99686939], [86.59490121, 21.99688735], [86.59485782, 21.99691003], [86.59482246, 21.9968851], [86.59477664, 21.9968538], [86.59478449, 21.99687835], [86.59476712, 21.99691231], [86.59474478, 21.99694914], [86.59467903, 21.99697484], [86.59460864, 21.99699136], [86.59454466, 21.997008], [86.59453481, 21.99703684], [86.59450944, 21.99707837], [86.59445293, 21.99709819], [86.59440341, 21.99702478], [86.59441196, 21.99697719]], [[86.5964032, 21.99715846], [86.59637276, 21.99720637], [86.5962937, 21.99719548], [86.59629035, 21.99714585], [86.59628713, 21.99711737], [86.59631763, 21.99710433], [86.59636059, 21.99710866], [86.5963645, 21.99711011], [86.596394, 21.99711446], [86.5964162, 21.99709714], [86.59642532, 21.997073], [86.59643411, 21.99703698], [86.59641294, 21.99703698], [86.59638984, 21.99704245], [86.59636337, 21.99703153], [86.59633285, 21.99704245], [86.59633316, 21.99701131], [86.59632793, 21.99697445], [86.59634959, 21.99694754], [86.59637852, 21.99693619], [86.59638883, 21.99693619], [86.59674133, 21.99695943], [86.59641584, 21.99694007], [86.59645333, 21.99700293], [86.59646061, 21.99703091], [86.5964032, 21.99715846]], [[86.59627727, 21.99772457], [86.59621214, 21.99770617], [86.59621585, 21.99765208], [86.59621654, 21.99764814], [86.59624033, 21.99762079], [86.59630179, 21.99760344], [86.59630367, 21.99760344], [86.5963631, 21.99763644], [86.5963416, 21.99764224], [86.59634372, 21.99768193], [86.5963073, 21.99773281], [86.59627727, 21.99772457]], [[86.59634144, 21.99662883], [86.59632318, 21.99657421], [86.59635112, 21.9964903], [86.59638897, 21.99654221], [86.59639805, 21.9966152], [86.5963985, 21.99661997], [86.59634144, 21.99662883]], [[86.59509651, 21.9963942], [86.59505738, 21.99631353], [86.59506566, 21.99623906], [86.59512499, 21.99625861], [86.5951942, 21.99632583], [86.59515931, 21.99640675], [86.59509651, 21.9963942]], [[86.59462467, 21.99628528], [86.59459973, 21.9962656], [86.59458365, 21.99622271], [86.59461166, 21.99619977], [86.5946502, 21.99622824], [86.59465442, 21.99626138], [86.59463073, 21.99628326], [86.59462467, 21.99628528]]], [[[86.59338902, 22.00690252], [86.59349341, 22.00689404], [86.5935175, 22.00675227], [86.59366785, 22.00667907], [86.59364026, 22.00675004], [86.59359547, 22.00684772], [86.59373338, 22.00688574], [86.59378279, 22.00692786], [86.59387331, 22.00692432], [86.5938499, 22.00689272], [86.59381233, 22.00674674], [86.59388639, 22.00666871], [86.59386269, 22.00643648], [86.59388644, 22.00666551], [86.59398569, 22.00669523], [86.59403504, 22.00670333], [86.5940123, 22.00685185], [86.59416041, 22.00697964], [86.59426773, 22.00693663], [86.59428313, 22.00659129], [86.594328, 22.00655766], [86.59440637, 22.00658924], [86.5944124, 22.00664613], [86.59443724, 22.00668601], [86.59439376, 22.00670156], [86.5943656, 22.00667673], [86.59433351, 22.00667365], [86.59428317, 22.00667982], [86.59427891, 22.00671958], [86.59426901, 22.00693598], [86.5943699, 22.00695378], [86.59436174, 22.00702364], [86.59431124, 22.00701668], [86.59426371, 22.00704464], [86.59426594, 22.00708709], [86.59437347, 22.00711213], [86.59442807, 22.00716652], [86.59453054, 22.00709834], [86.59442785, 22.00717018], [86.5944293, 22.00724811], [86.59439423, 22.00728374], [86.59447186, 22.00746304], [86.59460264, 22.00780217], [86.59471729, 22.00803516], [86.59468957, 22.00824567], [86.59483657, 22.00836012], [86.59493434, 22.00832551], [86.59511529, 22.0079067], [86.59520961, 22.00794915], [86.59533292, 22.00797051], [86.59546961, 22.00795982], [86.59563848, 22.00800274], [86.59561341, 22.00784372], [86.59556939, 22.00759975], [86.59552647, 22.00746304], [86.5955058, 22.00704464], [86.59550525, 22.00704396], [86.59592679, 22.00692809], [86.59613214, 22.0069429], [86.59649264, 22.00688837], [86.59662313, 22.00683455], [86.59679473, 22.00675749], [86.5968119, 22.00675749], [86.5968943, 22.00671949], [86.5968046, 22.0064631], [86.59665132, 22.00634945], [86.5965101, 22.00628536], [86.59641768, 22.0062896], [86.59632939, 22.00641025], [86.59629222, 22.00631942], [86.59622324, 22.00622311], [86.59622464, 22.00604491], [86.59628618, 22.00596294], [86.59643417, 22.00589593], [86.59639048, 22.00560813], [86.5963877, 22.00548106], [86.59634351, 22.00547512], [86.59625476, 22.00558358], [86.59623292, 22.00558358], [86.59612715, 22.00567647], [86.59592567, 22.00561429], [86.59566048, 22.00565147], [86.59553564, 22.00567647], [86.59548796, 22.00562664], [86.59540117, 22.00564524], [86.59537511, 22.00557136], [86.59541936, 22.00549297], [86.59534114, 22.00543966], [86.59527155, 22.00543966], [86.5952326, 22.00539873], [86.59526989, 22.00527306], [86.59508275, 22.00534678], [86.59499317, 22.00543378], [86.59494486, 22.00548105], [86.59498816, 22.00558357], [86.59508133, 22.00560812], [86.59509299, 22.00565147], [86.59501464, 22.00569511], [86.59501316, 22.00569218], [86.59493279, 22.00573333], [86.59476568, 22.00573332], [86.59462319, 22.00580401], [86.594561, 22.0058105], [86.59447362, 22.00585625], [86.5943882, 22.00586283], [86.59437632, 22.00579753], [86.59439541, 22.00569532], [86.59445474, 22.00563903], [86.59446154, 22.00554101], [86.59445098, 22.00538712], [86.5944496, 22.00526185], [86.59441915, 22.00525068], [86.59428623, 22.00538712], [86.59422466, 22.00546917], [86.59422691, 22.00555312], [86.59414535, 22.00560196], [86.5940555, 22.00562045], [86.59399982, 22.00562663], [86.59402646, 22.00572061], [86.5939343, 22.0057846], [86.59389036, 22.00577815], [86.5938938, 22.00567646], [86.59390009, 22.00563282], [86.59382314, 22.00563282], [86.59370878, 22.00562663], [86.59360691, 22.0052451], [86.59346863, 22.00523398], [86.59352592, 22.00546917], [86.59351845, 22.00564524], [86.59331048, 22.0057397], [86.59324157, 22.00579753], [86.59318539, 22.00579753], [86.59323775, 22.00588927], [86.5932296, 22.00597647], [86.5931056, 22.00599006], [86.59303648, 22.00599006], [86.59301143, 22.00611455], [86.59290347, 22.0061926], [86.59291722, 22.00630154], [86.59298911, 22.00630154], [86.59305052, 22.00634595], [86.59309614, 22.00637659], [86.59306111, 22.00653637], [86.59308664, 22.00667102], [86.59315076, 22.00675227], [86.59325055, 22.00681324], [86.59327817, 22.00671653], [86.59325292, 22.0068168], [86.59335188, 22.00686026], [86.59338902, 22.00690252]], [[86.59383082, 22.00640175], [86.59386716, 22.00635338], [86.59388623, 22.00633933], [86.59389164, 22.00633654], [86.59392621, 22.00637034], [86.5939148, 22.00642775], [86.59386269, 22.00643648], [86.59383082, 22.00640175]], [[86.59346246, 22.00648452], [86.59349021, 22.00654849], [86.59346527, 22.00660408], [86.59345569, 22.00661069], [86.59338227, 22.00669473], [86.59333088, 22.00670499], [86.59328147, 22.00670499], [86.59332338, 22.00655822], [86.59339989, 22.00650674], [86.59346246, 22.00648452]], [[86.59615721, 22.00641463], [86.59610471, 22.00642341], [86.59610148, 22.00635809], [86.59615556, 22.00629963], [86.5961235, 22.00633656], [86.59619047, 22.00638408], [86.59615721, 22.00641463]], [[86.59536864, 22.00673516], [86.59540888, 22.00676368], [86.5954093, 22.0067627], [86.59542535, 22.00680863], [86.59536788, 22.0068708], [86.59542683, 22.00694677], [86.59532847, 22.00682486], [86.59531898, 22.00675414], [86.59536864, 22.00673516]], [[86.59567983, 22.00633146], [86.59570771, 22.00636974], [86.59570915, 22.00637801], [86.59565754, 22.00640579], [86.59565216, 22.00640579], [86.59560475, 22.00639464], [86.59557446, 22.00638385], [86.59558182, 22.00636699], [86.59563744, 22.00631523], [86.59567983, 22.00633146]], [[86.59479732, 22.00698209], [86.59481835, 22.00702364], [86.59480339, 22.00707997], [86.59473329, 22.00711213], [86.5946763, 22.00706579], [86.59464899, 22.00701954], [86.59468975, 22.00699243], [86.5947352, 22.00693435], [86.59479732, 22.00698209]], [[86.59434453, 22.00627891], [86.59438807, 22.00623697], [86.59444115, 22.00623942], [86.59446147, 22.0062716], [86.59447156, 22.0063226], [86.59446986, 22.00632223], [86.59444609, 22.00637693], [86.59434082, 22.00638217], [86.59434474, 22.0063248], [86.59434658, 22.0062791], [86.59434453, 22.00627891]], [[86.5939396, 22.0061958], [86.59394214, 22.00614158], [86.59395289, 22.00610028], [86.59395597, 22.00609575], [86.59399947, 22.00609124], [86.59403594, 22.00616025], [86.59403974, 22.00622476], [86.59402932, 22.00624932], [86.59397627, 22.00624434], [86.5939696, 22.00624434], [86.5939396, 22.0061958]], [[86.59495622, 22.00648295], [86.59495385, 22.00648295], [86.59491549, 22.00651395], [86.59491071, 22.00651395], [86.59485883, 22.0065282], [86.59481797, 22.00652534], [86.59481558, 22.00652534], [86.59481177, 22.00648575], [86.59482013, 22.00639923], [86.59489068, 22.00641431], [86.59492955, 22.00643874], [86.59495622, 22.00648295]], [[86.59515378, 22.00609575], [86.59511675, 22.0061231], [86.59510816, 22.00612311], [86.5950542, 22.00612081], [86.59502498, 22.00608673], [86.59502959, 22.00602921], [86.59506944, 22.00599476], [86.59511408, 22.00595683], [86.59515241, 22.00596728], [86.59508008, 22.00582439], [86.59517481, 22.0060076], [86.59519101, 22.00605995], [86.59515378, 22.00609575]]], [[[86.59688424, 22.01185544], [86.59688254, 22.01189243], [86.59680879, 22.01193003], [86.59681249, 22.01187016], [86.59680779, 22.01161603], [86.5967493, 22.01160944], [86.59666075, 22.01159136], [86.59656195, 22.01166082], [86.59659103, 22.01176323], [86.59659183, 22.01189882], [86.59661133, 22.01198403], [86.59656095, 22.01205112], [86.59642696, 22.01210402], [86.59635233, 22.01207303], [86.5963969, 22.01198227], [86.59650441, 22.01191959], [86.59645399, 22.01181752], [86.59642014, 22.01175362], [86.59634406, 22.01177489], [86.5962477, 22.01180627], [86.59623674, 22.01188247], [86.59626723, 22.0120294], [86.59620761, 22.01211295], [86.59620229, 22.01219933], [86.59625177, 22.01241111], [86.59631523, 22.01254979], [86.5963363, 22.01245183], [86.59642794, 22.01236468], [86.59648449, 22.01236639], [86.59648625, 22.01244781], [86.59643579, 22.01254565], [86.59631921, 22.01254565], [86.59646233, 22.01283963], [86.59650977, 22.01296441], [86.59655856, 22.01303765], [86.59662091, 22.01313126], [86.59668727, 22.01316171], [86.59678642, 22.01312369], [86.5968978, 22.01311211], [86.5969303, 22.01294218], [86.59692612, 22.01282533], [86.59693532, 22.01276607], [86.59700932, 22.0127821], [86.59701885, 22.0129139], [86.5969796, 22.01297075], [86.5968976, 22.01311815], [86.59705256, 22.01311235], [86.59729117, 22.01302657], [86.59726934, 22.01289971], [86.59761481, 22.01288548], [86.59766772, 22.01289259], [86.59773612, 22.01295355], [86.5978255, 22.01295717], [86.59780582, 22.01284314], [86.59780269, 22.01275989], [86.59785706, 22.01273256], [86.59791103, 22.01270544], [86.59793062, 22.0126154], [86.59789801, 22.01248926], [86.59787957, 22.01239539], [86.59785901, 22.0124176], [86.59787716, 22.01239539], [86.59787559, 22.01232187], [86.59784589, 22.01210248], [86.5978666, 22.01195659], [86.59784652, 22.01190068], [86.59778133, 22.01190068], [86.59777066, 22.01183118], [86.59775994, 22.01173836], [86.59775435, 22.01163443], [86.59767939, 22.01159714], [86.59765569, 22.01150415], [86.59764548, 22.01143295], [86.59768027, 22.01135085], [86.59770675, 22.01130752], [86.59764031, 22.01112854], [86.59754122, 22.01115472], [86.59753047, 22.0111959], [86.59749414, 22.01121671], [86.59744874, 22.01118999], [86.597424, 22.01114306], [86.59723311, 22.01116643], [86.59727306, 22.01125573], [86.59729458, 22.01131368], [86.59735051, 22.01141381], [86.59735947, 22.01147159], [86.59730044, 22.01149435], [86.59724523, 22.01148457], [86.59720261, 22.01136647], [86.59719102, 22.01129832], [86.59718664, 22.01123766], [86.59723334, 22.01116937], [86.59711102, 22.01120567], [86.59702519, 22.01122386], [86.59701382, 22.01131722], [86.5970493, 22.01143488], [86.59704923, 22.01143825], [86.59702581, 22.01153096], [86.59697971, 22.01156362], [86.59698591, 22.01157076], [86.59689147, 22.01161743], [86.59681049, 22.01161931], [86.59681294, 22.01186279], [86.59688424, 22.01185544]], [[86.597106, 22.01186758], [86.59708413, 22.01179159], [86.59709688, 22.01176309], [86.59711439, 22.01171879], [86.59716517, 22.01177731], [86.59718625, 22.01182756], [86.59715667, 22.01187124], [86.597106, 22.01186758]], [[86.59773129, 22.0124461], [86.59775423, 22.01241553], [86.59773105, 22.01236552], [86.5976026, 22.01245381], [86.59754532, 22.01244098], [86.59748351, 22.01242822], [86.59743473, 22.01242567], [86.59739446, 22.01241549], [86.59730262, 22.01255577], [86.59734266, 22.01256794], [86.59738525, 22.01257319], [86.59738003, 22.01261764], [86.59733544, 22.01264494], [86.59729793, 22.01264678], [86.5972678, 22.01264311], [86.59728279, 22.0125855], [86.59739296, 22.012417], [86.59738918, 22.01238539], [86.59739863, 22.01233118], [86.5974662, 22.0123094], [86.59743038, 22.0122198], [86.59745428, 22.01219456], [86.59749522, 22.01218773], [86.59747642, 22.01225003], [86.59749409, 22.01230218], [86.59751607, 22.01231181], [86.59755702, 22.01234828], [86.59758301, 22.01231905], [86.5976025, 22.01229979], [86.59763816, 22.01230219], [86.59766021, 22.01235319], [86.59770365, 22.01231664], [86.59771993, 22.012295], [86.59774778, 22.01227358], [86.5977876, 22.0123239], [86.59779166, 22.01237047], [86.59781923, 22.01239539], [86.59785234, 22.01242481], [86.59780392, 22.0124771], [86.59775606, 22.01248753], [86.59773261, 22.0124771], [86.59773129, 22.0124461]]], [[[86.61839543, 22.02085715], [86.61833855, 22.02085277], [86.61821553, 22.02085277], [86.61806825, 22.02089697], [86.61793417, 22.0209059], [86.61784187, 22.02089252], [86.61765089, 22.02092389], [86.61759059, 22.0210014], [86.61765646, 22.02102463], [86.61763811, 22.02113398], [86.61755476, 22.02117301], [86.61750268, 22.02117301], [86.61749319, 22.02103397], [86.61758819, 22.02101067], [86.6175882, 22.02100255], [86.6176481, 22.02092384], [86.6173685, 22.0209419], [86.61710633, 22.02097669], [86.61704307, 22.02097669], [86.61705225, 22.02103318], [86.61702803, 22.0210509], [86.6169963, 22.0210376], [86.61699831, 22.02098528], [86.61683886, 22.02100691], [86.61683086, 22.02110275], [86.6168063, 22.02120104], [86.61681236, 22.02129427], [86.61680616, 22.02145591], [86.61682345, 22.02148897], [86.6168772, 22.0217947], [86.61690313, 22.02185856], [86.61727998, 22.02174792], [86.61729297, 22.02166011], [86.61729583, 22.02161308], [86.61732078, 22.02155565], [86.61738085, 22.02155281], [86.61741515, 22.0215191], [86.61746082, 22.02155521], [86.61746735, 22.02157558], [86.61743614, 22.02160437], [86.61740017, 22.02159569], [86.61739659, 22.02163353], [86.61739251, 22.02170511], [86.6173986, 22.02172641], [86.61738034, 22.02174792], [86.61733848, 22.02178526], [86.61736078, 22.02186502], [86.61739597, 22.02192168], [86.61745775, 22.02164006], [86.61758179, 22.02149443], [86.61761979, 22.02141825], [86.61769678, 22.02145571], [86.6177098, 22.02153833], [86.61775715, 22.02159814], [86.61779862, 22.02167458], [86.61782243, 22.02171688], [86.61787713, 22.02174141], [86.61789662, 22.02178077], [86.61786448, 22.02187814], [86.61795453, 22.02192167], [86.6180625, 22.02195312], [86.61814903, 22.02183914], [86.6182051, 22.02180714], [86.61823992, 22.02181032], [86.61831574, 22.02184739], [86.61832754, 22.02187196], [86.61835386, 22.02199127], [86.6182173, 22.022135], [86.61799936, 22.02223663], [86.61792572, 22.02221606], [86.61781326, 22.02224351], [86.61762188, 22.02229909], [86.61760262, 22.02229209], [86.61748942, 22.02224352], [86.61768258, 22.02275429], [86.6178437, 22.02271474], [86.61788538, 22.02283468], [86.61812134, 22.02277822], [86.61872055, 22.02263689], [86.61868336, 22.02241296], [86.6187641, 22.02230983], [86.61868895, 22.02230609], [86.61864328, 22.02220241], [86.61869292, 22.02214226], [86.61874259, 22.02214934], [86.61876882, 22.02209861], [86.61880407, 22.02201786], [86.6188519, 22.02179054], [86.61884926, 22.02179033], [86.61905661, 22.02164233], [86.61911452, 22.02160459], [86.61909983, 22.02174542], [86.6191219, 22.02171052], [86.61918929, 22.02166132], [86.6192236, 22.02167729], [86.61923009, 22.0217487], [86.61922762, 22.02176189], [86.61918597, 22.02180856], [86.61913091, 22.02174871], [86.61909991, 22.02174871], [86.61909542, 22.02182204], [86.61908858, 22.02202445], [86.61916193, 22.02204932], [86.61920673, 22.02204282], [86.61928476, 22.02199127], [86.61934007, 22.02201051], [86.61935245, 22.02205437], [86.61934897, 22.02208499], [86.61933643, 22.02214029], [86.61940704, 22.02217716], [86.61958199, 22.02217208], [86.61964278, 22.02219944], [86.61963655, 22.02223224], [86.6196332, 22.02234983], [86.61964981, 22.02234983], [86.61966355, 22.02235252], [86.61967067, 22.02235252], [86.61970582, 22.02235521], [86.61967688, 22.02238502], [86.61967162, 22.02247127], [86.61971854, 22.02267561], [86.61968213, 22.02282656], [86.6197789, 22.0228139], [86.61993855, 22.02278376], [86.61999752, 22.02273874], [86.62000269, 22.02273874], [86.62011506, 22.0227197], [86.62014574, 22.02268209], [86.62017446, 22.02262678], [86.62015099, 22.02240968], [86.62049076, 22.02226291], [86.62067651, 22.02221696], [86.62076912, 22.02208528], [86.62091337, 22.02191886], [86.62096178, 22.02177481], [86.62093906, 22.02175813], [86.62092862, 22.02170072], [86.62095278, 22.02166857], [86.62097349, 22.02166061], [86.6209906, 22.02148352], [86.62092064, 22.02126281], [86.62098759, 22.02113399], [86.62108574, 22.02095128], [86.6210999, 22.02081359], [86.62058689, 22.02103673], [86.62009525, 22.02119263], [86.61971994, 22.02122302], [86.61957728, 22.02122256], [86.61918789, 22.02127132], [86.61898697, 22.02129114], [86.61896412, 22.02140033], [86.61897438, 22.02151759], [86.61894696, 22.0215996], [86.61886825, 22.02163475], [86.61884928, 22.02156482], [86.61876266, 22.02150057], [86.6186682, 22.02145424], [86.61861718, 22.02140444], [86.61860551, 22.02133921], [86.61871841, 22.02131909], [86.61864294, 22.02127923], [86.61864747, 22.02121648], [86.61876284, 22.02125949], [86.61861173, 22.02115496], [86.61854419, 22.02122174], [86.61861203, 22.02115115], [86.6185399, 22.02098296], [86.61843581, 22.02082658], [86.61839543, 22.02085715]], [[86.61806417, 22.02154959], [86.61814945, 22.02144763], [86.61820303, 22.02143957], [86.61824282, 22.02146383], [86.61826587, 22.02147161], [86.61819128, 22.02162722], [86.6181217, 22.02162429], [86.61807807, 22.02160392], [86.61806417, 22.02154959]], [[86.61843973, 22.02118557], [86.61847713, 22.02128805], [86.61844169, 22.0213231], [86.6183398, 22.02131737], [86.61828615, 22.0214293], [86.61834218, 22.02130479], [86.61833026, 22.02125555], [86.61833333, 22.02119712], [86.61843973, 22.02118557]], [[86.61869729, 22.0218963], [86.61866491, 22.02183955], [86.61865074, 22.02178373], [86.61872759, 22.02176269], [86.6188168, 22.02178743], [86.61883287, 22.02178899], [86.61881387, 22.02178743], [86.61877844, 22.02188234], [86.61873379, 22.02192127], [86.61869729, 22.0218963]]], [[[86.61842277, 21.93101897], [86.61880305, 21.93094102], [86.61879121, 21.9309865], [86.61868203, 21.93103914], [86.6184706, 21.93111094], [86.61841251, 21.93118498], [86.61843464, 21.93185124], [86.61868981, 21.93189686], [86.61890548, 21.93183511], [86.61908532, 21.93177913], [86.61919273, 21.93182729], [86.61923852, 21.93189183], [86.61930405, 21.93204962], [86.61947152, 21.93202433], [86.61945176, 21.93192114], [86.61945144, 21.9318203], [86.6194666, 21.93183212], [86.61951497, 21.93182612], [86.61952425, 21.93184732], [86.61959169, 21.93184732], [86.61961676, 21.93185969], [86.61964356, 21.93186385], [86.61967168, 21.93185969], [86.61971363, 21.9318504], [86.61976562, 21.93185658], [86.61979442, 21.93187858], [86.61982441, 21.93192441], [86.61984174, 21.93189999], [86.61989746, 21.93183817], [86.6199529, 21.93178344], [86.62003674, 21.93181251], [86.62005924, 21.93182531], [86.62005812, 21.93187365], [86.62003801, 21.93193615], [86.62000484, 21.93202806], [86.62009676, 21.93202433], [86.62012634, 21.93201647], [86.62014668, 21.93201647], [86.62016068, 21.93203455], [86.62014243, 21.93208105], [86.62011144, 21.93212807], [86.62007615, 21.93218589], [86.62007157, 21.93223884], [86.62004476, 21.93224504], [86.61998339, 21.93226225], [86.61994662, 21.93226383], [86.61997295, 21.93228932], [86.6199758, 21.93228932], [86.62000053, 21.93235959], [86.6199368, 21.93247761], [86.61987178, 21.93248097], [86.6197966, 21.93247761], [86.61974651, 21.93252165], [86.61973801, 21.93258393], [86.61970766, 21.93265498], [86.61964958, 21.93265498], [86.61959746, 21.93262633], [86.61958678, 21.93270591], [86.61960347, 21.93285415], [86.61964567, 21.93286893], [86.61973019, 21.93273319], [86.61975194, 21.93268396], [86.61984482, 21.9327198], [86.6198954, 21.93273929], [86.61990645, 21.93276179], [86.61989305, 21.93282778], [86.61996147, 21.93279024], [86.62009542, 21.93272338], [86.62018857, 21.93266235], [86.62023962, 21.9326064], [86.62031415, 21.9326302], [86.62032409, 21.9325596], [86.62031995, 21.9325519], [86.62040896, 21.93252219], [86.62046807, 21.93266017], [86.62037207, 21.9327094], [86.62041285, 21.93284809], [86.62040466, 21.93290782], [86.62038731, 21.932927], [86.62041023, 21.93296581], [86.62059974, 21.93295941], [86.62069203, 21.93296581], [86.62073551, 21.93290789], [86.62088478, 21.93285283], [86.62090141, 21.9326338], [86.62090235, 21.93263428], [86.62095128, 21.93261351], [86.62108909, 21.93261647], [86.62099874, 21.93227197], [86.62095643, 21.93227678], [86.62093921, 21.93230098], [86.62089816, 21.93229369], [86.62082331, 21.93217121], [86.62083087, 21.93209051], [86.62064358, 21.93148145], [86.62053131, 21.93149097], [86.62049412, 21.93136835], [86.62053836, 21.93134627], [86.62059051, 21.93135571], [86.62039561, 21.93100736], [86.62036747, 21.93103516], [86.62039123, 21.93111174], [86.62031972, 21.93115527], [86.62025434, 21.93121744], [86.62016663, 21.93119359], [86.62012487, 21.93116709], [86.62007344, 21.9311808], [86.61985432, 21.93095396], [86.61977009, 21.93097345], [86.61971003, 21.93088333], [86.61974397, 21.93083905], [86.61969029, 21.9307705], [86.61958991, 21.93082649], [86.61950207, 21.93082023], [86.61943706, 21.9308015], [86.61942993, 21.93073362], [86.61932899, 21.93054874], [86.61923713, 21.93038388], [86.61900668, 21.93023161], [86.61897497, 21.93032327], [86.618875, 21.9303397], [86.61881842, 21.93026907], [86.61883215, 21.93021039], [86.61869183, 21.9301423], [86.61830367, 21.93015269], [86.61820338, 21.93019456], [86.61820984, 21.93025297], [86.61814836, 21.93031781], [86.61825607, 21.93029607], [86.61832188, 21.93032327], [86.61852863, 21.93034519], [86.61862558, 21.93056778], [86.61843027, 21.9305579], [86.61844354, 21.93059755], [86.61869332, 21.93064301], [86.61873714, 21.93070924], [86.61868932, 21.93080146], [86.61841187, 21.93084341], [86.61842277, 21.93101897]], [[86.62069887, 21.93269763], [86.62068203, 21.9328005], [86.62064515, 21.93284219], [86.62060333, 21.93279415], [86.62058802, 21.93273146], [86.62058141, 21.93265522], [86.62058058, 21.93258122], [86.62059916, 21.93252074], [86.62067058, 21.93251506], [86.62076301, 21.93256261], [86.62075061, 21.93255626], [86.62074432, 21.93262833], [86.62069887, 21.93269763]], [[86.6204194, 21.93243354], [86.62036325, 21.93236562], [86.62030283, 21.93233959], [86.62028483, 21.93223849], [86.62031148, 21.9321577], [86.62027203, 21.93209778], [86.62026928, 21.93203206], [86.62018751, 21.93192544], [86.62018352, 21.93188572], [86.62023773, 21.93192073], [86.62030407, 21.9319829], [86.62032472, 21.93203455], [86.62031824, 21.93210808], [86.62036469, 21.93211843], [86.6203716, 21.93212102], [86.6203787, 21.93212102], [86.62040996, 21.93218696], [86.62045385, 21.9322661], [86.62046106, 21.93226888], [86.62048533, 21.93232813], [86.62050307, 21.93238021], [86.62054805, 21.93247285], [86.6205162, 21.93250047], [86.62048778, 21.93250047], [86.62048066, 21.93250168], [86.62049566, 21.93249739], [86.62046631, 21.93246372], [86.6204194, 21.93243354]], [[86.61953277, 21.93146952], [86.61950576, 21.93140619], [86.61948064, 21.93137938], [86.61944994, 21.93137338], [86.6194203, 21.93135673], [86.61937506, 21.93134732], [86.61937796, 21.93131957], [86.61942213, 21.9312803], [86.61943593, 21.93121565], [86.61949418, 21.93119862], [86.61954107, 21.93121405], [86.61954497, 21.93123181], [86.61959521, 21.9312531], [86.61962958, 21.93125333], [86.61968086, 21.9312792], [86.61971199, 21.93133452], [86.61975643, 21.93136859], [86.61980318, 21.93141485], [86.61979955, 21.93147605], [86.61974741, 21.93150251], [86.61966315, 21.93148667], [86.61966361, 21.93148595], [86.61957486, 21.93148392], [86.61953277, 21.93146952]], [[86.62040495, 21.93155833], [86.62042158, 21.93160273], [86.62038944, 21.93165132], [86.6203056, 21.93164083], [86.6202941, 21.93158215], [86.62032259, 21.93150463], [86.62043071, 21.9314995], [86.62037019, 21.93150463], [86.62040662, 21.93153135], [86.62040495, 21.93155833]]], [[[86.62761958, 21.97133867], [86.62760904, 21.97135198], [86.62771778, 21.97139713], [86.62781317, 21.97134267], [86.62790128, 21.97132724], [86.62801896, 21.97135816], [86.6280234, 21.97150012], [86.62809087, 21.97150815], [86.62816049, 21.97150012], [86.62820052, 21.97132724], [86.62823324, 21.97125849], [86.62827838, 21.9711316], [86.62826511, 21.97099423], [86.62811936, 21.97102994], [86.62808343, 21.97095179], [86.62794616, 21.97104431], [86.62779647, 21.97102277], [86.62777061, 21.97087511], [86.62770198, 21.97075272], [86.627739, 21.97056315], [86.62782346, 21.97055221], [86.62782138, 21.97064548], [86.62785906, 21.97070443], [86.62795087, 21.97066443], [86.62795155, 21.97066142], [86.62799219, 21.9707488], [86.62802712, 21.97079674], [86.62806229, 21.97083356], [86.6280574, 21.97087366], [86.62808271, 21.97094866], [86.62813837, 21.97091986], [86.62816604, 21.97089149], [86.62814, 21.97077022], [86.62814459, 21.97070443], [86.62820802, 21.97066566], [86.62824927, 21.97071136], [86.62824192, 21.97078222], [86.62827545, 21.97077261], [86.62830742, 21.9707488], [86.62835215, 21.97077022], [86.6283695, 21.9707931], [86.62841812, 21.97075591], [86.62843321, 21.9706589], [86.62841082, 21.97062553], [86.62841403, 21.97058416], [86.62846486, 21.97053138], [86.62847088, 21.97050027], [86.62849139, 21.97043216], [86.62849556, 21.97036493], [86.62843483, 21.9703934], [86.62839798, 21.97038385], [86.62838733, 21.97035555], [86.62834524, 21.97030948], [86.62835277, 21.97022181], [86.62843116, 21.97019782], [86.62843403, 21.97019782], [86.6285029, 21.97019252], [86.62854594, 21.97024875], [86.62861526, 21.97023255], [86.62866807, 21.97026234], [86.62865211, 21.97032585], [86.62870065, 21.9703682], [86.62870586, 21.970413], [86.6286886, 21.97049987], [86.62881254, 21.97055042], [86.62890546, 21.97058235], [86.62882987, 21.9706634], [86.62877469, 21.97069064], [86.62866532, 21.97068379], [86.62862856, 21.97079431], [86.62857717, 21.9708686], [86.62852251, 21.97093774], [86.62849831, 21.9709806], [86.62845637, 21.97099948], [86.62841926, 21.97099407], [86.62836458, 21.97096456], [86.62833558, 21.97099407], [86.62837244, 21.9710713], [86.62837704, 21.97114881], [86.62825676, 21.97133911], [86.62834133, 21.9713815], [86.62843819, 21.97139713], [86.6284505, 21.97139713], [86.62858291, 21.97143645], [86.62859424, 21.97153231], [86.62865865, 21.97159742], [86.6285639, 21.97176451], [86.62848229, 21.97189406], [86.62840574, 21.97194694], [86.62855282, 21.97208187], [86.62860041, 21.97197361], [86.62866608, 21.97177303], [86.62872452, 21.97165518], [86.62892051, 21.97167183], [86.62889068, 21.97178157], [86.62883777, 21.97195581], [86.62880459, 21.97210017], [86.62879204, 21.97222085], [86.62891284, 21.9722397], [86.62900024, 21.97225862], [86.62900445, 21.97210017], [86.62902229, 21.97192043], [86.62906402, 21.97179869], [86.62912264, 21.971756], [86.62913956, 21.97194694], [86.6291109, 21.97210934], [86.62910808, 21.9722967], [86.62941554, 21.97237378], [86.62951573, 21.97237556], [86.62973534, 21.97241158], [86.62969507, 21.9723081], [86.62959723, 21.97225734], [86.62943311, 21.97209096], [86.62952321, 21.97185047], [86.62957686, 21.97172215], [86.6294744, 21.97171372], [86.62937851, 21.97170531], [86.62938854, 21.97153232], [86.62942448, 21.97142307], [86.62927546, 21.97135817], [86.62912244, 21.97140291], [86.6291542, 21.97145278], [86.62908331, 21.9715147], [86.62900729, 21.97161366], [86.62900433, 21.97160943], [86.62889973, 21.97161862], [86.62894689, 21.97151773], [86.628987, 21.97143925], [86.62906646, 21.97136516], [86.62911451, 21.97126669], [86.62912535, 21.97123087], [86.62904805, 21.97117072], [86.62907672, 21.97109843], [86.6292203, 21.97110768], [86.6292229, 21.97110773], [86.62928047, 21.97104432], [86.6293553, 21.97089589], [86.62936101, 21.97088896], [86.62938327, 21.97083391], [86.62926809, 21.9707796], [86.6291771, 21.97073268], [86.62907321, 21.97080666], [86.62893407, 21.97099424], [86.62885819, 21.97110961], [86.6288288, 21.97122077], [86.62884861, 21.97131187], [86.62874743, 21.97137371], [86.62868602, 21.97137371], [86.62868254, 21.97124336], [86.62877397, 21.97102278], [86.62886218, 21.97090283], [86.62895432, 21.97076614], [86.62904426, 21.97060163], [86.62877163, 21.97032207], [86.62872051, 21.97022244], [86.62857267, 21.97012427], [86.62846634, 21.97003562], [86.6284544, 21.97002982], [86.62807672, 21.96984504], [86.62799882, 21.96998813], [86.62801163, 21.97001232], [86.62800534, 21.9700857], [86.62810282, 21.97013535], [86.62815875, 21.97009875], [86.62819111, 21.96995276], [86.62826124, 21.96997734], [86.62825932, 21.97008321], [86.62825682, 21.97017014], [86.62828444, 21.97031823], [86.6282087, 21.97031283], [86.62818242, 21.97030825], [86.62814291, 21.97027803], [86.62812419, 21.97021043], [86.62800442, 21.9702474], [86.62799988, 21.97024739], [86.62788193, 21.9702473], [86.62787738, 21.9702473], [86.62779722, 21.97019727], [86.62778455, 21.97019312], [86.62794123, 21.97015591], [86.62796491, 21.96998014], [86.62798367, 21.96991219], [86.62800568, 21.96978998], [86.62785822, 21.96964589], [86.62778755, 21.96948842], [86.62767323, 21.96944165], [86.62752709, 21.96936644], [86.62748943, 21.96957066], [86.62747836, 21.96965484], [86.62744766, 21.96969994], [86.62741614, 21.96996808], [86.62742726, 21.97008696], [86.6274612, 21.97016316], [86.62747781, 21.97026188], [86.62749088, 21.97054084], [86.62755668, 21.97055604], [86.62758107, 21.9705128], [86.62765935, 21.97053317], [86.62764362, 21.9705767], [86.62759605, 21.97063973], [86.62758861, 21.97057663], [86.6274799, 21.97054085], [86.6274166, 21.970722], [86.62749078, 21.97096589], [86.62754011, 21.97109501], [86.62747951, 21.97121326], [86.62761958, 21.97133867]], [[86.62794079, 21.97028898], [86.62797485, 21.97029541], [86.62799065, 21.97029541], [86.6280021, 21.97034087], [86.62801167, 21.97034087], [86.62801482, 21.97041058], [86.62795574, 21.97064301], [86.62799154, 21.97048564], [86.62794675, 21.97047527], [86.62789117, 21.97039047], [86.62794079, 21.97028898]], [[86.62771284, 21.97111491], [86.62772181, 21.97111492], [86.62775111, 21.9711182], [86.62775117, 21.97115332], [86.62773855, 21.97120886], [86.62768846, 21.97125173], [86.62764268, 21.97130951], [86.62767149, 21.97126153], [86.62760612, 21.971191], [86.62765655, 21.97113012], [86.62771284, 21.97111491]]], [[[86.62929949, 21.97127368], [86.62950156, 21.97133496], [86.6295146, 21.97156475], [86.62956837, 21.9716635], [86.62962795, 21.9715729], [86.62963967, 21.97144838], [86.62968645, 21.97145568], [86.62975221, 21.97150353], [86.62979664, 21.97153708], [86.62985422, 21.9715184], [86.62981053, 21.97163601], [86.62981006, 21.971746], [86.62975534, 21.97182685], [86.62988822, 21.97181868], [86.62995591, 21.97174753], [86.62994341, 21.97158924], [86.63006627, 21.97155663], [86.63015999, 21.97161386], [86.63009778, 21.97196472], [86.63002732, 21.97206367], [86.62988849, 21.97226813], [86.62983271, 21.9723544], [86.63012729, 21.97243243], [86.63023057, 21.97229672], [86.63032592, 21.97226703], [86.63027522, 21.97224933], [86.63018914, 21.97219611], [86.63017443, 21.97220631], [86.63007922, 21.97218505], [86.63006604, 21.97211695], [86.63013714, 21.97211808], [86.63026699, 21.97216644], [86.6303481, 21.9721951], [86.63037206, 21.97210309], [86.63044644, 21.97200447], [86.63045345, 21.97197363], [86.63047086, 21.97185917], [86.63058405, 21.97170533], [86.63073216, 21.97171375], [86.63087707, 21.97153235], [86.63070282, 21.97150015], [86.63053135, 21.97143647], [86.63025941, 21.9713673], [86.63028273, 21.97142456], [86.63028654, 21.97143227], [86.63029454, 21.97151472], [86.6302812, 21.97158672], [86.63033654, 21.97163772], [86.6304258, 21.97165785], [86.6305308, 21.97172708], [86.63048607, 21.97182637], [86.63044123, 21.9718066], [86.63039873, 21.97171909], [86.63032976, 21.97169481], [86.63021443, 21.9716446], [86.63019336, 21.97156201], [86.63017519, 21.97145479], [86.63017472, 21.97144316], [86.63018106, 21.9714316], [86.63020963, 21.97131063], [86.62999378, 21.97121175], [86.6299745, 21.97124847], [86.6299555, 21.97132688], [86.62994598, 21.97138027], [86.62993041, 21.97154901], [86.62987864, 21.97156106], [86.62991922, 21.97141846], [86.62992125, 21.97122123], [86.62998636, 21.97116056], [86.62976824, 21.97100849], [86.6298027, 21.97126608], [86.62974992, 21.97129656], [86.62966049, 21.97133496], [86.62963604, 21.97133496], [86.62960261, 21.97126608], [86.62966484, 21.97117596], [86.62953439, 21.97122078], [86.62949536, 21.97112427], [86.62957425, 21.97100849], [86.62950196, 21.9709518], [86.62945403, 21.97090284], [86.62941426, 21.97094477], [86.62934005, 21.97109502], [86.62923439, 21.97110799], [86.62932616, 21.97111006], [86.62922632, 21.97126904], [86.62928129, 21.97127368], [86.62929949, 21.97127368]]], [[[86.62288486, 21.98239218], [86.62299657, 21.98230708], [86.62310782, 21.98235264], [86.62314326, 21.98241165], [86.62322689, 21.98236988], [86.62314721, 21.98241165], [86.62305545, 21.98250679], [86.62307175, 21.98256208], [86.62309398, 21.98269704], [86.62322595, 21.98265386], [86.62330919, 21.98271883], [86.62332335, 21.98276282], [86.62336362, 21.98277761], [86.62345519, 21.98269704], [86.62352486, 21.98261828], [86.62365294, 21.98258305], [86.62418038, 21.98228253], [86.62414756, 21.98213002], [86.62420548, 21.98210043], [86.62425334, 21.98220268], [86.62433893, 21.98213705], [86.62443151, 21.98207625], [86.62462046, 21.98205823], [86.62476808, 21.9819989], [86.62481657, 21.98191852], [86.62487008, 21.98192265], [86.62484899, 21.98188566], [86.62484474, 21.98180888], [86.62479082, 21.98177708], [86.62481777, 21.98172215], [86.62486968, 21.9816643], [86.62485137, 21.9816346], [86.6246232, 21.98175879], [86.62459817, 21.9817685], [86.62455634, 21.98179295], [86.62448169, 21.98184504], [86.62440603, 21.98188159], [86.62430989, 21.9819434], [86.62424086, 21.98195173], [86.62424231, 21.98191105], [86.62424388, 21.98186531], [86.62425827, 21.98177315], [86.62434042, 21.98176131], [86.62434916, 21.98166548], [86.6241756, 21.98168796], [86.62412864, 21.98159782], [86.62438446, 21.98141123], [86.62455024, 21.98137607], [86.62467613, 21.98124752], [86.62463745, 21.98121989], [86.62448534, 21.98125634], [86.62442779, 21.98127013], [86.62444001, 21.98117944], [86.62436724, 21.98100237], [86.62437883, 21.9809363], [86.62433345, 21.98091194], [86.62428415, 21.98100372], [86.62413833, 21.98104772], [86.62403145, 21.98103602], [86.62393087, 21.98110502], [86.62367918, 21.98116036], [86.62372231, 21.98123982], [86.62364472, 21.98124841], [86.62390945, 21.98127383], [86.62393305, 21.98124619], [86.62397155, 21.98123647], [86.62398974, 21.98126985], [86.62398973, 21.98126985], [86.62394976, 21.98128385], [86.62362665, 21.98124734], [86.62358515, 21.98121508], [86.62354323, 21.98114892], [86.62360403, 21.98113041], [86.62363588, 21.98115203], [86.62366654, 21.98114892], [86.62356647, 21.9810165], [86.62362915, 21.98092003], [86.62361778, 21.98091598], [86.62351312, 21.98096499], [86.62346007, 21.98098568], [86.62338071, 21.98096087], [86.62326362, 21.98095676], [86.62316584, 21.98094855], [86.62306522, 21.98093221], [86.62307673, 21.9808798], [86.62293312, 21.98086388], [86.62273008, 21.98090789], [86.62261135, 21.98092408], [86.62250477, 21.980994], [86.62246529, 21.9811046], [86.62236465, 21.98112202], [86.62224556, 21.98129324], [86.62224644, 21.98140218], [86.62224384, 21.98149597], [86.62211901, 21.98154784], [86.62198732, 21.98135905], [86.62199548, 21.98152041], [86.62203451, 21.98165411], [86.62209712, 21.98175572], [86.62222357, 21.98190616], [86.62229268, 21.9819176], [86.62233978, 21.98204548], [86.62240635, 21.98214932], [86.62257574, 21.98223041], [86.62268423, 21.98223518], [86.62276246, 21.98206717], [86.62268622, 21.9822361], [86.62282499, 21.98226853], [86.62288486, 21.98239218]], [[86.62274515, 21.98171955], [86.62282413, 21.9817315], [86.62283117, 21.9817315], [86.62287555, 21.98181658], [86.62283087, 21.98191559], [86.62279751, 21.98188317], [86.62272463, 21.98180018], [86.62274515, 21.98171955]], [[86.62336055, 21.98217972], [86.6234056, 21.98227905], [86.62335412, 21.98230318], [86.62330158, 21.98233073], [86.62328381, 21.98225034], [86.62329301, 21.98216579], [86.62336055, 21.98217972]], [[86.62422548, 21.98128184], [86.6242299, 21.98131232], [86.62421844, 21.98133931], [86.62416325, 21.98132255], [86.62416958, 21.98128586], [86.62419789, 21.98126192], [86.62422548, 21.98128184]]], [[[86.62486113, 22.02019385], [86.62487325, 22.02023146], [86.62486547, 22.02029022], [86.62481922, 22.02032514], [86.6247691, 22.02038513], [86.62496816, 22.02038513], [86.62500126, 22.02031114], [86.62503858, 22.02031813], [86.62510444, 22.02031813], [86.62516859, 22.02033567], [86.62569836, 22.02029022], [86.62571142, 22.02022118], [86.62580481, 22.02021846], [86.6258274, 22.02024523], [86.62614357, 22.02022461], [86.62612334, 22.0201474], [86.62609063, 22.01984193], [86.62607741, 22.01959901], [86.62567113, 22.01962335], [86.62567039, 22.01963988], [86.62570342, 22.01966532], [86.62569358, 22.01971362], [86.6256404, 22.01968776], [86.62562372, 22.01964939], [86.62563618, 22.01962409], [86.62607461, 22.01959901], [86.62609594, 22.01957724], [86.62614128, 22.01956796], [86.62616992, 22.01959901], [86.62617732, 22.01965894], [86.62620977, 22.01963672], [86.62628356, 22.01962724], [86.62628527, 22.01958966], [86.62630139, 22.0195403], [86.62628946, 22.0194978], [86.62627055, 22.01943089], [86.626301, 22.01942345], [86.626352, 22.01937248], [86.62639337, 22.01932824], [86.62646248, 22.0193508], [86.62655343, 22.0193508], [86.6265224, 22.01921636], [86.62652375, 22.01914425], [86.62655018, 22.01914612], [86.62661151, 22.01918009], [86.62663495, 22.01910539], [86.62663461, 22.01910451], [86.62666282, 22.01908663], [86.62673595, 22.01908986], [86.62671361, 22.01900829], [86.62669542, 22.01894315], [86.62671947, 22.01889479], [86.62672524, 22.01883516], [86.62671831, 22.01879123], [86.62670294, 22.01878084], [86.62667568, 22.01877395], [86.62665335, 22.01874494], [86.62666821, 22.01871973], [86.62670609, 22.01870146], [86.62673295, 22.01869487], [86.62688274, 22.01865738], [86.62688088, 22.01856364], [86.62678492, 22.01859266], [86.6266734, 22.01858684], [86.62662057, 22.01855211], [86.6266404, 22.01848935], [86.62669221, 22.01845561], [86.62680536, 22.01845561], [86.62688652, 22.01846121], [86.62699648, 22.01844444], [86.6269878, 22.01840013], [86.62698568, 22.01831863], [86.62699169, 22.01823388], [86.62696375, 22.01820785], [86.6269575, 22.018131], [86.62692176, 22.01808578], [86.62685131, 22.01806588], [86.62675941, 22.01802158], [86.62667358, 22.01803628], [86.62659604, 22.01808079], [86.62654022, 22.01809577], [86.62649309, 22.01807581], [86.62649311, 22.01804119], [86.62642565, 22.01803137], [86.62636386, 22.01803137], [86.62628093, 22.01804119], [86.62621064, 22.01810078], [86.6260978, 22.01815131], [86.62603005, 22.01814622], [86.6259851, 22.01814622], [86.6259943, 22.01805598], [86.62597878, 22.01800695], [86.62593115, 22.01802647], [86.62588726, 22.01807777], [86.62588027, 22.01815564], [86.62585626, 22.01816247], [86.62582584, 22.01811484], [86.6258568, 22.01806102], [86.62586382, 22.01800785], [86.62583375, 22.01797821], [86.62584089, 22.01791955], [86.62583959, 22.017883], [86.62582965, 22.01782287], [86.62579622, 22.01776062], [86.62581282, 22.01773883], [86.62579467, 22.0176285], [86.62577612, 22.01757739], [86.62573121, 22.01758038], [86.62563362, 22.01752689], [86.62552698, 22.01749161], [86.62551475, 22.0177852], [86.62553372, 22.01796332], [86.62553781, 22.01807338], [86.62557517, 22.01817404], [86.62555462, 22.0181957], [86.62550798, 22.01823233], [86.62550617, 22.01822866], [86.6255014, 22.01827714], [86.62547592, 22.01826135], [86.62542485, 22.0182898], [86.62533108, 22.01830887], [86.62519794, 22.01835691], [86.62520728, 22.0184091], [86.62522465, 22.01847551], [86.62524248, 22.01854019], [86.62521593, 22.01856578], [86.62515427, 22.01859728], [86.62513463, 22.01865226], [86.62511494, 22.01870503], [86.62507922, 22.01875549], [86.62507551, 22.01880354], [86.62507358, 22.01887053], [86.62510992, 22.01909093], [86.62507778, 22.0191201], [86.62505996, 22.01909093], [86.62504924, 22.01901848], [86.6250528, 22.01896988], [86.62503035, 22.01892302], [86.62500217, 22.01887053], [86.62498643, 22.01882778], [86.62496869, 22.01880959], [86.62493267, 22.01881564], [86.62491901, 22.01892613], [86.62495072, 22.01897302], [86.62494615, 22.01902361], [86.62497338, 22.01909093], [86.62496132, 22.01914103], [86.62493182, 22.01918233], [86.62488249, 22.01920548], [86.62478056, 22.01921211], [86.62469692, 22.01920548], [86.62479517, 22.0196117], [86.62480585, 22.02000716], [86.62481554, 22.02015318], [86.62481431, 22.02021091], [86.62486113, 22.02019385]], [[86.62654325, 22.01901077], [86.62652275, 22.01897932], [86.62652843, 22.01897628], [86.62654404, 22.0189458], [86.62655914, 22.01894748], [86.62656246, 22.01894748], [86.62658886, 22.01897799], [86.62661782, 22.01906116], [86.62659695, 22.01900729], [86.62658451, 22.01901775], [86.62654848, 22.01901251], [86.62654325, 22.01901077]], [[86.62637666, 22.01910356], [86.62635186, 22.01908898], [86.62634413, 22.01906553], [86.62637035, 22.01903706], [86.6264121, 22.01902128], [86.62637205, 22.01903706], [86.62641063, 22.01905837], [86.6263919, 22.01909626], [86.62637666, 22.01910356]], [[86.6255898, 22.01840564], [86.62552826, 22.01843331], [86.62550621, 22.01838367], [86.62555781, 22.01833546], [86.62556296, 22.01834557], [86.62563754, 22.01830256], [86.62563224, 22.01837274], [86.6255898, 22.01840564]]], [[[86.61829355, 22.01977065], [86.61831227, 22.0196931], [86.61839094, 22.0196931], [86.61839881, 22.0196931], [86.61842713, 22.01971877], [86.61837933, 22.01978374], [86.61842295, 22.0197857], [86.61852973, 22.0197857], [86.61847752, 22.01961856], [86.61858415, 22.01954018], [86.61872376, 22.01954017], [86.61885059, 22.01952602], [86.61890998, 22.01956855], [86.61902144, 22.01967616], [86.61914401, 22.01963288], [86.61930307, 22.01966475], [86.61929578, 22.01966956], [86.61940639, 22.01964792], [86.61943423, 22.01969626], [86.6200239, 22.01983672], [86.6199923, 22.01979083], [86.6200186, 22.01973939], [86.62004196, 22.01968587], [86.62002199, 22.0196396], [86.62000406, 22.01957625], [86.62001576, 22.01950583], [86.62005093, 22.01948567], [86.62009661, 22.01952615], [86.62012038, 22.01959418], [86.62008944, 22.019658], [86.62008797, 22.01971406], [86.62007561, 22.01977141], [86.62008185, 22.01979733], [86.62017018, 22.0198301], [86.62024509, 22.01981366], [86.62041767, 22.0198235], [86.6205055, 22.01982021], [86.62057959, 22.0198202], [86.6207151, 22.01978755], [86.6207601, 22.01981036], [86.62070487, 22.0198566], [86.62060359, 22.01989016], [86.62050368, 22.01991391], [86.62046307, 22.01998101], [86.6206334, 22.0200315], [86.62080726, 22.02007477], [86.62091877, 22.02012139], [86.62093317, 22.02006089], [86.62090124, 22.01995921], [86.62087616, 22.01995418], [86.62086481, 22.01987469], [86.62095214, 22.01989439], [86.62100131, 22.0198502], [86.62105833, 22.01976342], [86.62106228, 22.01976342], [86.62113953, 22.01979691], [86.6211053, 22.01985019], [86.621068, 22.01988945], [86.6211237, 22.01992056], [86.62130461, 22.01992992], [86.62136039, 22.01985217], [86.62144, 22.01983568], [86.62151926, 22.01988482], [86.6215117, 22.01999193], [86.62140466, 22.02004332], [86.62135136, 22.02003758], [86.62131345, 22.02006634], [86.62130088, 22.02018766], [86.62135397, 22.02020682], [86.62163085, 22.02016859], [86.6218027, 22.0200445], [86.62196186, 22.02004243], [86.62207832, 22.01998774], [86.62212419, 22.01999226], [86.62210614, 22.01988279], [86.62204419, 22.01992345], [86.62203363, 22.01992309], [86.62201778, 22.01992255], [86.62197143, 22.01990074], [86.62196238, 22.01989468], [86.6219623, 22.01981804], [86.62191776, 22.01977495], [86.62189942, 22.01969542], [86.62190031, 22.01968736], [86.62194169, 22.01964567], [86.62197847, 22.01965454], [86.6220786, 22.01975222], [86.6220785, 22.01955412], [86.62200405, 22.01949079], [86.62167318, 22.01930032], [86.62149732, 22.01921268], [86.62114795, 22.01906141], [86.62105582, 22.01901281], [86.62105901, 22.01901221], [86.62095398, 22.01895337], [86.62089279, 22.01892461], [86.62071681, 22.01876098], [86.62069262, 22.01873307], [86.62066529, 22.01876591], [86.62062623, 22.0188849], [86.62065917, 22.018764], [86.62068863, 22.01872754], [86.62056559, 22.01866664], [86.62031009, 22.01858074], [86.6202033, 22.01861487], [86.6202292, 22.0186972], [86.62027035, 22.01884041], [86.6201579, 22.01889509], [86.62011333, 22.01896496], [86.62010084, 22.01915766], [86.62016615, 22.01919237], [86.62012674, 22.01930179], [86.62012701, 22.01930511], [86.62007593, 22.01938101], [86.61999298, 22.01936539], [86.61999176, 22.01923242], [86.61988155, 22.0192526], [86.61976456, 22.01923747], [86.61967286, 22.01917253], [86.61966532, 22.01908916], [86.61966915, 22.01907463], [86.61973207, 22.01901704], [86.61979724, 22.01909887], [86.61982195, 22.01914782], [86.62003334, 22.01914288], [86.62009643, 22.01915766], [86.62010382, 22.01905273], [86.62010857, 22.01896027], [86.62014983, 22.01889971], [86.62009964, 22.01884809], [86.62009409, 22.01876187], [86.62007508, 22.01866081], [86.62006144, 22.01862768], [86.62012227, 22.01853398], [86.6200287, 22.0185145], [86.61998494, 22.01841325], [86.61990861, 22.01834785], [86.61966629, 22.01824747], [86.61963379, 22.0186381], [86.61966905, 22.01866665], [86.6196942, 22.01875854], [86.61961844, 22.01882054], [86.61953638, 22.0188174], [86.61954067, 22.01871458], [86.61963107, 22.0186381], [86.61966543, 22.01824384], [86.61935099, 22.01815571], [86.61934351, 22.01832402], [86.61941571, 22.01858929], [86.61942801, 22.01858929], [86.61946134, 22.01859366], [86.61946504, 22.01862458], [86.61942571, 22.01862459], [86.61933953, 22.01832214], [86.61926305, 22.01835718], [86.61921659, 22.01833749], [86.61917959, 22.01831148], [86.61904645, 22.01865352], [86.61917703, 22.01831148], [86.61910817, 22.01829139], [86.61904737, 22.01824387], [86.61903355, 22.01819046], [86.61907794, 22.0181116], [86.61897066, 22.0180874], [86.61869998, 22.01803088], [86.61871387, 22.01819793], [86.61876013, 22.01821913], [86.61871218, 22.0182689], [86.61870768, 22.01814731], [86.61869971, 22.01802967], [86.61836259, 22.01798984], [86.61821865, 22.01794906], [86.618128, 22.0178817], [86.61801557, 22.0179146], [86.61801443, 22.01790856], [86.61741349, 22.01797626], [86.61740228, 22.0181139], [86.61750993, 22.01812783], [86.61752536, 22.01818389], [86.61752149, 22.01823337], [86.61735911, 22.01824048], [86.61732205, 22.01852393], [86.61741833, 22.01850907], [86.61752631, 22.0185388], [86.61750466, 22.01867437], [86.61742061, 22.01872788], [86.61730432, 22.01872789], [86.61733276, 22.01944887], [86.61791688, 22.01965454], [86.61807652, 22.01971979], [86.61823918, 22.01976196], [86.61829355, 22.01977065]], [[86.62019367, 22.01925905], [86.62023569, 22.01928199], [86.62020621, 22.01936196], [86.62019018, 22.01942676], [86.62020843, 22.0194894], [86.62014235, 22.01949644], [86.62013239, 22.01945097], [86.62012701, 22.01930521], [86.62013319, 22.01938228], [86.62016947, 22.01936872], [86.62016987, 22.01930179], [86.62019367, 22.01925905]], [[86.61904482, 22.01874206], [86.61902829, 22.01870426], [86.61902683, 22.0187049], [86.61904616, 22.01865428], [86.61912892, 22.0186662], [86.61914584, 22.01872976], [86.619115, 22.01876061], [86.61904482, 22.01874206]], [[86.62174845, 22.01957974], [86.6217669, 22.01964762], [86.62172995, 22.01971655], [86.62172489, 22.01971655], [86.62162655, 22.01973261], [86.62154011, 22.01969316], [86.62155086, 22.01959013], [86.62165993, 22.01953336], [86.6217404, 22.01956422], [86.62174845, 22.01957974]], [[86.62103944, 22.01933942], [86.62100813, 22.01938618], [86.62096723, 22.01938618], [86.62093263, 22.01927791], [86.62094614, 22.01918735], [86.62086188, 22.01918736], [86.62084185, 22.01910368], [86.6209085, 22.01904087], [86.62103402, 22.01901697], [86.62090944, 22.01904567], [86.62095546, 22.01912321], [86.62101985, 22.01922232], [86.62103944, 22.01933942]], [[86.62070887, 22.01917864], [86.62064286, 22.01922246], [86.62068872, 22.01930001], [86.6207321, 22.01931535], [86.62074788, 22.01936345], [86.62080607, 22.01937699], [86.62079697, 22.01946682], [86.62082154, 22.01959034], [86.62082702, 22.01967528], [86.62084787, 22.01978833], [86.62082543, 22.01980428], [86.62078275, 22.01964075], [86.62072507, 22.01954545], [86.62069568, 22.0194324], [86.62069342, 22.01942743], [86.62070173, 22.01934554], [86.62063611, 22.01922233], [86.62061511, 22.01911117], [86.62061518, 22.01910901], [86.62058791, 22.01901969], [86.62060504, 22.01896268], [86.62061076, 22.01894168], [86.62069039, 22.01897208], [86.62066563, 22.01902299], [86.62066379, 22.01910124], [86.62070887, 22.01917864]], [[86.62034277, 22.01890432], [86.62038309, 22.01891823], [86.62039594, 22.01891823], [86.62040284, 22.01900274], [86.62033096, 22.01901701], [86.62030675, 22.01896026], [86.62027215, 22.01884385], [86.62031152, 22.01879035], [86.62035424, 22.01879485], [86.62037223, 22.01883553], [86.62034277, 22.01890432]], [[86.61960706, 22.01935954], [86.61969115, 22.01926775], [86.61973849, 22.01929253], [86.61974839, 22.01937225], [86.61971439, 22.01939355], [86.61941892, 22.01958837], [86.6196534, 22.01943225], [86.61956743, 22.01937476], [86.61962038, 22.01940641], [86.61960706, 22.01935954]], [[86.61955877, 22.01898759], [86.61958011, 22.01898926], [86.61959551, 22.01901478], [86.61956853, 22.01905524], [86.61956185, 22.01907138], [86.61956856, 22.0190538], [86.61953866, 22.01905092], [86.61953974, 22.01901307], [86.61955877, 22.01898759]], [[86.61940224, 22.01935955], [86.61947142, 22.01932169], [86.61947264, 22.0193181], [86.61955063, 22.01936471], [86.6195086, 22.01946703], [86.61942993, 22.01945395], [86.61939044, 22.01942363], [86.61940224, 22.01935955]], [[86.61941529, 22.0189232], [86.61943938, 22.0189039], [86.61946505, 22.01891352], [86.6194689, 22.01900965], [86.61946624, 22.01897572], [86.61941666, 22.01898087], [86.61939187, 22.0189526], [86.61941529, 22.0189232]], [[86.61949816, 22.01899435], [86.61951313, 22.01899943], [86.61950388, 22.01909029], [86.61953902, 22.01911382], [86.61947626, 22.01907592], [86.61945019, 22.01904594], [86.6194689, 22.01900965], [86.61949816, 22.01899435]], [[86.61941188, 22.0191797], [86.61941791, 22.01913733], [86.61950268, 22.0191327], [86.61953215, 22.01914717], [86.61953469, 22.01914068], [86.6194977, 22.01924446], [86.61950482, 22.01922353], [86.61945887, 22.01923681], [86.61943249, 22.01923501], [86.61941188, 22.0191797]], [[86.61867639, 22.01895488], [86.61862794, 22.0189655], [86.61858959, 22.01892337], [86.61859745, 22.01889235], [86.61854821, 22.01890211], [86.61859078, 22.01889235], [86.61878417, 22.01880984], [86.61862232, 22.01887984], [86.61864137, 22.01889748], [86.61868855, 22.01891816], [86.61867639, 22.01895488]], [[86.61840184, 22.01897887], [86.61836301, 22.01892599], [86.6183182, 22.018926], [86.61830151, 22.01889493], [86.61831561, 22.01885426], [86.61837667, 22.0188975], [86.618426, 22.01889493], [86.61846681, 22.01892077], [86.6184677, 22.01892057], [86.618474, 22.01894961], [86.61844304, 22.01899231], [86.61840411, 22.01897887], [86.61840184, 22.01897887]], [[86.61818875, 22.01847205], [86.61811846, 22.01846081], [86.61804676, 22.01808017], [86.61810627, 22.01837253], [86.6181453, 22.01836882], [86.61821477, 22.01839875], [86.61818875, 22.01847205]]]]}, "properties": {"site_id": "FCF_Soova_EMU_Mayurbhanj_3", "name": "FCF_Soova_EMU_Mayurbhanj_3", "n_member_parcels": 11}}]}