{"type": "FeatureCollection", "features": [{"type": "Feature", "geometry": {"type": "MultiPolygon", "coordinates": [[[[86.60542308, 21.87717452], [86.60541646, 21.87746661], [86.60549488, 21.87760014], [86.60553765, 21.87768618], [86.60553034, 21.87768987], [86.6056268, 21.87780897], [86.60570598, 21.87783099], [86.60578973, 21.87783099], [86.60587276, 21.87780896], [86.60590604, 21.87783099], [86.60588935, 21.87788656], [86.60603686, 21.87793155], [86.60609172, 21.87790337], [86.60613538, 21.87792589], [86.60614079, 21.87801144], [86.60627732, 21.87811639], [86.60632383, 21.87804033], [86.60638689, 21.87805195], [86.60638369, 21.8781223], [86.60636156, 21.87819982], [86.60649229, 21.87839038], [86.60673942, 21.87831422], [86.60669686, 21.87813759], [86.60667345, 21.87811619], [86.60664402, 21.87801082], [86.60675751, 21.87789291], [86.60679527, 21.87783274], [86.60679339, 21.87782981], [86.60679968, 21.87783274], [86.60690461, 21.87785027], [86.60693646, 21.87785312], [86.60695685, 21.87786941], [86.60698424, 21.87789679], [86.60698572, 21.87791879], [86.60698459, 21.8779198], [86.60699436, 21.87795054], [86.60703041, 21.87795889], [86.60705412, 21.87794536], [86.60708182, 21.87792894], [86.60711032, 21.87794433], [86.60715766, 21.87798966], [86.60717717, 21.87799938], [86.60719203, 21.87798859], [86.60722439, 21.87797153], [86.60723884, 21.8779843], [86.60725859, 21.87798752], [86.60729926, 21.87799182], [86.60732276, 21.8780081], [86.60732171, 21.8780081], [86.60732677, 21.87803127], [86.60734848, 21.87799722], [86.60738351, 21.87798967], [86.60740176, 21.87796836], [86.60742462, 21.87798324], [86.6074537, 21.87800592], [86.6074452, 21.87805266], [86.60742578, 21.8780779], [86.60738461, 21.87809425], [86.60737105, 21.87812521], [86.60744877, 21.87814467], [86.60751556, 21.87817571], [86.60755735, 21.87817697], [86.60758048, 21.878157], [86.60756474, 21.87812281], [86.60755359, 21.87810488], [86.60755131, 21.87807907], [86.60756528, 21.87805493], [86.6075802, 21.8780324], [86.60755293, 21.87803464], [86.6075238, 21.87800483], [86.60752012, 21.87800048], [86.60751777, 21.87799831], [86.60749864, 21.87795891], [86.60752031, 21.87794332], [86.6075142, 21.87793509], [86.60748153, 21.87790576], [86.60747909, 21.87790177], [86.60748014, 21.87788401], [86.60753449, 21.87786751], [86.6075635, 21.8778704], [86.60755701, 21.87783991], [86.60755646, 21.87783616], [86.60754072, 21.87780753], [86.60751843, 21.8777841], [86.60749507, 21.87778677], [86.60746985, 21.87776467], [86.60745093, 21.87773358], [86.60745759, 21.87769258], [86.60743333, 21.87767158], [86.60739992, 21.87763526], [86.60741129, 21.87767637], [86.6074078, 21.87772683], [86.60736635, 21.87772683], [86.60734662, 21.87771456], [86.6073444, 21.87771234], [86.60732747, 21.87768606], [86.6073593, 21.8776394], [86.60737291, 21.87762803], [86.60739999, 21.87763475], [86.60738213, 21.87761372], [86.60737828, 21.87758767], [86.6075385, 21.87747149], [86.6077186, 21.87763936], [86.60778324, 21.87769693], [86.60782401, 21.87771071], [86.60784936, 21.87773263], [86.60788242, 21.87776717], [86.60789017, 21.87773464], [86.60782934, 21.87765069], [86.60775245, 21.87759678], [86.60773798, 21.87755902], [86.60769376, 21.87751368], [86.60766044, 21.87743385], [86.60762769, 21.87731872], [86.60760881, 21.87722536], [86.60761685, 21.87722582], [86.60780142, 21.87714921], [86.60790335, 21.87717456], [86.60803545, 21.87712193], [86.60821132, 21.87709724], [86.60842135, 21.87706847], [86.6083229, 21.87675361], [86.60820595, 21.87601011], [86.60814521, 21.87580892], [86.60785048, 21.8758422], [86.60770106, 21.87587313], [86.60759996, 21.87594701], [86.60755089, 21.87593876], [86.6073855, 21.87595528], [86.60726127, 21.87595688], [86.60657598, 21.87606328], [86.60645889, 21.8760463], [86.6062784, 21.87570786], [86.60604468, 21.87532402], [86.60600561, 21.8750212], [86.6060133, 21.87495429], [86.60623311, 21.87494271], [86.60622581, 21.87503393], [86.6060965, 21.87505568], [86.60609695, 21.87511645], [86.60622533, 21.87526742], [86.60646227, 21.87530107], [86.60645906, 21.8753963], [86.60659478, 21.87579876], [86.60688146, 21.87595303], [86.60683109, 21.87584248], [86.60688245, 21.8759429], [86.60694926, 21.8759429], [86.60709396, 21.87591264], [86.60704305, 21.87588261], [86.60703007, 21.87576959], [86.60703818, 21.87566921], [86.60705772, 21.87558523], [86.60698199, 21.87557602], [86.60695569, 21.87549407], [86.60696691, 21.87537444], [86.60698197, 21.87530107], [86.60706396, 21.87519996], [86.60706163, 21.87519837], [86.6071313, 21.87513347], [86.60716017, 21.87504226], [86.6071674, 21.87487513], [86.60715524, 21.87456214], [86.60710414, 21.87447916], [86.60713194, 21.87442067], [86.60722021, 21.87439746], [86.60718144, 21.87432271], [86.60707135, 21.87384337], [86.60731857, 21.87373754], [86.60770249, 21.87366112], [86.60778274, 21.87368011], [86.60806126, 21.87361081], [86.60806685, 21.87361081], [86.60810234, 21.8735363], [86.60807568, 21.87340857], [86.60806948, 21.87340257], [86.60795886, 21.87339059], [86.60780395, 21.87342661], [86.60774149, 21.87327827], [86.60765471, 21.87327242], [86.60754808, 21.87313439], [86.60754199, 21.87312307], [86.60743508, 21.87292924], [86.60751205, 21.87283795], [86.60764924, 21.87281673], [86.60865761, 21.87274846], [86.60809905, 21.87162585], [86.60794212, 21.87167169], [86.60786795, 21.87158197], [86.60762636, 21.8712192], [86.60743602, 21.87095688], [86.60743334, 21.87085532], [86.6073753, 21.870875], [86.6066937, 21.87117861], [86.60661309, 21.87119869], [86.60652768, 21.8713211], [86.60649183, 21.87143632], [86.60631941, 21.87147895], [86.60617227, 21.87144694], [86.6059325, 21.87177181], [86.60577904, 21.87190709], [86.60572566, 21.87193891], [86.6058215, 21.87194424], [86.60591798, 21.87184196], [86.60598208, 21.87195372], [86.60600124, 21.87201385], [86.60594528, 21.87201936], [86.6058397, 21.87207372], [86.60575834, 21.87210661], [86.6056281, 21.87213419], [86.60551362, 21.87216191], [86.60549787, 21.87206826], [86.60539368, 21.87218861], [86.60488125, 21.87241113], [86.60487104, 21.87258416], [86.60492277, 21.87258984], [86.60499041, 21.87266624], [86.60496653, 21.87269411], [86.60487531, 21.87274396], [86.60482234, 21.87285363], [86.60474964, 21.8729411], [86.60472501, 21.87311803], [86.60465058, 21.87322174], [86.60442966, 21.8732696], [86.60427314, 21.87322174], [86.60414237, 21.87320586], [86.60395428, 21.87326959], [86.60392171, 21.8733745], [86.60388208, 21.87356426], [86.60393868, 21.87358941], [86.60422502, 21.8735559], [86.60417864, 21.87366543], [86.60410966, 21.87376814], [86.60413415, 21.87391634], [86.60424493, 21.87396055], [86.6043979, 21.87398721], [86.60450584, 21.8740678], [86.60461514, 21.87407681], [86.60476784, 21.87396942], [86.60481381, 21.87382009], [86.60482155, 21.87382009], [86.60499806, 21.87383749], [86.60509104, 21.87383749], [86.60514399, 21.87375093], [86.60520332, 21.87367394], [86.60525748, 21.87366544], [86.60559144, 21.8735366], [86.60569993, 21.873529], [86.60568657, 21.873837], [86.6056679, 21.87417996], [86.60589254, 21.87414467], [86.60624606, 21.87406861], [86.6065399, 21.87397835], [86.60683194, 21.8738119], [86.60702726, 21.87378709], [86.60718745, 21.8733182], [86.60728082, 21.87306323], [86.60733532, 21.87287038], [86.60704772, 21.87288687], [86.60679714, 21.87300652], [86.60670551, 21.87314132], [86.60659164, 21.87316977], [86.60645685, 21.87316764], [86.60633032, 21.87325062], [86.6062347, 21.87336345], [86.6061652, 21.87357342], [86.60616183, 21.87374868], [86.60610248, 21.87381716], [86.60593614, 21.87398015], [86.60586794, 21.87412037], [86.60582589, 21.87410193], [86.60597772, 21.87382525], [86.60599167, 21.87353587], [86.60600543, 21.87340864], [86.60613593, 21.87330564], [86.60631473, 21.87316641], [86.60649077, 21.87307057], [86.60663984, 21.87304374], [86.60686852, 21.87289854], [86.60700296, 21.87284482], [86.60728744, 21.87280415], [86.60719647, 21.87272389], [86.60713016, 21.87255574], [86.60694076, 21.8721708], [86.60675734, 21.8719306], [86.60665488, 21.87174479], [86.60651297, 21.87150297], [86.60655231, 21.87145724], [86.60671467, 21.87178641], [86.60680011, 21.87192291], [86.60691107, 21.87206155], [86.60696709, 21.87216074], [86.60703759, 21.87229538], [86.60710644, 21.87241761], [86.60721357, 21.87268501], [86.60731597, 21.8727536], [86.60742511, 21.87280707], [86.60741068, 21.87287005], [86.60721504, 21.87328413], [86.6071354, 21.87365384], [86.60704635, 21.87385801], [86.60645115, 21.87401071], [86.60627262, 21.87411446], [86.60608355, 21.87415694], [86.60582926, 21.87420001], [86.60564564, 21.87427436], [86.60563043, 21.87441874], [86.60551866, 21.87608721], [86.60542335, 21.87717497], [86.60542308, 21.87717452]], [[86.60602931, 21.87210191], [86.60609056, 21.87225156], [86.60617313, 21.87224764], [86.60622056, 21.87238377], [86.60617787, 21.87242467], [86.60610767, 21.8723139], [86.60600324, 21.87211345], [86.60600696, 21.8720318], [86.60602931, 21.87210191]], [[86.60694146, 21.87511669], [86.60701566, 21.87506545], [86.60706124, 21.8751], [86.60705996, 21.87519724], [86.60694146, 21.87511669]], [[86.6067399, 21.87575509], [86.60680017, 21.87572146], [86.60684659, 21.87577444], [86.60681623, 21.87581342], [86.60681782, 21.87581654], [86.6067399, 21.87575509]], [[86.60736735, 21.87725569], [86.6072831, 21.87723434], [86.6071544, 21.8773031], [86.60718897, 21.87736432], [86.60716383, 21.87740867], [86.60708121, 21.87736874], [86.60712251, 21.87731614], [86.60727493, 21.87723434], [86.60723621, 21.87717522], [86.60725614, 21.87713356], [86.60725973, 21.87712942], [86.60731686, 21.87710057], [86.60738658, 21.8771129], [86.6073949, 21.87721311], [86.60739881, 21.87721334], [86.60736735, 21.87725569]], [[86.60662742, 21.87775191], [86.60654494, 21.87746861], [86.60663023, 21.87775127], [86.60662742, 21.87775191]], [[86.60558074, 21.87765268], [86.60558545, 21.87755341], [86.60563926, 21.87751744], [86.60568438, 21.87754825], [86.60573379, 21.87754567], [86.60568893, 21.87755341], [86.60567617, 21.87763158], [86.60563531, 21.87763685], [86.60555114, 21.87767937], [86.60558074, 21.87765268]], [[86.60577631, 21.8774364], [86.60584617, 21.87740145], [86.60585058, 21.87740145], [86.60591317, 21.87742138], [86.60590199, 21.87747671], [86.60583664, 21.87752768], [86.60578279, 21.8775372], [86.60577631, 21.8774364]], [[86.60549575, 21.87719333], [86.60554381, 21.8770864], [86.60554805, 21.8770864], [86.6055947, 21.87705898], [86.6056115, 21.87700026], [86.60559892, 21.87692043], [86.60564832, 21.87686382], [86.60573675, 21.87689329], [86.60573533, 21.87689419], [86.6057494, 21.87697791], [86.605713, 21.87705898], [86.60566698, 21.87710939], [86.60572241, 21.87711862], [86.60577532, 21.87719803], [86.60568989, 21.8772503], [86.6056426, 21.87731299], [86.6056563, 21.87739649], [86.60558571, 21.87739649], [86.60558129, 21.87739649], [86.60555515, 21.87733737], [86.60553789, 21.87730328], [86.60549013, 21.87728877], [86.60542621, 21.87717984], [86.60549575, 21.87719333]], [[86.60595572, 21.87675288], [86.60601714, 21.87670981], [86.60596808, 21.87664565], [86.60602446, 21.87654527], [86.60605624, 21.87654923], [86.60608903, 21.87662535], [86.60606883, 21.87668249], [86.60588033, 21.87680214], [86.60595572, 21.87675288]]], [[[86.59620551, 21.87364568], [86.59620476, 21.87364588], [86.59616223, 21.87367718], [86.59609254, 21.87363434], [86.59599523, 21.87368504], [86.59594543, 21.87372645], [86.59578429, 21.87365671], [86.59583877, 21.87368774], [86.59587419, 21.87371884], [86.59575275, 21.87373526], [86.59577565, 21.87379785], [86.59583575, 21.87385894], [86.59590212, 21.87387987], [86.5959328, 21.87390073], [86.5959552, 21.87395455], [86.59590686, 21.87400102], [86.59597852, 21.87413291], [86.59603008, 21.87409236], [86.5960784, 21.87402809], [86.59612661, 21.87405638], [86.59610103, 21.87412441], [86.59604818, 21.87418195], [86.59609547, 21.87428728], [86.59625964, 21.87406313], [86.5962356, 21.87402292], [86.59622957, 21.87398945], [86.59629174, 21.8739561], [86.59629224, 21.87395393], [86.59632932, 21.87398643], [86.59631218, 21.8740412], [86.59627176, 21.87404993], [86.5960997, 21.87428765], [86.59612494, 21.87441154], [86.59613714, 21.8744137], [86.59625892, 21.87435415], [86.59630105, 21.87428643], [86.5963321, 21.87421736], [86.59638829, 21.87416029], [86.59645313, 21.87411963], [86.59648076, 21.87417343], [86.59655969, 21.87420387], [86.59658838, 21.87423681], [86.59661397, 21.87425055], [86.59669354, 21.87422724], [86.5966834, 21.8741665], [86.5966952, 21.87422739], [86.5967375, 21.87424464], [86.59679361, 21.87428178], [86.59701634, 21.87442176], [86.59701562, 21.87435858], [86.59699618, 21.87430206], [86.59702497, 21.87427901], [86.59707031, 21.87431837], [86.59711294, 21.87438748], [86.59713872, 21.87448196], [86.59711401, 21.87454012], [86.59703265, 21.87459057], [86.59699646, 21.8746105], [86.59711211, 21.87454012], [86.59706511, 21.87451795], [86.59701671, 21.87442423], [86.59679325, 21.8742836], [86.59675287, 21.8743087], [86.59669605, 21.87430056], [86.59664733, 21.87432303], [86.59665515, 21.87438579], [86.5967083, 21.87453202], [86.59667161, 21.87458819], [86.59661725, 21.87456458], [86.59664645, 21.87443982], [86.59659826, 21.87443106], [86.5965663, 21.8743773], [86.59652548, 21.87436463], [86.5965081, 21.87429651], [86.59654624, 21.87424858], [86.596458, 21.8741943], [86.59640609, 21.87420579], [86.59634944, 21.87426442], [86.59634707, 21.8742684], [86.59632239, 21.87433542], [86.59629779, 21.87437519], [86.59622485, 21.8744137], [86.59614063, 21.87446689], [86.59645058, 21.87478654], [86.59654535, 21.87481461], [86.59660222, 21.87484066], [86.59663592, 21.87492951], [86.59679723, 21.87526314], [86.59699993, 21.875495], [86.59712446, 21.87546315], [86.59714836, 21.87540171], [86.597189, 21.87536131], [86.59722842, 21.87537515], [86.59723716, 21.87537515], [86.59726318, 21.87540171], [86.59731706, 21.87540348], [86.59726143, 21.87540329], [86.59726281, 21.87543855], [86.59718198, 21.87548485], [86.5971256, 21.87546481], [86.5969975, 21.87549839], [86.59739348, 21.87597364], [86.59742866, 21.87596545], [86.59743046, 21.87596445], [86.59749321, 21.87595238], [86.59755062, 21.87599744], [86.59756191, 21.87607143], [86.59753216, 21.8761346], [86.59785493, 21.87664271], [86.59822507, 21.87654747], [86.59821392, 21.87649763], [86.59820141, 21.87647963], [86.59820719, 21.87643418], [86.59820785, 21.87643736], [86.59824317, 21.87642013], [86.59828687, 21.87639135], [86.59832718, 21.8764133], [86.59834635, 21.87643044], [86.59834974, 21.87650126], [86.5983143, 21.87652694], [86.597858, 21.87664472], [86.5979313, 21.87680963], [86.59799945, 21.87677633], [86.59808243, 21.87688699], [86.59823146, 21.87702165], [86.59829117, 21.87703695], [86.59829518, 21.87703695], [86.59833334, 21.87716707], [86.59839444, 21.87719903], [86.59843551, 21.87717237], [86.59844759, 21.87701149], [86.59859141, 21.87697123], [86.59856855, 21.87690359], [86.5985876, 21.87682302], [86.59861426, 21.87680935], [86.59865208, 21.8768113], [86.59866924, 21.8768668], [86.59868198, 21.87691396], [86.59865197, 21.87695404], [86.59852636, 21.87699079], [86.59861225, 21.87710642], [86.59883169, 21.87709237], [86.59891723, 21.87702617], [86.59899878, 21.87705551], [86.59904579, 21.87706007], [86.59908181, 21.87704642], [86.59911309, 21.87702616], [86.59915489, 21.87695567], [86.59915512, 21.87696259], [86.5992134, 21.8769777], [86.59924214, 21.87699955], [86.59926833, 21.87697987], [86.59931311, 21.87696612], [86.59972294, 21.87694722], [86.59971226, 21.87680959], [86.59976626, 21.87669218], [86.59966961, 21.87652575], [86.59952988, 21.87630148], [86.59959285, 21.87621688], [86.59958235, 21.87606952], [86.59953795, 21.87592548], [86.5994211, 21.87583326], [86.59934329, 21.87570025], [86.59933325, 21.87561819], [86.59938506, 21.87549487], [86.59944328, 21.87546655], [86.5994569, 21.87544769], [86.59949365, 21.87545083], [86.59950884, 21.87545083], [86.59954735, 21.8754103], [86.59955063, 21.87529465], [86.59950977, 21.87527082], [86.59946498, 21.87520039], [86.59941133, 21.8752237], [86.5993328, 21.87527677], [86.59927534, 21.87525603], [86.59927239, 21.87525603], [86.59925932, 21.87518303], [86.59929303, 21.87511733], [86.5993364, 21.87507801], [86.59956037, 21.87492953], [86.59942514, 21.87481681], [86.59910294, 21.8748882], [86.59907549, 21.87477651], [86.59887075, 21.87459002], [86.59869462, 21.87457084], [86.5984929, 21.87455175], [86.59846155, 21.87453474], [86.59844023, 21.87450469], [86.59842501, 21.87442703], [86.59841958, 21.8744165], [86.5983858, 21.87436444], [86.59838332, 21.87436187], [86.5983736, 21.87435416], [86.59833515, 21.87432607], [86.59832571, 21.874321], [86.59828426, 21.87426832], [86.59829307, 21.87421912], [86.59817723, 21.87401278], [86.59813042, 21.87396947], [86.59808574, 21.87396233], [86.59805781, 21.87392465], [86.59805703, 21.87391998], [86.5980754, 21.87386021], [86.59802319, 21.87379982], [86.59796088, 21.87377134], [86.59790958, 21.87371761], [86.59785129, 21.87370702], [86.5978313, 21.87365489], [86.5978373, 21.87361995], [86.5977784, 21.87360043], [86.59771399, 21.87359488], [86.5976873, 21.87353188], [86.59754716, 21.87337938], [86.59742797, 21.8732548], [86.59737055, 21.87316173], [86.59731211, 21.87292835], [86.59719592, 21.87285761], [86.59707489, 21.87291448], [86.59718565, 21.87285284], [86.59699071, 21.87258308], [86.59696098, 21.87247109], [86.59682295, 21.87241167], [86.59669993, 21.87230153], [86.59664303, 21.87237985], [86.59648774, 21.87241757], [86.59644094, 21.87237985], [86.59636252, 21.87231658], [86.59623507, 21.87232181], [86.5961985, 21.87243355], [86.59604661, 21.87237986], [86.59597889, 21.87226994], [86.59589652, 21.87226995], [86.5957845, 21.87221891], [86.59579512, 21.87208031], [86.59556799, 21.87206582], [86.5955152, 21.8720741], [86.59545106, 21.87221506], [86.59539408, 21.8722145], [86.59532142, 21.87215908], [86.59528284, 21.87208826], [86.59504865, 21.87210226], [86.59487944, 21.87220882], [86.59489146, 21.87240124], [86.594937, 21.87257452], [86.59503508, 21.87279746], [86.59511928, 21.87286378], [86.59518101, 21.87279746], [86.59522254, 21.87271945], [86.59524386, 21.87270021], [86.595345, 21.87266805], [86.595428, 21.87264453], [86.5954647, 21.87259224], [86.59549521, 21.8725607], [86.59554121, 21.87256356], [86.59554701, 21.87256356], [86.59559031, 21.87258936], [86.59559287, 21.87259224], [86.59557236, 21.8726651], [86.5955147, 21.87270067], [86.59556098, 21.87271603], [86.59562991, 21.87276352], [86.59572062, 21.87263449], [86.59585772, 21.87257743], [86.59585173, 21.87268084], [86.59572604, 21.8727815], [86.59560086, 21.87294771], [86.59563544, 21.87302421], [86.59574969, 21.87312117], [86.59576522, 21.8731754], [86.5957202, 21.87323417], [86.59567345, 21.8732441], [86.59563033, 21.87320135], [86.59563719, 21.87314973], [86.59558854, 21.87310239], [86.59543672, 21.87320258], [86.59541589, 21.87330561], [86.59554316, 21.8734116], [86.59561145, 21.87345875], [86.59577925, 21.8735952], [86.59578457, 21.87364984], [86.59587587, 21.87358459], [86.59593486, 21.87355818], [86.59594837, 21.87355818], [86.5960403, 21.87353203], [86.59612888, 21.87354694], [86.59619564, 21.87350795], [86.59619661, 21.87350584], [86.59623149, 21.87356193], [86.59620551, 21.87364568]], [[86.59771381, 21.87392699], [86.59766984, 21.87394577], [86.59768318, 21.87396233], [86.59773422, 21.87399343], [86.59766751, 21.87404212], [86.59762645, 21.87401521], [86.59762291, 21.87396234], [86.59802319, 21.87379982], [86.59771381, 21.87392699]], [[86.59626585, 21.87326308], [86.59621547, 21.8732432], [86.59623912, 21.87320111], [86.59624487, 21.87319833], [86.5962697, 21.87316794], [86.59633506, 21.87316519], [86.59633986, 21.87323755], [86.59630681, 21.87326879], [86.59625261, 21.8733842], [86.59630706, 21.87326593], [86.59626585, 21.87326308]], [[86.59907361, 21.87677097], [86.59901081, 21.87673173], [86.59901384, 21.87665108], [86.59906257, 21.87661835], [86.59911397, 21.87665631], [86.59914668, 21.87670615], [86.59914953, 21.87679278], [86.59914478, 21.8767559], [86.59907361, 21.87677097]], [[86.59810068, 21.87635177], [86.59805189, 21.87632126], [86.59805513, 21.87627147], [86.59808363, 21.87622652], [86.59811515, 21.87622065], [86.59814625, 21.87622358], [86.59818273, 21.87625329], [86.5982792, 21.87626235], [86.59832251, 21.87626386], [86.59832332, 21.87624879], [86.59831537, 21.87619313], [86.59832401, 21.87616622], [86.59835648, 21.8761523], [86.59835794, 21.87615368], [86.59838053, 21.87620319], [86.59839061, 21.87624729], [86.59836199, 21.87627299], [86.59817986, 21.87625329], [86.59817914, 21.87629923], [86.59818912, 21.87634726], [86.5981777, 21.87629768], [86.59810068, 21.87635177]], [[86.59778373, 21.87563119], [86.59783456, 21.87563444], [86.59788944, 21.87568566], [86.59785886, 21.87574055], [86.5978088, 21.8757507], [86.59777249, 21.87577103], [86.5977433, 21.87564749], [86.59778373, 21.87563119]], [[86.59801124, 21.87571029], [86.59808432, 21.87568367], [86.59809979, 21.87570407], [86.59811542, 21.87572643], [86.59810704, 21.87575738], [86.59817651, 21.87578791], [86.59810693, 21.87575903], [86.59809886, 21.87581935], [86.59801337, 21.87581241], [86.59791677, 21.87571116], [86.59795914, 21.8757507], [86.59801124, 21.87571029]], [[86.59832767, 21.87577229], [86.59842107, 21.87575738], [86.59846802, 21.87576643], [86.59852604, 21.87586354], [86.59850596, 21.87583184], [86.59846514, 21.87588497], [86.59841037, 21.87588497], [86.59821954, 21.87580577], [86.59833355, 21.8758511], [86.59832767, 21.87577229]], [[86.59866017, 21.87606679], [86.59865869, 21.87606696], [86.59866757, 21.87610445], [86.59865732, 21.87617065], [86.5986129, 21.87621938], [86.5985683, 21.87623975], [86.59851919, 21.87623067], [86.5984652, 21.87619483], [86.59844178, 21.87612763], [86.5985412, 21.87602303], [86.59862763, 21.87603535], [86.59860321, 21.87599272], [86.59862764, 21.87603362], [86.59866017, 21.87606679]], [[86.59888956, 21.87599597], [86.59890001, 21.87595277], [86.59888423, 21.87593489], [86.59885317, 21.87591884], [86.59882654, 21.87591725], [86.59880222, 21.87592845], [86.59879954, 21.87593651], [86.59879675, 21.87594299], [86.59879693, 21.87594624], [86.59875679, 21.87596758], [86.59877888, 21.87593167], [86.59876029, 21.87589983], [86.59874228, 21.87583086], [86.59877547, 21.87579987], [86.59881202, 21.87578826], [86.59881806, 21.8757897], [86.59885596, 21.87581748], [86.59891368, 21.87586873], [86.59891875, 21.87587335], [86.59893344, 21.87592524], [86.59893552, 21.87593006], [86.59893683, 21.87598756], [86.59891978, 21.87600954], [86.59889345, 21.87604057], [86.59868832, 21.87606363], [86.59888203, 21.87604057], [86.59888956, 21.87599597]], [[86.59663577, 21.87409066], [86.59666347, 21.87405548], [86.59671667, 21.87409314], [86.59671509, 21.87412206], [86.59667947, 21.8741462], [86.59668087, 21.87415345], [86.59663224, 21.87413689], [86.59663577, 21.87409066]], [[86.59625412, 21.87389628], [86.59627295, 21.8738588], [86.59630314, 21.87385647], [86.59630378, 21.87389628], [86.59629801, 21.87392433], [86.59627409, 21.87391287], [86.59625412, 21.87389628]], [[86.5963888, 21.87356165], [86.59639522, 21.87351107], [86.59643808, 21.87347376], [86.59646204, 21.87350794], [86.59646519, 21.87355527], [86.59645808, 21.87357765], [86.59633823, 21.87360993], [86.59640443, 21.87359051], [86.5963888, 21.87356165]], [[86.59702854, 21.8746584], [86.59706373, 21.87465637], [86.59708866, 21.87468081], [86.59709062, 21.87468082], [86.59707439, 21.87470554], [86.59704484, 21.87470347], [86.59699781, 21.8746952], [86.59697596, 21.87469933], [86.59697211, 21.87469727], [86.59693556, 21.87468082], [86.59695748, 21.87463421], [86.59697767, 21.87462193], [86.59700128, 21.87465637], [86.59702854, 21.8746584]], [[86.59767574, 21.87536589], [86.59767162, 21.87534761], [86.59766302, 21.87534459], [86.59763712, 21.87529141], [86.59763442, 21.87528709], [86.59766849, 21.87526425], [86.59767731, 21.87522258], [86.59771697, 21.87521577], [86.59775164, 21.87524323], [86.59775317, 21.8752502], [86.59776086, 21.87528277], [86.59780937, 21.87533406], [86.59780859, 21.87538444], [86.59780398, 21.87541599], [86.59775833, 21.87542721], [86.59771511, 21.87540486], [86.59751862, 21.87540418], [86.59768435, 21.87537978], [86.59767574, 21.87536589]]], [[[86.60055993, 21.88846744], [86.60051226, 21.88848495], [86.60050267, 21.8886808], [86.60057735, 21.88871981], [86.60067086, 21.88875729], [86.60066183, 21.88864642], [86.60067698, 21.88858144], [86.60067947, 21.88857133], [86.60068182, 21.88856527], [86.60071817, 21.88856734], [86.60072245, 21.88856735], [86.60074767, 21.88858356], [86.60076322, 21.88863842], [86.60077888, 21.88869362], [86.60077516, 21.88874714], [86.60072005, 21.88877603], [86.60057065, 21.88872794], [86.60055999, 21.88891352], [86.6005579, 21.88901185], [86.60059918, 21.88910627], [86.6006992, 21.88918778], [86.60080563, 21.88900798], [86.60088742, 21.88897476], [86.60099906, 21.88885711], [86.60095741, 21.88874509], [86.60100436, 21.88864882], [86.60100664, 21.88864068], [86.60108197, 21.88865098], [86.60108842, 21.88865303], [86.60109272, 21.88865507], [86.60109883, 21.88869787], [86.60106784, 21.88876357], [86.60114355, 21.88878481], [86.6012421, 21.88878826], [86.60127792, 21.88873032], [86.60128841, 21.88867517], [86.60122345, 21.88871352], [86.60114972, 21.88862337], [86.60116786, 21.88856194], [86.60123672, 21.88855855], [86.60124358, 21.88855855], [86.60128465, 21.88861993], [86.60130968, 21.88877354], [86.60133819, 21.88877906], [86.60139854, 21.88876893], [86.60146036, 21.88878965], [86.60150948, 21.88867793], [86.60156237, 21.88867714], [86.60158907, 21.88867083], [86.60157197, 21.88859516], [86.60156957, 21.8885951], [86.60151893, 21.88851931], [86.60161409, 21.88846545], [86.60178586, 21.88841093], [86.60185826, 21.88844858], [86.60206573, 21.8885194], [86.60216825, 21.88862102], [86.6023071, 21.88854949], [86.6024546, 21.8884201], [86.60270302, 21.88832026], [86.60273945, 21.88839361], [86.60282033, 21.8884803], [86.60300045, 21.88853866], [86.60311005, 21.88857108], [86.6032095, 21.888708], [86.6034507, 21.88874951], [86.60347699, 21.88866125], [86.60362191, 21.88865817], [86.60363168, 21.88852998], [86.60357065, 21.88848099], [86.60360982, 21.88840669], [86.60368756, 21.8883724], [86.60363207, 21.88852114], [86.60364857, 21.88867169], [86.60372408, 21.88872079], [86.60381954, 21.88885944], [86.6037692, 21.8888515], [86.6040985, 21.8889412], [86.6041584, 21.88890167], [86.60415126, 21.88886223], [86.60414394, 21.88885241], [86.6041995, 21.88880722], [86.60428856, 21.88883177], [86.60427194, 21.88888372], [86.60415469, 21.88896116], [86.60445203, 21.88897997], [86.60454673, 21.88906059], [86.60461144, 21.88903113], [86.60474035, 21.88903088], [86.60475423, 21.88903104], [86.6048652, 21.88905935], [86.6050181, 21.88915871], [86.60503696, 21.88906013], [86.60512056, 21.88908209], [86.60512984, 21.88908651], [86.60520885, 21.88913541], [86.60516234, 21.8892036], [86.60515299, 21.88927171], [86.60523688, 21.88923515], [86.60529299, 21.88930404], [86.6053563, 21.8894198], [86.60563532, 21.8892753], [86.60619252, 21.889118], [86.60633963, 21.88915458], [86.60631782, 21.8890535], [86.60632347, 21.88894359], [86.60609527, 21.88883334], [86.60607179, 21.88881962], [86.60606257, 21.88881965], [86.60579845, 21.88878218], [86.6057986, 21.88861519], [86.60578932, 21.88861055], [86.60565703, 21.88864164], [86.60543721, 21.88863701], [86.60536829, 21.88859641], [86.60517172, 21.8885819], [86.60469514, 21.88856738], [86.6045969, 21.88847483], [86.60459732, 21.88845251], [86.60455579, 21.88828216], [86.60455219, 21.88824221], [86.60455239, 21.88823337], [86.60445007, 21.8881965], [86.60443168, 21.88821386], [86.60443807, 21.88831547], [86.60443764, 21.88833313], [86.60443743, 21.88834197], [86.60440157, 21.88853166], [86.60439677, 21.88854484], [86.60425984, 21.88862927], [86.60412996, 21.88858292], [86.60412087, 21.8885829], [86.60410114, 21.88847295], [86.60421033, 21.8884431], [86.60421926, 21.88844335], [86.60428841, 21.88837013], [86.6042974, 21.88837028], [86.60432283, 21.88826063], [86.60433277, 21.88822563], [86.60424044, 21.8881677], [86.60423151, 21.8881676], [86.60400991, 21.88818985], [86.60406484, 21.88831147], [86.60406883, 21.88832892], [86.60402093, 21.88842473], [86.60401616, 21.88843346], [86.60392444, 21.88846845], [86.60383056, 21.88842483], [86.60388141, 21.88824677], [86.60386333, 21.88810871], [86.60401463, 21.88805132], [86.60425221, 21.88807634], [86.60441779, 21.88806054], [86.60451587, 21.88788789], [86.60453373, 21.88788375], [86.60460344, 21.88795338], [86.60478889, 21.88811138], [86.60498134, 21.8882964], [86.6051763, 21.88835548], [86.60539829, 21.88838275], [86.60566516, 21.88837713], [86.60586399, 21.88832624], [86.60600571, 21.8883459], [86.60626964, 21.88838099], [86.60624256, 21.8885146], [86.60636453, 21.88851715], [86.60657371, 21.88847314], [86.60670454, 21.88859505], [86.60675343, 21.88812356], [86.60647693, 21.88782712], [86.60651238, 21.88755886], [86.60655932, 21.8872471], [86.60656188, 21.88724865], [86.6066032, 21.88699201], [86.60690991, 21.88674755], [86.60710613, 21.88656023], [86.60870509, 21.88654343], [86.60888536, 21.88656026], [86.60883367, 21.88484846], [86.60882612, 21.88458075], [86.60797141, 21.8845676], [86.60797039, 21.88409708], [86.60778427, 21.88403575], [86.60765906, 21.88410941], [86.60757886, 21.88398706], [86.60755499, 21.88385482], [86.60757841, 21.88361034], [86.6072389, 21.88375981], [86.60724154, 21.8837621], [86.60725146, 21.88376671], [86.60728034, 21.88377371], [86.60734325, 21.8838021], [86.60734968, 21.88382772], [86.60733331, 21.88387451], [86.60732725, 21.88388154], [86.60726427, 21.88389028], [86.6072378, 21.88383587], [86.60723748, 21.88383353], [86.60723163, 21.8837575], [86.60756897, 21.88359742], [86.60707205, 21.8835289], [86.60652747, 21.88344973], [86.60620166, 21.88340489], [86.60581071, 21.88354652], [86.60572157, 21.88352488], [86.60518309, 21.88350356], [86.60516225, 21.88390073], [86.60517557, 21.88392232], [86.60519494, 21.88396783], [86.60519621, 21.88402717], [86.60519489, 21.88403468], [86.60516574, 21.88406291], [86.60507559, 21.88404186], [86.60508282, 21.8839731], [86.60498532, 21.8839992], [86.60465131, 21.88397494], [86.60461193, 21.88403816], [86.60463684, 21.8840807], [86.60463883, 21.8840807], [86.60468211, 21.88414069], [86.60465376, 21.88416227], [86.60463764, 21.88416227], [86.60456742, 21.88415063], [86.60451861, 21.88416637], [86.60446494, 21.88419578], [86.60446071, 21.88419977], [86.60434634, 21.88418666], [86.60436556, 21.8842165], [86.604339, 21.88417653], [86.60428438, 21.88426215], [86.60422983, 21.88425896], [86.60422594, 21.88425687], [86.60419364, 21.88423383], [86.60405708, 21.88423846], [86.60402914, 21.88422458], [86.60400705, 21.88426183], [86.60403211, 21.88430708], [86.6040585, 21.88440369], [86.60401113, 21.88440952], [86.60397467, 21.88438557], [86.6039618, 21.88437838], [86.60394908, 21.88437351], [86.6039025, 21.88438861], [86.60383426, 21.88442685], [86.60375838, 21.88437562], [86.60372237, 21.88429841], [86.60368713, 21.88440065], [86.60373177, 21.88475989], [86.60376951, 21.88480156], [86.60378147, 21.88485463], [86.60386319, 21.88490797], [86.60386876, 21.88491346], [86.60389759, 21.88496014], [86.60388765, 21.88498201], [86.60406807, 21.88508724], [86.60412698, 21.88506263], [86.60416841, 21.88510002], [86.60414922, 21.88517726], [86.60409838, 21.88512755], [86.60407765, 21.88510727], [86.60388233, 21.88498471], [86.60384681, 21.88497623], [86.6038022, 21.88492752], [86.60379407, 21.88492488], [86.60373718, 21.88489827], [86.60373012, 21.8848099], [86.60368215, 21.88439832], [86.60365989, 21.88440059], [86.60333486, 21.88453299], [86.60331887, 21.8846056], [86.60336082, 21.88485972], [86.60344712, 21.88481414], [86.60353178, 21.88481919], [86.60352313, 21.88488356], [86.60348239, 21.88492179], [86.603384, 21.88497417], [86.6034719, 21.88506049], [86.60348987, 21.88514329], [86.60344136, 21.88520761], [86.60335035, 21.88516511], [86.60332403, 21.885053], [86.60337552, 21.88498529], [86.60331596, 21.8846132], [86.6031395, 21.88466515], [86.6033112, 21.88460556], [86.60331579, 21.88450832], [86.60327112, 21.88449604], [86.60326092, 21.88449849], [86.60324791, 21.88450584], [86.60324008, 21.88451069], [86.60321535, 21.88446439], [86.60322648, 21.88443748], [86.60315191, 21.88427163], [86.60301422, 21.88424644], [86.60279742, 21.88428426], [86.60263446, 21.88434772], [86.60268168, 21.8844246], [86.6026059, 21.88452835], [86.60245262, 21.88451531], [86.6022738, 21.8845052], [86.60215289, 21.88471345], [86.60197937, 21.88469195], [86.60197903, 21.88469258], [86.60190262, 21.88457535], [86.60187556, 21.88458455], [86.60183042, 21.88457648], [86.60181985, 21.88448375], [86.60173569, 21.88451532], [86.60168973, 21.88460863], [86.60164965, 21.88467177], [86.60153597, 21.88461321], [86.60151363, 21.88473216], [86.60148822, 21.88479779], [86.60143719, 21.88486941], [86.60155236, 21.88491679], [86.60150988, 21.88495297], [86.60150597, 21.88495659], [86.60147454, 21.88493722], [86.60137036, 21.88492748], [86.60127834, 21.8848758], [86.6010738, 21.88486215], [86.6009244, 21.8847831], [86.6006944, 21.8848126], [86.60068248, 21.88508369], [86.60079563, 21.88540962], [86.6008659, 21.88541507], [86.60088988, 21.88548102], [86.60080367, 21.88554242], [86.6008536, 21.88569709], [86.60095004, 21.88572636], [86.600951, 21.88583346], [86.60096925, 21.88597432], [86.60105136, 21.88614743], [86.6010733, 21.88624288], [86.60107483, 21.88624216], [86.60071393, 21.88694054], [86.60101915, 21.88705602], [86.60111579, 21.88694699], [86.60101845, 21.88705858], [86.60080971, 21.88697738], [86.60071771, 21.88694263], [86.60055199, 21.88735438], [86.60052121, 21.88753748], [86.60055222, 21.88758672], [86.60053846, 21.88762517], [86.60055177, 21.88768976], [86.60085644, 21.88765455], [86.6008597, 21.88763123], [86.60089443, 21.88758961], [86.6009653, 21.88765536], [86.60159391, 21.8875119], [86.60096239, 21.88766178], [86.60093948, 21.88771111], [86.60088573, 21.88771907], [86.60087374, 21.88766544], [86.60055138, 21.88769188], [86.60054898, 21.88769491], [86.60052782, 21.88776377], [86.60050201, 21.88782501], [86.60048985, 21.88793892], [86.60047361, 21.88806237], [86.60044524, 21.8881322], [86.60053599, 21.88809152], [86.60058058, 21.88809152], [86.60069034, 21.88815882], [86.60093019, 21.88817716], [86.60086659, 21.88806652], [86.60076922, 21.88801813], [86.60088213, 21.88792664], [86.60098647, 21.88784919], [86.60102435, 21.88771403], [86.60112542, 21.88767808], [86.6012904, 21.88771038], [86.60146045, 21.88780941], [86.60148407, 21.88798666], [86.60157281, 21.88791365], [86.60163952, 21.88795841], [86.60164432, 21.88796404], [86.6016788, 21.88807812], [86.60160549, 21.88810899], [86.60095431, 21.88819597], [86.60063732, 21.88816977], [86.60062107, 21.88820724], [86.6005818, 21.8882205], [86.60053105, 21.88823383], [86.60049931, 21.88828008], [86.6004891, 21.88839332], [86.60051679, 21.88833907], [86.60055128, 21.88833907], [86.60056957, 21.88839942], [86.60073087, 21.88838456], [86.60057122, 21.88840146], [86.60055993, 21.88846744]], [[86.60075997, 21.88835902], [86.60080865, 21.88835302], [86.60081442, 21.88835302], [86.60084059, 21.88836103], [86.60086699, 21.88834503], [86.60087811, 21.88828201], [86.6009142, 21.88825684], [86.60091798, 21.88825684], [86.60096407, 21.8882723], [86.60098914, 21.88832298], [86.60098733, 21.88832319], [86.60096913, 21.88836705], [86.60091386, 21.8884096], [86.60087074, 21.88839128], [86.6008639, 21.888426], [86.60083173, 21.88847999], [86.60075258, 21.88846535], [86.60074389, 21.88838336], [86.60074581, 21.88838318], [86.60075997, 21.88835902]], [[86.60109643, 21.88827423], [86.60109133, 21.88821859], [86.60114053, 21.88820345], [86.60117932, 21.88821859], [86.60118637, 21.88823573], [86.60121831, 21.88823573], [86.60124361, 21.8881753], [86.60124923, 21.88817157], [86.60129931, 21.88817343], [86.60130488, 21.88817343], [86.60134769, 21.88819591], [86.60134606, 21.88823764], [86.60137958, 21.88821289], [86.60143254, 21.8881567], [86.60146779, 21.88816041], [86.60148986, 21.888211], [86.60149733, 21.88826454], [86.60145682, 21.88830349], [86.60140671, 21.88829518], [86.60136783, 21.88827284], [86.60128097, 21.88827921], [86.6012031, 21.88829838], [86.60099731, 21.88832205], [86.60111413, 21.88830546], [86.60109643, 21.88827423]], [[86.60163501, 21.8873911], [86.60159759, 21.88738489], [86.60159365, 21.88738321], [86.60158374, 21.8873837], [86.60154416, 21.88737627], [86.60153837, 21.88736905], [86.60153855, 21.88736155], [86.60157481, 21.88733188], [86.60158272, 21.88732966], [86.60162432, 21.88728773], [86.60166332, 21.88722058], [86.60169199, 21.88726471], [86.60169199, 21.88727011], [86.60169007, 21.88734125], [86.60166047, 21.88741531], [86.60174344, 21.8874367], [86.60182942, 21.88748423], [86.60195629, 21.88735986], [86.60191555, 21.88735842], [86.60190353, 21.8872975], [86.60195987, 21.88727827], [86.60199619, 21.88731126], [86.60213441, 21.88708026], [86.6020945, 21.88706042], [86.60209263, 21.88700609], [86.60215513, 21.88696874], [86.60220147, 21.88698164], [86.6022218, 21.88702722], [86.60213797, 21.88707859], [86.60199458, 21.88731679], [86.60200841, 21.88732237], [86.6020662, 21.88734684], [86.60207056, 21.88735261], [86.60203839, 21.88736409], [86.60195873, 21.88736935], [86.60183361, 21.88749209], [86.60192963, 21.8874966], [86.60193013, 21.88750843], [86.60191981, 21.88756999], [86.60197936, 21.88760236], [86.60201594, 21.88764464], [86.60209196, 21.88761346], [86.60207947, 21.88755236], [86.60216011, 21.88751008], [86.60220796, 21.88748601], [86.60225478, 21.88749056], [86.60224486, 21.88752387], [86.60224407, 21.8876058], [86.60224149, 21.88761711], [86.60218555, 21.88766568], [86.60217146, 21.88767034], [86.60216936, 21.88767034], [86.60210569, 21.88762526], [86.60201237, 21.88765163], [86.6020158, 21.88772192], [86.60198024, 21.88779328], [86.60192068, 21.8877276], [86.60188861, 21.88763594], [86.60182087, 21.88759364], [86.60177293, 21.88755106], [86.60172416, 21.88751904], [86.60164405, 21.8875], [86.60162802, 21.88750381], [86.60163469, 21.88742703], [86.60163501, 21.8873911]], [[86.60115144, 21.88682576], [86.60113673, 21.88679674], [86.6011203, 21.88673739], [86.6011087, 21.8866601], [86.60130253, 21.88667728], [86.60133549, 21.88674502], [86.60134318, 21.88679673], [86.60122111, 21.88682814], [86.60122323, 21.88682576], [86.60115144, 21.88682576]], [[86.60132905, 21.88622539], [86.60137261, 21.88632753], [86.60164342, 21.8862655], [86.60196314, 21.88624828], [86.60195777, 21.88616453], [86.60196039, 21.88616701], [86.60203047, 21.88606541], [86.60209572, 21.8860796], [86.60217672, 21.88604757], [86.60218329, 21.88580923], [86.60211987, 21.88586089], [86.60205636, 21.88582888], [86.60203859, 21.88573705], [86.60215775, 21.88570092], [86.60218364, 21.88580088], [86.60218159, 21.88594428], [86.60229626, 21.88596795], [86.60230006, 21.88603484], [86.60220954, 21.88604742], [86.60219322, 21.88604508], [86.60209835, 21.88608202], [86.60206196, 21.88619175], [86.60196842, 21.8862534], [86.6021644, 21.88627339], [86.60224907, 21.88618317], [86.6022575, 21.88618058], [86.60233462, 21.88621349], [86.60232649, 21.88632821], [86.60232365, 21.88632821], [86.6022035, 21.88635489], [86.60220273, 21.88635548], [86.60217826, 21.88627857], [86.6019693, 21.88625609], [86.60164284, 21.88627069], [86.60136649, 21.88633019], [86.60130917, 21.88634895], [86.60124307, 21.88641673], [86.60123972, 21.88641945], [86.60118533, 21.88640038], [86.60115975, 21.88639778], [86.60114815, 21.88639783], [86.60115132, 21.88631972], [86.60107928, 21.88624006], [86.60119319, 21.88618641], [86.60132905, 21.88622539]], [[86.60218483, 21.8865375], [86.60214617, 21.88655427], [86.60212944, 21.88659943], [86.60217746, 21.88664806], [86.60216375, 21.88669407], [86.60212235, 21.88668826], [86.60211532, 21.88664802], [86.60213688, 21.8865655], [86.60213701, 21.88656269], [86.60208201, 21.88655146], [86.60209046, 21.88644651], [86.60209288, 21.88644461], [86.60220802, 21.88646284], [86.60218483, 21.8865375]], [[86.60221341, 21.88559604], [86.60222695, 21.88560165], [86.6022121, 21.88560154], [86.60221341, 21.88559604]], [[86.60450081, 21.88426283], [86.60454589, 21.88425921], [86.60461508, 21.88429717], [86.60462035, 21.88435464], [86.60462002, 21.88437543], [86.60456423, 21.88435077], [86.60445998, 21.88435862], [86.60442209, 21.8843016], [86.60446651, 21.88425053], [86.60450081, 21.88426283]], [[86.60465878, 21.88447067], [86.60465611, 21.88452504], [86.60478614, 21.88449699], [86.60480023, 21.88443801], [86.60480017, 21.88443371], [86.60485846, 21.88441298], [86.60486055, 21.88441293], [86.60488676, 21.88445508], [86.60486218, 21.88448387], [86.60481362, 21.88448963], [86.60463448, 21.88454293], [86.60459606, 21.88453233], [86.60458786, 21.884668], [86.60459191, 21.88452574], [86.60459715, 21.88447747], [86.60462002, 21.88437544], [86.60461894, 21.88444297], [86.60465878, 21.88447067]], [[86.60468399, 21.88489085], [86.60465889, 21.88490903], [86.60464531, 21.88490428], [86.60464077, 21.88490437], [86.60456798, 21.8849059], [86.60458069, 21.88484568], [86.60458337, 21.88482589], [86.60458371, 21.88481399], [86.60464593, 21.88485173], [86.60468399, 21.88489085]], [[86.60294312, 21.88483348], [86.60289606, 21.88492665], [86.602905, 21.88504834], [86.60294738, 21.88506939], [86.60290654, 21.88505989], [86.60288231, 21.88492942], [86.60283551, 21.88491551], [86.6028123, 21.88484147], [86.60287761, 21.88475604], [86.60297798, 21.88472121], [86.60295982, 21.88477198], [86.60294312, 21.88483348]], [[86.60311919, 21.88512043], [86.60307219, 21.88515587], [86.60297625, 21.88516853], [86.60296509, 21.88516854], [86.60284466, 21.88514785], [86.60283419, 21.88514194], [86.60282307, 21.88514196], [86.60267949, 21.88517977], [86.6026692, 21.88519456], [86.60256425, 21.88522652], [86.60255032, 21.88522632], [86.60248395, 21.88520451], [86.60258634, 21.88513174], [86.60298075, 21.88508597], [86.60301005, 21.88510052], [86.60311919, 21.88512043]], [[86.60192101, 21.88483626], [86.60190379, 21.88492156], [86.60189507, 21.88494451], [86.6019047, 21.88491072], [86.60185208, 21.88484867], [86.60186962, 21.88480327], [86.60195002, 21.88474709], [86.60193223, 21.88478051], [86.60192101, 21.88483626]], [[86.60207005, 21.88511798], [86.60193069, 21.88510034], [86.60186499, 21.8850501], [86.60187085, 21.88502952], [86.60199306, 21.88506365], [86.60207005, 21.88511798]], [[86.60123472, 21.88699748], [86.60130518, 21.88698022], [86.60134447, 21.88696027], [86.60137746, 21.8869688], [86.60139476, 21.88699459], [86.60138341, 21.8870324], [86.60133146, 21.88715967], [86.6012242, 21.88713862], [86.60104789, 21.88707003], [86.60117686, 21.8871162], [86.60123472, 21.88699748]]]]}, "properties": {"site_id": "FCF_Soova_EMU_unknown_barrier_group_2", "name": "FCF_Soova_EMU_unknown_barrier_group_2", "n_member_parcels": 3}}]}