{"type": "FeatureCollection", "features": [{"type": "Feature", "geometry": {"type": "MultiPolygon", "coordinates": [[[[86.72213984, 22.09864944], [86.722158, 22.09871192], [86.72218611, 22.09871339], [86.72273695, 22.09829904], [86.72271924, 22.09824589], [86.72264988, 22.09774517], [86.72259809, 22.09772771], [86.72256855, 22.09766992], [86.72261433, 22.09767299], [86.72264993, 22.09774228], [86.72272947, 22.09825234], [86.72284285, 22.0981856], [86.72304547, 22.09802665], [86.72314316, 22.09792613], [86.72327567, 22.09788936], [86.72342316, 22.09780025], [86.72342528, 22.09767899], [86.72350565, 22.09766991], [86.72357491, 22.09765073], [86.7235538, 22.097588], [86.72359582, 22.09753774], [86.72370247, 22.09756816], [86.72369754, 22.09752108], [86.72372007, 22.09751845], [86.72372943, 22.09742748], [86.72374073, 22.09741934], [86.72380593, 22.09741934], [86.72382127, 22.09741934], [86.72389072, 22.09742749], [86.72403791, 22.09730554], [86.72392594, 22.09729083], [86.72375322, 22.0972109], [86.72376859, 22.09705798], [86.72390814, 22.09695026], [86.72391286, 22.09695015], [86.72396617, 22.09696372], [86.72406106, 22.09689663], [86.72409587, 22.09684409], [86.72420654, 22.09693466], [86.72420761, 22.09689912], [86.72425688, 22.09687965], [86.72438796, 22.09693756], [86.72464318, 22.09666567], [86.7245659, 22.09666685], [86.72436019, 22.0964215], [86.72431112, 22.09647804], [86.72423841, 22.09645358], [86.72421437, 22.09640645], [86.72415016, 22.09629981], [86.72409058, 22.09624309], [86.72418541, 22.09620547], [86.72419184, 22.09620985], [86.72418194, 22.09626412], [86.72424347, 22.09636752], [86.72428338, 22.09633961], [86.72431114, 22.09635028], [86.72454939, 22.09661729], [86.7245994, 22.0966015], [86.72469205, 22.0965906], [86.72471875, 22.09642231], [86.72479739, 22.0964406], [86.72487408, 22.09635748], [86.72486607, 22.09631477], [86.72493156, 22.0963015], [86.72499227, 22.09629027], [86.72551643, 22.09595156], [86.72547355, 22.09590434], [86.72534287, 22.09581598], [86.72537601, 22.09574989], [86.72542162, 22.0958055], [86.72556997, 22.09580612], [86.72562599, 22.09581046], [86.72567573, 22.09584967], [86.72586064, 22.09571252], [86.72575631, 22.0955862], [86.7258565, 22.09556068], [86.72605342, 22.09558048], [86.72588714, 22.09545419], [86.72581662, 22.09507313], [86.72578553, 22.0949347], [86.72590316, 22.09446584], [86.72579863, 22.09436811], [86.72555152, 22.09419938], [86.72557155, 22.09436001], [86.72550577, 22.09444132], [86.72536228, 22.09443316], [86.72527772, 22.09439245], [86.72519346, 22.09432767], [86.72504201, 22.09440871], [86.7247388, 22.0946891], [86.7246921, 22.0948136], [86.7246353, 22.0948934], [86.7245509, 22.0949655], [86.724409, 22.0949727], [86.72434862, 22.09498483], [86.72420251, 22.09550093], [86.72431207, 22.09557999], [86.72424815, 22.09564816], [86.72424573, 22.09563981], [86.72424152, 22.09563968], [86.7241856, 22.09561766], [86.72415973, 22.09558181], [86.72415772, 22.09557958], [86.72419823, 22.09550525], [86.72434665, 22.09498868], [86.72420717, 22.09496946], [86.72412305, 22.09491524], [86.72400624, 22.09485666], [86.7240046, 22.09486093], [86.72357739, 22.09500147], [86.7235923, 22.09503125], [86.72359963, 22.09508178], [86.72356265, 22.09508734], [86.72351525, 22.09508379], [86.72351775, 22.09502426], [86.72352045, 22.09501198], [86.72355392, 22.09500323], [86.72356141, 22.0950067], [86.72400334, 22.09485979], [86.72401302, 22.09474966], [86.72394236, 22.09475266], [86.72386006, 22.09477032], [86.72385051, 22.09472611], [86.72384404, 22.09472613], [86.72388028, 22.09460454], [86.72384603, 22.09453746], [86.72376388, 22.09449918], [86.72375315, 22.0944957], [86.72377529, 22.09439665], [86.72378662, 22.09438311], [86.72370744, 22.09438651], [86.72366929, 22.09428628], [86.72362222, 22.09430268], [86.72360426, 22.09436953], [86.72355361, 22.09443715], [86.72347401, 22.09444053], [86.72325284, 22.09464121], [86.72326818, 22.09472945], [86.72322806, 22.09472219], [86.72324611, 22.09464663], [86.72346695, 22.0944425], [86.72346436, 22.09442348], [86.72351593, 22.09434927], [86.72355292, 22.0942874], [86.72354083, 22.0942313], [86.72345667, 22.0942393], [86.7234219, 22.09426891], [86.72333461, 22.09429527], [86.72327198, 22.09432165], [86.72312372, 22.09442598], [86.7232613, 22.09432162], [86.72316048, 22.09426453], [86.72306833, 22.09427937], [86.72300304, 22.09427762], [86.72296421, 22.09433143], [86.72294227, 22.09433488], [86.72293511, 22.09433489], [86.72285858, 22.09431821], [86.72285143, 22.09431822], [86.72287279, 22.09426478], [86.72296182, 22.09423781], [86.72300859, 22.09417516], [86.72303316, 22.09417062], [86.72301601, 22.09410628], [86.72306785, 22.09407092], [86.7230668, 22.09406589], [86.72307643, 22.09400662], [86.723152, 22.09401512], [86.72315899, 22.09401354], [86.72314514, 22.09395726], [86.72309296, 22.09388251], [86.72297174, 22.09397081], [86.72300631, 22.09400955], [86.72297649, 22.0940258], [86.72294713, 22.09404734], [86.72294456, 22.0941046], [86.72291942, 22.09412875], [86.72288911, 22.09412031], [86.72288621, 22.09411688], [86.72285702, 22.09407607], [86.72284535, 22.09406435], [86.72284285, 22.09405932], [86.72288914, 22.09402439], [86.72294398, 22.09398519], [86.7230989, 22.09387494], [86.72303438, 22.09383205], [86.72295263, 22.09383205], [86.72284431, 22.09391678], [86.72277478, 22.09394777], [86.72265343, 22.09393226], [86.72255778, 22.09397108], [86.72245628, 22.0940492], [86.72232674, 22.09414378], [86.72219241, 22.09407982], [86.72208088, 22.09412967], [86.72213201, 22.09423274], [86.7220201, 22.09425668], [86.72195982, 22.09433729], [86.72198515, 22.09440184], [86.72204935, 22.09439963], [86.72205425, 22.09439964], [86.72211557, 22.0943604], [86.72215886, 22.09434916], [86.72220174, 22.09431081], [86.722255, 22.09435423], [86.72226953, 22.09441681], [86.72224891, 22.09448539], [86.72233972, 22.09463924], [86.72241611, 22.09462966], [86.7224048, 22.09472116], [86.72248145, 22.09473584], [86.72246998, 22.09480919], [86.72245195, 22.09488687], [86.72240844, 22.09493996], [86.72240249, 22.09504801], [86.72267242, 22.09512305], [86.72268965, 22.09527754], [86.7226856, 22.09527819], [86.72273654, 22.09532235], [86.72265627, 22.0953541], [86.72256314, 22.09536899], [86.72253194, 22.09542517], [86.7224458, 22.09546893], [86.72249005, 22.09552665], [86.72254037, 22.09559275], [86.72260395, 22.09562494], [86.72259791, 22.09569241], [86.72254397, 22.09572563], [86.72247753, 22.09569023], [86.72239882, 22.09574706], [86.72211922, 22.0958778], [86.72202384, 22.09597219], [86.72191796, 22.0961772], [86.72208344, 22.09627369], [86.72208081, 22.0963849], [86.72213026, 22.09643795], [86.72243827, 22.09637263], [86.72250542, 22.09646554], [86.72258978, 22.09641657], [86.72262784, 22.0964432], [86.72261751, 22.09647453], [86.72258553, 22.0966248], [86.72264808, 22.09664788], [86.72277604, 22.09657094], [86.72263975, 22.09665574], [86.72264887, 22.09669489], [86.72262252, 22.0967535], [86.72262148, 22.09676009], [86.72267129, 22.0967733], [86.72271202, 22.09680325], [86.72269285, 22.09686406], [86.72263583, 22.09691569], [86.72264017, 22.09695763], [86.72263164, 22.09701446], [86.72264422, 22.097076], [86.7225969, 22.0971239], [86.72242296, 22.09719522], [86.72229033, 22.09719142], [86.72228647, 22.09726142], [86.72230922, 22.09742896], [86.72222296, 22.09752994], [86.72225777, 22.09763194], [86.72222485, 22.09770795], [86.72211308, 22.09778268], [86.72204993, 22.09780973], [86.72212294, 22.09791873], [86.7220954, 22.098019], [86.72209011, 22.09809222], [86.72209344, 22.09816576], [86.72206651, 22.09827149], [86.7220126, 22.09825854], [86.72204105, 22.09834617], [86.72213984, 22.09864944]], [[86.72278426, 22.09497185], [86.72278411, 22.09492112], [86.72290348, 22.09487674], [86.72296158, 22.09493255], [86.72296712, 22.09493524], [86.72285369, 22.09500193], [86.72279819, 22.09497725], [86.72240249, 22.09504801], [86.72278426, 22.09497185]], [[86.72285486, 22.09651884], [86.72284292, 22.09651389], [86.72283345, 22.09650896], [86.72282065, 22.09648202], [86.72282051, 22.09641644], [86.72283544, 22.09631757], [86.72287348, 22.09632481], [86.72290344, 22.09641417], [86.72295185, 22.09649944], [86.7229089, 22.09651897], [86.72292695, 22.0966213], [86.72299735, 22.09664478], [86.72306436, 22.09668714], [86.72299785, 22.09671493], [86.72293572, 22.09667292], [86.72290614, 22.09652388], [86.72285978, 22.09651885], [86.72285465, 22.09652204], [86.72285486, 22.09651884]], [[86.72294223, 22.09515422], [86.7230558, 22.09514472], [86.72307905, 22.09519343], [86.72302427, 22.09522588], [86.72301065, 22.09522991], [86.72295198, 22.09523571], [86.7229209, 22.09524067], [86.72294223, 22.09515422]], [[86.72382028, 22.09534031], [86.72383718, 22.09534203], [86.72384563, 22.09534392], [86.72386082, 22.09535594], [86.72387954, 22.09539268], [86.72388136, 22.09544807], [86.72383774, 22.09548902], [86.7237748, 22.09548648], [86.72374397, 22.09546194], [86.72373731, 22.09545162], [86.72373395, 22.09544752], [86.72374449, 22.09538311], [86.72374816, 22.09537473], [86.72381526, 22.09533636], [86.72382184, 22.09533625], [86.72382028, 22.09534031]], [[86.72469767, 22.09611175], [86.72462171, 22.09610487], [86.72457948, 22.09604989], [86.72457211, 22.09604747], [86.72467454, 22.09595243], [86.7246819, 22.09595249], [86.72470379, 22.09597631], [86.72470027, 22.09610168], [86.72470896, 22.09626374], [86.72469767, 22.09611175]], [[86.72461315, 22.0961041], [86.72445897, 22.09602776], [86.72443166, 22.09609708], [86.72436148, 22.09610518], [86.72431403, 22.09606013], [86.72433573, 22.09602075], [86.72434301, 22.09602324], [86.72443231, 22.09601326], [86.72461897, 22.09610462], [86.72461315, 22.0961041]], [[86.72400453, 22.09608295], [86.72396039, 22.09614484], [86.7238932, 22.096151], [86.72389342, 22.09614566], [86.72384825, 22.09609548], [86.72390248, 22.09600458], [86.72400185, 22.09608033], [86.72401839, 22.0960916], [86.72400453, 22.09608295]], [[86.72384778, 22.09635962], [86.72380971, 22.09638509], [86.72388161, 22.09642517], [86.72388945, 22.09650294], [86.72387541, 22.09656201], [86.72381575, 22.09655461], [86.72381001, 22.09655475], [86.72375789, 22.0965083], [86.72374156, 22.09643892], [86.72374536, 22.09636189], [86.72381066, 22.09630315], [86.72381672, 22.09629486], [86.72381745, 22.09629348], [86.72384778, 22.09635962]], [[86.72428126, 22.09574007], [86.72428136, 22.09573545], [86.72428382, 22.09572153], [86.72430502, 22.09572684], [86.72436837, 22.09579099], [86.72430375, 22.0957938], [86.72427883, 22.09575376], [86.7242623, 22.09569687], [86.72428126, 22.09574007]], [[86.72364578, 22.09481335], [86.72359084, 22.09485471], [86.72358333, 22.09485471], [86.72356056, 22.09485849], [86.72350048, 22.09485851], [86.72349284, 22.09475772], [86.7236095, 22.09473543], [86.72361343, 22.09473174], [86.7236322, 22.09472804], [86.723656, 22.09472823], [86.72364578, 22.09481335]], [[86.72306037, 22.09459359], [86.7229453, 22.09466829], [86.72292643, 22.09467186], [86.72289159, 22.0946255], [86.72288601, 22.09461131], [86.7229952, 22.09452346], [86.72300331, 22.09451731], [86.72306037, 22.09459359]]], [[[86.72247132, 22.09974979], [86.72237445, 22.09976718], [86.72234592, 22.09978146], [86.72221059, 22.09993266], [86.72239841, 22.10021969], [86.72270862, 22.10023419], [86.72275643, 22.10011306], [86.72279171, 22.10009189], [86.72281402, 22.10012141], [86.72299517, 22.10008438], [86.72306003, 22.0999676], [86.72312755, 22.10001374], [86.72322602, 22.1000282], [86.72323968, 22.10007655], [86.7231192, 22.10005112], [86.72307358, 22.10010697], [86.72299198, 22.1000897], [86.72282171, 22.10012692], [86.72282564, 22.10020791], [86.7227861, 22.10024299], [86.72277991, 22.10030632], [86.72273296, 22.10029763], [86.72271113, 22.10023694], [86.72239739, 22.10022786], [86.72235006, 22.10026617], [86.72246573, 22.10041298], [86.722484, 22.10049538], [86.72252356, 22.10068513], [86.72255132, 22.10062612], [86.72261319, 22.10058884], [86.72266699, 22.10062425], [86.72273136, 22.10061339], [86.7226806, 22.10062765], [86.72266814, 22.10071295], [86.72258344, 22.1007323], [86.72251214, 22.1007432], [86.72268359, 22.10122472], [86.72278845, 22.10114946], [86.72285108, 22.10109571], [86.72291007, 22.10112206], [86.72289783, 22.10116632], [86.72281915, 22.10118786], [86.72270694, 22.10123955], [86.72277459, 22.10127345], [86.72283661, 22.10128778], [86.72289852, 22.1013051], [86.72297489, 22.10132843], [86.72305852, 22.10134904], [86.72308524, 22.10132663], [86.7231519, 22.10129512], [86.72318801, 22.10133376], [86.72319666, 22.10138016], [86.72326708, 22.10141347], [86.72332289, 22.10138463], [86.72333005, 22.10134026], [86.72339645, 22.10131615], [86.72338554, 22.1013676], [86.72347386, 22.10136239], [86.72338557, 22.10136963], [86.72338977, 22.10142124], [86.72345206, 22.10145514], [86.72353647, 22.1015054], [86.72361995, 22.10153739], [86.72373636, 22.10158624], [86.72397278, 22.10167345], [86.72425512, 22.10179626], [86.72441397, 22.10186197], [86.72455551, 22.10190302], [86.72468924, 22.10194478], [86.72481504, 22.10198778], [86.72499094, 22.10207083], [86.72509443, 22.10210681], [86.72531155, 22.10196996], [86.72541444, 22.10172746], [86.7253794, 22.1016816], [86.72532621, 22.10164759], [86.7252837, 22.10157564], [86.72525764, 22.10155689], [86.72523622, 22.10152679], [86.72530084, 22.10146254], [86.72536131, 22.10147758], [86.72536121, 22.10160518], [86.72538027, 22.10162786], [86.72545343, 22.10163057], [86.72535203, 22.10192078], [86.72542195, 22.10190166], [86.72596636, 22.10152572], [86.72592862, 22.10141944], [86.72584687, 22.10140044], [86.72581046, 22.10130672], [86.72591846, 22.10120466], [86.72591035, 22.10125592], [86.72600162, 22.10140269], [86.72609672, 22.10136609], [86.72612231, 22.10141585], [86.72623898, 22.10137994], [86.72632447, 22.10128172], [86.72637162, 22.10117752], [86.72643458, 22.10112159], [86.72640465, 22.10109329], [86.7264306, 22.10101455], [86.72642692, 22.10094464], [86.7264268, 22.10092518], [86.7265097, 22.10104528], [86.72643775, 22.10109997], [86.72643822, 22.10116869], [86.72641508, 22.10120543], [86.72636491, 22.10131057], [86.72629688, 22.10137529], [86.72628618, 22.10143981], [86.72619616, 22.10147121], [86.72613371, 22.10148107], [86.7260357, 22.10149728], [86.72544155, 22.10194036], [86.72543682, 22.10198928], [86.72541484, 22.10209382], [86.72532736, 22.10215607], [86.7251985, 22.10218331], [86.72533648, 22.10220432], [86.72545442, 22.1022191], [86.72579977, 22.10217221], [86.72604674, 22.10216931], [86.72612354, 22.10213148], [86.72615102, 22.10215714], [86.72617909, 22.1021548], [86.72621173, 22.10212454], [86.72623051, 22.10209022], [86.7262841, 22.10207217], [86.72633646, 22.10211533], [86.72633719, 22.10214778], [86.72631472, 22.10216083], [86.72648097, 22.10215213], [86.7266035, 22.10215213], [86.72665487, 22.10216372], [86.7267203, 22.10214924], [86.72677949, 22.102132], [86.72684047, 22.10213751], [86.72684033, 22.10213773], [86.72690364, 22.1021734], [86.72700377, 22.10219257], [86.72722345, 22.10219081], [86.72722486, 22.10216306], [86.7272118, 22.10213589], [86.72719525, 22.10210437], [86.72716816, 22.10205931], [86.72722278, 22.10202502], [86.72725152, 22.10203273], [86.72727583, 22.10206089], [86.72727625, 22.1020037], [86.72735349, 22.10198571], [86.7273849, 22.10199917], [86.72741588, 22.10202348], [86.72742366, 22.10211258], [86.72742886, 22.10217685], [86.72745437, 22.10218237], [86.72758149, 22.10212065], [86.72761361, 22.10209507], [86.72765063, 22.10207163], [86.72774884, 22.10205204], [86.7277858, 22.10207881], [86.72782937, 22.10209144], [86.72789465, 22.10204672], [86.72794555, 22.10205026], [86.72797839, 22.10206448], [86.7279913, 22.10207881], [86.72799333, 22.10210233], [86.72800598, 22.10207881], [86.72805828, 22.10204496], [86.72808209, 22.10205026], [86.72810653, 22.10206983], [86.72814983, 22.10209324], [86.72834968, 22.10205398], [86.7283489, 22.10203153], [86.72831414, 22.10199463], [86.72829065, 22.10200686], [86.72830126, 22.10198247], [86.72833827, 22.10191329], [86.72836724, 22.10191564], [86.72837379, 22.10192742], [86.72838268, 22.10196556], [86.72842277, 22.10199707], [86.72842573, 22.10202162], [86.72845237, 22.10199951], [86.72848019, 22.10199951], [86.72852239, 22.1020044], [86.72857353, 22.10200685], [86.72862111, 22.10198004], [86.72863435, 22.10192977], [86.72869173, 22.10192269], [86.72871203, 22.10193214], [86.72876751, 22.10192033], [86.72879935, 22.10187607], [86.72883605, 22.10184632], [86.72886286, 22.10184632], [86.7288997, 22.10185543], [86.72894362, 22.10183048], [86.72901977, 22.10175959], [86.72914335, 22.10142041], [86.72908537, 22.10125562], [86.72900783, 22.10110815], [86.72893107, 22.10101112], [86.72884705, 22.10090409], [86.72888939, 22.10104378], [86.72892401, 22.10122217], [86.72882173, 22.10131001], [86.72883659, 22.10139489], [86.7288239, 22.10147797], [86.72881105, 22.10156229], [86.72870535, 22.10150686], [86.72860359, 22.10138249], [86.72851933, 22.10137942], [86.72847341, 22.10128376], [86.72838901, 22.10122127], [86.72836455, 22.101212], [86.7283411, 22.10128963], [86.72831841, 22.10145587], [86.72815628, 22.10152693], [86.72815386, 22.10152691], [86.72810725, 22.10147905], [86.72810165, 22.10146718], [86.72816983, 22.10142432], [86.72824634, 22.1014269], [86.72824873, 22.10142691], [86.72826192, 22.10127546], [86.72826643, 22.10127317], [86.72823248, 22.10117527], [86.72822567, 22.10117752], [86.72811567, 22.10117068], [86.72803894, 22.10113274], [86.7278716, 22.10115642], [86.72791651, 22.10121287], [86.72785846, 22.10125724], [86.72776253, 22.10130085], [86.72761945, 22.10129559], [86.72767183, 22.10119179], [86.72776328, 22.10111258], [86.72791452, 22.101138], [86.72792145, 22.10113796], [86.72802709, 22.10112831], [86.72803171, 22.10112829], [86.72804779, 22.100991], [86.72795747, 22.10100879], [86.72782205, 22.10100056], [86.72785513, 22.10093691], [86.72782651, 22.10081293], [86.72781909, 22.10079817], [86.72781206, 22.10079186], [86.72782822, 22.10069803], [86.72786943, 22.10061797], [86.72801189, 22.10060805], [86.72827555, 22.10065714], [86.72835573, 22.10074384], [86.72832957, 22.10065715], [86.7282866, 22.10036833], [86.72822803, 22.09962704], [86.72809263, 22.09890546], [86.72801278, 22.09845274], [86.7280087, 22.09830982], [86.7279839, 22.09822226], [86.72785068, 22.09821647], [86.72772892, 22.09832834], [86.72768809, 22.0985014], [86.72775815, 22.09851039], [86.72777125, 22.09854511], [86.72776866, 22.09862031], [86.72773772, 22.09866359], [86.72764827, 22.09876316], [86.72760943, 22.0987508], [86.72756819, 22.09876235], [86.72756604, 22.09876218], [86.72757386, 22.09868858], [86.72757359, 22.09858598], [86.72768398, 22.09850137], [86.72772267, 22.09830455], [86.7276212, 22.09810795], [86.72756478, 22.09806711], [86.72755984, 22.0979975], [86.72739933, 22.09796096], [86.72738931, 22.09799813], [86.72731905, 22.09807937], [86.72723371, 22.09798978], [86.72730954, 22.09791831], [86.72756593, 22.09797171], [86.7275623, 22.09793023], [86.72754756, 22.0978134], [86.72747573, 22.09757859], [86.7274129, 22.09739744], [86.72737256, 22.09721378], [86.72730686, 22.09726698], [86.72724715, 22.09725533], [86.72717772, 22.09719603], [86.72720934, 22.09713522], [86.72730956, 22.09710269], [86.72727605, 22.09696005], [86.72723315, 22.09691402], [86.72717637, 22.09686881], [86.72710431, 22.09678545], [86.72709394, 22.09678477], [86.72703522, 22.09663625], [86.72692599, 22.09656661], [86.72692657, 22.09650516], [86.72698097, 22.09647611], [86.72694245, 22.09643114], [86.72691843, 22.09644533], [86.72686492, 22.0964472], [86.72682529, 22.0964057], [86.72682601, 22.09635875], [86.72685094, 22.0963354], [86.72687586, 22.09632188], [86.72683945, 22.09624941], [86.72681754, 22.09625313], [86.72678327, 22.09626472], [86.72675057, 22.09619311], [86.72666905, 22.09627393], [86.72670299, 22.09630008], [86.72667987, 22.09634382], [86.72664844, 22.09636572], [86.72661383, 22.09638922], [86.72656786, 22.09637717], [86.72658102, 22.09630792], [86.72661677, 22.09627728], [86.72666483, 22.09627791], [86.72674924, 22.09619051], [86.72711336, 22.09600341], [86.72715138, 22.09600583], [86.72717931, 22.09598898], [86.72718795, 22.09595572], [86.72726054, 22.09592073], [86.72758619, 22.09578816], [86.72750638, 22.09559528], [86.72728225, 22.09514186], [86.72722401, 22.09516613], [86.72693103, 22.0952582], [86.72688012, 22.09524468], [86.72675612, 22.09529104], [86.72671716, 22.09530379], [86.72663664, 22.09530826], [86.72654461, 22.09531586], [86.72651562, 22.09545163], [86.72646226, 22.095475], [86.72641949, 22.09540906], [86.72630521, 22.09550043], [86.72626037, 22.09548354], [86.72624849, 22.09549654], [86.72613452, 22.09558769], [86.72613152, 22.09566168], [86.72613171, 22.0955941], [86.72579054, 22.09584182], [86.72562875, 22.09595458], [86.72536466, 22.09612281], [86.72512861, 22.09630833], [86.72504506, 22.09638431], [86.72463124, 22.09679035], [86.72478666, 22.09700348], [86.72470902, 22.09716843], [86.72490824, 22.09728464], [86.72498713, 22.09740951], [86.72479098, 22.09751575], [86.72465735, 22.09726062], [86.72449336, 22.09694787], [86.72404231, 22.0974078], [86.72363747, 22.09774243], [86.72363729, 22.097742], [86.72350336, 22.09784213], [86.72354977, 22.09786525], [86.72354167, 22.09786871], [86.72352439, 22.0979315], [86.72352392, 22.09793679], [86.72343897, 22.09795642], [86.7233553, 22.09804667], [86.72326925, 22.09813778], [86.72337267, 22.09816016], [86.72346233, 22.09819859], [86.72343928, 22.09824134], [86.72333506, 22.09830226], [86.72331547, 22.09830833], [86.72330233, 22.09831244], [86.72329096, 22.0983186], [86.72328195, 22.09832273], [86.72318917, 22.09833577], [86.72318185, 22.09834195], [86.72317666, 22.09834812], [86.72309688, 22.09842995], [86.72309399, 22.09843421], [86.72308855, 22.09844063], [86.72317323, 22.09852275], [86.72335236, 22.098515], [86.72343345, 22.09842407], [86.72345961, 22.09830456], [86.72348615, 22.09824725], [86.7234886, 22.09824333], [86.72349557, 22.09823551], [86.72358173, 22.09823612], [86.72364395, 22.09828388], [86.72360976, 22.09836915], [86.72374263, 22.09835873], [86.72374472, 22.09835877], [86.72372661, 22.09825312], [86.72372481, 22.09824914], [86.72371372, 22.09814189], [86.72372959, 22.09805044], [86.72373273, 22.09803211], [86.72373509, 22.0980266], [86.72384081, 22.09798823], [86.72384558, 22.09809903], [86.72384541, 22.0981028], [86.72387821, 22.09823494], [86.72387849, 22.09837592], [86.72390357, 22.09840203], [86.72404714, 22.09834186], [86.72408169, 22.09841142], [86.72416342, 22.0984124], [86.72420091, 22.0983316], [86.72423794, 22.09837521], [86.72422838, 22.0983733], [86.72419968, 22.09841798], [86.72405016, 22.09841099], [86.72400282, 22.09840641], [86.72393575, 22.09842394], [86.72386208, 22.09845527], [86.72375937, 22.09839254], [86.72375529, 22.09839036], [86.72369914, 22.09843985], [86.72373002, 22.09851854], [86.72362195, 22.09852502], [86.72353545, 22.09848659], [86.72345164, 22.09845158], [86.72338368, 22.09850446], [86.72350419, 22.09856266], [86.72339413, 22.0985969], [86.72334282, 22.09857394], [86.72320984, 22.09864421], [86.72320728, 22.0986465], [86.72309668, 22.09866659], [86.72303556, 22.09862024], [86.72293792, 22.0986761], [86.7229733, 22.098735], [86.72304213, 22.09876526], [86.72320712, 22.09879307], [86.72326287, 22.09886337], [86.72318501, 22.09887743], [86.72310046, 22.0988876], [86.72309548, 22.09891513], [86.72315465, 22.09900622], [86.72327987, 22.09903045], [86.7232407, 22.09909903], [86.72318999, 22.09912917], [86.72330256, 22.09935509], [86.72333391, 22.09937626], [86.72345818, 22.09945198], [86.72351992, 22.09957041], [86.72346846, 22.09960703], [86.72345048, 22.09964085], [86.72345351, 22.09963786], [86.72348129, 22.09963512], [86.72354697, 22.09968205], [86.72362837, 22.0996336], [86.72361695, 22.09960604], [86.72362235, 22.09957571], [86.72365092, 22.09955699], [86.72368354, 22.09958262], [86.72401077, 22.09952909], [86.72400232, 22.09950531], [86.72405212, 22.09945416], [86.72407182, 22.09949579], [86.72410734, 22.09950784], [86.72426909, 22.09949193], [86.72432809, 22.09943583], [86.72439152, 22.09952047], [86.72432819, 22.09954907], [86.72427096, 22.09949749], [86.72409453, 22.09951226], [86.72404451, 22.0995286], [86.72368671, 22.09958832], [86.72368939, 22.09962878], [86.72364954, 22.09962051], [86.7235455, 22.09968506], [86.72354838, 22.09973768], [86.72357211, 22.09975695], [86.72362263, 22.09978802], [86.72381253, 22.09982891], [86.72389457, 22.09979806], [86.72395131, 22.09983297], [86.72399397, 22.09981383], [86.72405211, 22.099741], [86.72410426, 22.09978953], [86.72405992, 22.09991261], [86.72391106, 22.09989235], [86.72383553, 22.09988802], [86.72382026, 22.09983167], [86.72361508, 22.09979427], [86.72358794, 22.09981661], [86.72349737, 22.09980825], [86.72350722, 22.09976168], [86.72346168, 22.09975946], [86.72343584, 22.0997178], [86.72344138, 22.09964908], [86.72334912, 22.09966686], [86.72329592, 22.09962583], [86.72329544, 22.09957359], [86.72324337, 22.09951604], [86.72317575, 22.0995642], [86.72308606, 22.09954605], [86.7230397, 22.09955416], [86.72300008, 22.09955292], [86.72297022, 22.09952233], [86.723003, 22.09944979], [86.72297471, 22.09940246], [86.72291121, 22.09938823], [86.72287456, 22.09939185], [86.72271168, 22.09937197], [86.72258769, 22.09930853], [86.72249504, 22.09920671], [86.72243355, 22.09925124], [86.72237332, 22.09928742], [86.7222863, 22.0993607], [86.72230481, 22.09943492], [86.72226957, 22.09946547], [86.72219794, 22.09945841], [86.72216775, 22.09941516], [86.72212828, 22.09941444], [86.72211079, 22.0993204], [86.7220204, 22.09934706], [86.72212987, 22.09946965], [86.72212986, 22.0995252], [86.72215393, 22.09955592], [86.72215067, 22.09959157], [86.72213888, 22.09963444], [86.72220057, 22.09993284], [86.7223455, 22.09976515], [86.72235895, 22.09973485], [86.72237473, 22.09976485], [86.72246725, 22.09974287], [86.72247425, 22.09974513], [86.72253413, 22.09970741], [86.72258422, 22.0997368], [86.72258452, 22.09973674], [86.72256242, 22.09975818], [86.72247132, 22.09974979]], [[86.72277921, 22.10059994], [86.72278158, 22.10060491], [86.72273136, 22.10061339], [86.72277921, 22.10059994]], [[86.7227552, 22.10054978], [86.72280989, 22.10048989], [86.72286898, 22.10053075], [86.72297017, 22.10052315], [86.72303415, 22.10047524], [86.72311417, 22.10048667], [86.72441783, 22.10012691], [86.72437452, 22.10008096], [86.72442145, 22.09998847], [86.72454473, 22.10002358], [86.72456183, 22.10009298], [86.72464195, 22.10028475], [86.72466091, 22.10021334], [86.72470358, 22.10016483], [86.72474499, 22.10009098], [86.72471162, 22.1001568], [86.72472324, 22.10021134], [86.72476736, 22.10028076], [86.72476138, 22.10032244], [86.72471553, 22.10037232], [86.7246518, 22.10041422], [86.72455326, 22.10039636], [86.72455869, 22.1003287], [86.72462782, 22.10028734], [86.72455952, 22.10010369], [86.72449958, 22.10014357], [86.72441793, 22.10012961], [86.7231173, 22.10049], [86.72309066, 22.10057646], [86.72301048, 22.10057664], [86.72295732, 22.10053234], [86.72286731, 22.10053643], [86.72286497, 22.10060779], [86.72278213, 22.10059912], [86.72277921, 22.10059994], [86.7227552, 22.10054978]], [[86.72474696, 22.10008709], [86.72474709, 22.10008723], [86.72474499, 22.10009098], [86.72474696, 22.10008709]], [[86.72471117, 22.1000495], [86.72477747, 22.09995206], [86.72491247, 22.09955256], [86.72490054, 22.09946286], [86.72490276, 22.09941973], [86.72497701, 22.09938169], [86.72504992, 22.09945873], [86.72505187, 22.09947779], [86.72491747, 22.09954768], [86.72478788, 22.09994163], [86.7248345, 22.10005047], [86.72474959, 22.10008191], [86.72474696, 22.10008709], [86.72471117, 22.1000495]], [[86.72505969, 22.09947372], [86.72506945, 22.09964941], [86.72505187, 22.09947779], [86.72505969, 22.09947372]], [[86.72508611, 22.09981196], [86.72521907, 22.09974983], [86.72522861, 22.09980166], [86.72516244, 22.0998819], [86.72508097, 22.09985666], [86.72506945, 22.09964941], [86.72508611, 22.09981196]], [[86.72359403, 22.10135254], [86.72359495, 22.10135525], [86.72347386, 22.10136239], [86.72359403, 22.10135254]], [[86.72359309, 22.10134979], [86.72357804, 22.101289], [86.72368608, 22.10127104], [86.72373758, 22.1013128], [86.72380721, 22.10120351], [86.72380215, 22.1011725], [86.72378406, 22.10107604], [86.72372321, 22.10110875], [86.72369882, 22.10108686], [86.7236397, 22.10107221], [86.72364185, 22.10110134], [86.7235797, 22.10115523], [86.72351791, 22.10114278], [86.72349215, 22.10111547], [86.72352694, 22.10103774], [86.72358976, 22.10104536], [86.72369655, 22.10107729], [86.72369408, 22.10104378], [86.72376287, 22.10100642], [86.72378827, 22.10106896], [86.72380657, 22.1011781], [86.72382963, 22.10113192], [86.7238906, 22.10111385], [86.72394875, 22.10109322], [86.7239679, 22.10107782], [86.723949, 22.101098], [86.72395293, 22.10117303], [86.72392079, 22.10119618], [86.72386723, 22.10119274], [86.72381801, 22.10118814], [86.72373524, 22.10132324], [86.72369905, 22.10136136], [86.72364383, 22.1013837], [86.72360481, 22.10135166], [86.72359403, 22.10135254], [86.72359309, 22.10134979]], [[86.72398575, 22.10105877], [86.72398834, 22.10106139], [86.7239679, 22.10107782], [86.72398575, 22.10105877]], [[86.72394692, 22.10101937], [86.72396835, 22.10094286], [86.72405382, 22.10092099], [86.72408958, 22.10100171], [86.72406336, 22.10105177], [86.72399006, 22.10105418], [86.72398575, 22.10105877], [86.72394692, 22.10101937]], [[86.72592077, 22.10119011], [86.72593486, 22.10118917], [86.72591846, 22.10120466], [86.72592077, 22.10119011]], [[86.72578256, 22.10119933], [86.72581631, 22.10106588], [86.72588024, 22.10105981], [86.72594615, 22.10108226], [86.72595126, 22.10081625], [86.72592326, 22.1006952], [86.7259172, 22.10057004], [86.72582849, 22.10062749], [86.72582284, 22.10069177], [86.72578321, 22.10063898], [86.72582398, 22.10055897], [86.72574859, 22.10050463], [86.72573029, 22.1004576], [86.72575636, 22.10029673], [86.72583387, 22.10031924], [86.72582627, 22.10038199], [86.72585885, 22.10046495], [86.72591732, 22.10048616], [86.72593902, 22.10053841], [86.72599819, 22.10065347], [86.72599288, 22.10065624], [86.72607294, 22.10074171], [86.72606965, 22.10078613], [86.72596744, 22.10081319], [86.7259686, 22.10107304], [86.72598707, 22.10111674], [86.7259242, 22.10116843], [86.72592077, 22.10119011], [86.72578256, 22.10119933]], [[86.72642353, 22.10092043], [86.72642678, 22.10092039], [86.7264268, 22.10092518], [86.72642353, 22.10092043]], [[86.72642674, 22.10091348], [86.72678317, 22.1008986], [86.72678246, 22.10089551], [86.72684536, 22.10084147], [86.72676153, 22.10071649], [86.72670431, 22.10074731], [86.72662165, 22.10071349], [86.72661115, 22.10067563], [86.7265289, 22.10068505], [86.72647984, 22.10064523], [86.72647219, 22.10060342], [86.72649399, 22.10056015], [86.72655875, 22.10057612], [86.72661424, 22.10065924], [86.72669453, 22.10063402], [86.72673795, 22.10061128], [86.72676814, 22.10053683], [86.72684014, 22.10056671], [86.72687823, 22.10059441], [86.72682081, 22.10063053], [86.72673962, 22.10066687], [86.72675838, 22.10070935], [86.72693591, 22.10082293], [86.72696234, 22.10071392], [86.72709031, 22.1006438], [86.72718318, 22.10064654], [86.72722269, 22.10068419], [86.72726756, 22.10079293], [86.72726156, 22.10088277], [86.72724071, 22.10101719], [86.72712694, 22.10107199], [86.72710208, 22.10100153], [86.72719282, 22.10090024], [86.72717666, 22.10077525], [86.72703943, 22.10080151], [86.72689107, 22.10091495], [86.72642678, 22.10092039], [86.72642674, 22.10091348]], [[86.72684148, 22.10213588], [86.72684293, 22.10213773], [86.72684047, 22.10213751], [86.72684148, 22.10213588]], [[86.72677704, 22.10205362], [86.72681285, 22.10201832], [86.72684672, 22.10204007], [86.72687508, 22.10208158], [86.72684148, 22.10213588], [86.72677704, 22.10205362]], [[86.72756603, 22.09876233], [86.72756039, 22.09876174], [86.72756604, 22.09876218], [86.72756603, 22.09876233]], [[86.72724961, 22.0987372], [86.72725889, 22.0988094], [86.72716207, 22.09883758], [86.72716364, 22.09883377], [86.72713787, 22.09880907], [86.7271381, 22.09880668], [86.72712783, 22.09871691], [86.72707968, 22.09870963], [86.72702835, 22.09867554], [86.7269711, 22.09870778], [86.72693472, 22.0986624], [86.72693594, 22.09865343], [86.72683272, 22.09859327], [86.7268295, 22.09863985], [86.72678592, 22.09865865], [86.72676835, 22.09873869], [86.72670191, 22.09877039], [86.72665589, 22.09875077], [86.72665836, 22.09874577], [86.72666626, 22.09873859], [86.7266057, 22.09867124], [86.72664851, 22.09855292], [86.72680297, 22.09855676], [86.72695789, 22.09860012], [86.72701801, 22.09862179], [86.72708695, 22.09860594], [86.72709323, 22.0986059], [86.72715119, 22.09861054], [86.72721004, 22.0987251], [86.72756039, 22.09876174], [86.72724961, 22.0987372]], [[86.7271314, 22.098912], [86.72712776, 22.09891164], [86.72715885, 22.09883852], [86.72716207, 22.09883758], [86.7271314, 22.098912]], [[86.72719544, 22.0989183], [86.72724486, 22.09896499], [86.72722832, 22.09900555], [86.72716501, 22.09901161], [86.72704443, 22.09916961], [86.72713698, 22.09922205], [86.72715653, 22.0992666], [86.7271227, 22.09932849], [86.72701943, 22.09933681], [86.72700245, 22.09929681], [86.72703349, 22.09916402], [86.727163, 22.09900899], [86.72712425, 22.0989926], [86.72712947, 22.09891668], [86.7271314, 22.098912], [86.72719544, 22.0989183]], [[86.7266385, 22.09878604], [86.72665528, 22.09875051], [86.72665589, 22.09875077], [86.7266385, 22.09878604]], [[86.72658755, 22.09889391], [86.7267468, 22.09895949], [86.72681793, 22.09901115], [86.72679133, 22.09907775], [86.72668506, 22.0990913], [86.72660598, 22.09902131], [86.72654725, 22.0990114], [86.72658156, 22.09890147], [86.7266385, 22.09878604], [86.72658755, 22.09889391]], [[86.72654384, 22.09902232], [86.72594523, 22.09916078], [86.72588106, 22.09923444], [86.72585597, 22.09937554], [86.72579205, 22.09940535], [86.72579284, 22.09932126], [86.72582989, 22.09921674], [86.72581607, 22.09920612], [86.72585718, 22.09913597], [86.7257902, 22.09901954], [86.72579471, 22.0989492], [86.72583969, 22.09891934], [86.72585532, 22.09899245], [86.72587858, 22.09908423], [86.7259382, 22.09915373], [86.72653271, 22.09900894], [86.72654725, 22.0990114], [86.72654384, 22.09902232]], [[86.7270942, 22.09678545], [86.72708465, 22.09678417], [86.72709394, 22.09678477], [86.7270942, 22.09678545]], [[86.72699584, 22.09677836], [86.72698715, 22.09682841], [86.72697959, 22.09696988], [86.72690695, 22.097161], [86.72679649, 22.09731582], [86.72665637, 22.09733136], [86.72665612, 22.09733026], [86.72668837, 22.09724407], [86.72676732, 22.09718543], [86.72673242, 22.09710065], [86.72679044, 22.0970167], [86.72690363, 22.09702499], [86.72680508, 22.09692237], [86.72680263, 22.09692292], [86.72682342, 22.09687587], [86.72683057, 22.0968248], [86.72691037, 22.09676075], [86.72708465, 22.09678417], [86.72699584, 22.09677836]], [[86.7266694, 22.09738935], [86.72659464, 22.09738625], [86.72616931, 22.09768153], [86.72611572, 22.09774403], [86.72607084, 22.09766482], [86.7259542, 22.09764431], [86.72595389, 22.09758965], [86.72608453, 22.09760312], [86.72617982, 22.09766086], [86.72658067, 22.09739286], [86.72655504, 22.09737638], [86.72657875, 22.09734676], [86.72660673, 22.09733687], [86.72665637, 22.09733136], [86.7266694, 22.09738935]], [[86.72680202, 22.09692429], [86.72659226, 22.09696975], [86.72680263, 22.09692292], [86.72680202, 22.09692429]], [[86.72610916, 22.09707729], [86.72620596, 22.09728511], [86.72614786, 22.09732879], [86.72606703, 22.09725932], [86.72605116, 22.09730629], [86.72599541, 22.09726709], [86.72594915, 22.09718626], [86.72598895, 22.09710485], [86.72598711, 22.09710089], [86.72659226, 22.09696975], [86.72610916, 22.09707729]], [[86.72598644, 22.09710104], [86.72590508, 22.09692612], [86.72590557, 22.09692592], [86.72598711, 22.09710089], [86.72598644, 22.09710104]], [[86.72582872, 22.09695692], [86.72582246, 22.09695692], [86.72578337, 22.09691075], [86.72577829, 22.09689323], [86.72576223, 22.09682105], [86.72576008, 22.09681994], [86.72582289, 22.09677083], [86.72589908, 22.09677487], [86.7258986, 22.09677501], [86.72593496, 22.09682511], [86.7259045, 22.09692486], [86.72590508, 22.09692612], [86.72582872, 22.09695692]], [[86.72575979, 22.09682017], [86.72574031, 22.0968098], [86.72576008, 22.09681994], [86.72575979, 22.09682017]], [[86.72539975, 22.09663501], [86.72540556, 22.09659105], [86.72540765, 22.09657519], [86.72545869, 22.09652018], [86.72547557, 22.09651239], [86.72552939, 22.09652799], [86.72553246, 22.09653582], [86.72559471, 22.09658707], [86.72552602, 22.09669576], [86.72574031, 22.0968098], [86.72539975, 22.09663501]], [[86.72606136, 22.09672649], [86.72590181, 22.09677501], [86.72589908, 22.09677487], [86.72606136, 22.09672649]], [[86.72606558, 22.09672521], [86.72601978, 22.09668463], [86.72601719, 22.0966802], [86.72602337, 22.0966268], [86.72602553, 22.09662116], [86.72602936, 22.09661414], [86.72606015, 22.09659334], [86.72606328, 22.09659196], [86.72606953, 22.09658922], [86.72614682, 22.09659471], [86.72614982, 22.09659471], [86.7261578, 22.0966353], [86.7261473, 22.0966802], [86.72609629, 22.09671608], [86.72606136, 22.09672649], [86.72606558, 22.09672521]], [[86.72613125, 22.09576255], [86.7261271, 22.09577103], [86.72613152, 22.09566168], [86.72613125, 22.09576255]], [[86.72612642, 22.0957878], [86.72620175, 22.09583682], [86.72617131, 22.09589875], [86.72612457, 22.09591332], [86.72607157, 22.09600223], [86.72615223, 22.09610105], [86.72612585, 22.09615564], [86.72613784, 22.09623006], [86.7260813, 22.09624169], [86.7260795, 22.09637969], [86.72616888, 22.09637466], [86.72615762, 22.09644863], [86.72609277, 22.09644746], [86.72607338, 22.09639118], [86.72607647, 22.09624176], [86.72608192, 22.09616678], [86.72602647, 22.09610832], [86.72606292, 22.0960174], [86.72611978, 22.09591575], [86.72607393, 22.09587967], [86.7261271, 22.09577103], [86.72612642, 22.0957878]], [[86.72366702, 22.09781134], [86.72362271, 22.09775463], [86.72363747, 22.09774243], [86.72366702, 22.09781134]], [[86.72367381, 22.09782004], [86.72368256, 22.09781233], [86.72368577, 22.09780718], [86.72371047, 22.09779925], [86.72380068, 22.09773577], [86.72381768, 22.09778319], [86.72382169, 22.09785792], [86.72378254, 22.09790562], [86.72372031, 22.09788475], [86.72367957, 22.09784063], [86.72366702, 22.09781134], [86.72367381, 22.09782004]], [[86.72424323, 22.09837627], [86.72423857, 22.09837595], [86.72423794, 22.09837521], [86.72424323, 22.09837627]], [[86.72432497, 22.09838186], [86.72427967, 22.09831427], [86.72431293, 22.09826624], [86.72435751, 22.09826407], [86.72440571, 22.09829468], [86.72440461, 22.09832275], [86.72466727, 22.09831302], [86.72471633, 22.09821204], [86.72479904, 22.09822192], [86.7248193, 22.09829755], [86.72506919, 22.09826118], [86.72523871, 22.09819232], [86.72524655, 22.09818979], [86.72535297, 22.0981718], [86.7253659, 22.09817171], [86.72538142, 22.09811332], [86.7252605, 22.09813342], [86.72509449, 22.09815663], [86.72499938, 22.0981425], [86.72493763, 22.0981378], [86.72484053, 22.09805833], [86.72503851, 22.09802964], [86.72508894, 22.09810325], [86.72532283, 22.09806824], [86.72532794, 22.09806584], [86.72558705, 22.09795977], [86.72559207, 22.09795979], [86.72563227, 22.09796], [86.72567636, 22.09805808], [86.7255133, 22.09818546], [86.72540996, 22.09821083], [86.72523956, 22.09827981], [86.72504399, 22.09835296], [86.72487565, 22.09836385], [86.72476275, 22.09831038], [86.72440064, 22.09833296], [86.72438447, 22.0983743], [86.72437176, 22.09840833], [86.72432347, 22.0983923], [86.72424323, 22.09837627], [86.72432497, 22.09838186]], [[86.7225869, 22.09973443], [86.72260004, 22.09973376], [86.72258452, 22.09973674], [86.7225869, 22.09973443]], [[86.72262383, 22.09972919], [86.72269095, 22.09968439], [86.72276716, 22.09976535], [86.72277595, 22.09977049], [86.72278545, 22.09980309], [86.72273745, 22.09990435], [86.72269546, 22.09990941], [86.72262842, 22.09987544], [86.7226317, 22.09984203], [86.72269995, 22.09978717], [86.72265015, 22.09973121], [86.72260004, 22.09973376], [86.72262383, 22.09972919]], [[86.72277442, 22.09976525], [86.72288657, 22.09983522], [86.72277595, 22.09977049], [86.72277442, 22.09976525]], [[86.72291123, 22.09984966], [86.72289026, 22.09957167], [86.72282668, 22.09963481], [86.72272753, 22.09955663], [86.72275756, 22.09951401], [86.72289259, 22.09957168], [86.72291807, 22.09985458], [86.7229424, 22.09981641], [86.72298344, 22.09981421], [86.72303159, 22.09984665], [86.72319736, 22.0998573], [86.72319981, 22.09979892], [86.72325932, 22.09981474], [86.72325015, 22.09987072], [86.72319243, 22.09985963], [86.72302903, 22.09984904], [86.72301576, 22.09990532], [86.72294563, 22.09987208], [86.72288657, 22.09983522], [86.72291123, 22.09984966]]], [[[86.72240034, 22.10239543], [86.72253122, 22.10259631], [86.72261295, 22.10256766], [86.72267666, 22.10258938], [86.72267938, 22.10259211], [86.72270503, 22.10263866], [86.72260232, 22.10269448], [86.72256979, 22.10271413], [86.72240108, 22.10297742], [86.72246282, 22.10305665], [86.72263898, 22.10295434], [86.72266519, 22.10284097], [86.7226717, 22.10283805], [86.72274435, 22.10284896], [86.72276906, 22.1029036], [86.72276841, 22.10290941], [86.72272545, 22.10295944], [86.72271886, 22.10296245], [86.72265143, 22.10295424], [86.72245202, 22.10306578], [86.72264217, 22.10321376], [86.72262643, 22.10322285], [86.72292766, 22.10356376], [86.72293783, 22.1035632], [86.7230439, 22.1037056], [86.72326648, 22.10404719], [86.72342816, 22.10391486], [86.72342435, 22.10384454], [86.72348116, 22.10380707], [86.72348784, 22.10380697], [86.72356526, 22.10379321], [86.72360114, 22.10375679], [86.72365681, 22.10368038], [86.72354577, 22.1036655], [86.72346776, 22.10365032], [86.72348567, 22.10348609], [86.72353126, 22.10348858], [86.72352387, 22.103575], [86.72361301, 22.10360932], [86.72370731, 22.10361826], [86.72373359, 22.10356978], [86.72380018, 22.10359248], [86.72380433, 22.10358649], [86.7237965, 22.10359895], [86.72375473, 22.10363788], [86.72366139, 22.10366395], [86.72377849, 22.10371398], [86.72382275, 22.10369081], [86.72393158, 22.10367488], [86.72391003, 22.10375509], [86.72428926, 22.10365735], [86.72427875, 22.10359075], [86.72435577, 22.10352119], [86.7245905, 22.10326114], [86.72433988, 22.10305603], [86.72430478, 22.10309116], [86.72427421, 22.10317745], [86.72423453, 22.10323504], [86.72416495, 22.10323541], [86.72416418, 22.10324796], [86.72412998, 22.10323872], [86.72413896, 22.10317503], [86.72416475, 22.10307366], [86.72423507, 22.10301515], [86.72433707, 22.10304144], [86.72455611, 22.10323016], [86.72459744, 22.10318248], [86.72464475, 22.10315579], [86.72466055, 22.10313186], [86.72458238, 22.10311312], [86.72455479, 22.10305122], [86.72460503, 22.10299041], [86.72467649, 22.1030084], [86.72475092, 22.10285318], [86.72479075, 22.1027764], [86.72479005, 22.10277555], [86.72484291, 22.10275657], [86.72486976, 22.10285281], [86.72486835, 22.10285328], [86.72482523, 22.10287618], [86.72476643, 22.10287321], [86.72469207, 22.10300268], [86.72472012, 22.10304091], [86.72468572, 22.1030847], [86.72465095, 22.10317399], [86.72466964, 22.10323501], [86.72472335, 22.10318093], [86.72477056, 22.10316028], [86.72479294, 22.10321235], [86.72471075, 22.1032723], [86.72467891, 22.1033275], [86.72459993, 22.1032674], [86.72459685, 22.10325821], [86.72434889, 22.1035343], [86.72440667, 22.10367004], [86.72440658, 22.10367341], [86.724373, 22.10370067], [86.724453, 22.10378604], [86.72450659, 22.1037481], [86.72454559, 22.1037824], [86.72447888, 22.10381351], [86.72437235, 22.10372113], [86.72429896, 22.10366064], [86.72390613, 22.1037651], [86.72378865, 22.10385118], [86.72377876, 22.10385106], [86.72364218, 22.1037829], [86.72328032, 22.1040467], [86.72341964, 22.10441449], [86.72359436, 22.10443871], [86.72382023, 22.10446604], [86.72396557, 22.10446354], [86.7240011, 22.10421209], [86.7240096, 22.1041739], [86.72398934, 22.10417347], [86.72399212, 22.10411746], [86.72401033, 22.10402367], [86.72409783, 22.10401485], [86.72411471, 22.10401173], [86.7242006, 22.10404783], [86.72414136, 22.10409904], [86.72402152, 22.1041357], [86.72396504, 22.10447443], [86.7242544, 22.1045114], [86.7244892, 22.1047757], [86.7246596, 22.1048468], [86.72515796, 22.10458948], [86.72522933, 22.10458247], [86.72534271, 22.10453849], [86.72536525, 22.10447189], [86.72536517, 22.10440737], [86.72533319, 22.1043944], [86.72527594, 22.10434157], [86.72522493, 22.10434232], [86.72513861, 22.10435363], [86.72511984, 22.10433059], [86.72511439, 22.1042779], [86.72517838, 22.10424691], [86.7251915, 22.10421341], [86.72515008, 22.10423122], [86.72508053, 22.10422283], [86.72502454, 22.10417851], [86.72505774, 22.1040986], [86.72501251, 22.10415303], [86.72510968, 22.10399174], [86.72500915, 22.10401014], [86.72502331, 22.10392997], [86.72504093, 22.10382069], [86.72499762, 22.10382129], [86.7249486, 22.10380084], [86.72493502, 22.10373732], [86.72493303, 22.10373574], [86.72500867, 22.10374277], [86.72505073, 22.10379343], [86.7250296, 22.10392682], [86.7250855, 22.10394045], [86.72508858, 22.1039434], [86.72511907, 22.1039914], [86.72506398, 22.10410154], [86.72508213, 22.1041478], [86.72520455, 22.10418011], [86.72541791, 22.10412727], [86.72533663, 22.10416754], [86.72524179, 22.10423871], [86.72541529, 22.10421892], [86.72543404, 22.10420207], [86.72545602, 22.10420174], [86.72547554, 22.10426462], [86.72539395, 22.10440691], [86.72551785, 22.10462638], [86.72588943, 22.10446434], [86.72581189, 22.1043251], [86.7256658, 22.10436376], [86.72560581, 22.10429218], [86.72565316, 22.10421606], [86.72575206, 22.10424313], [86.7257897, 22.10428124], [86.7258898, 22.10445871], [86.72604795, 22.10426215], [86.72612922, 22.10416451], [86.72612993, 22.10415521], [86.72614793, 22.10403516], [86.72608498, 22.1039741], [86.72619522, 22.10403928], [86.7262875, 22.10399677], [86.72630135, 22.10391031], [86.72625477, 22.10388436], [86.72621304, 22.10383367], [86.7261557, 22.1038248], [86.7261244, 22.10375283], [86.72615984, 22.10376723], [86.72624119, 22.10384162], [86.72624767, 22.1038383], [86.72631944, 22.10379788], [86.726381, 22.10391915], [86.72642786, 22.10386619], [86.72649332, 22.10380845], [86.72646197, 22.10365749], [86.72638318, 22.10369244], [86.72632078, 22.10364522], [86.72627832, 22.10356766], [86.72621007, 22.10361261], [86.72613733, 22.10366394], [86.72612511, 22.10366713], [86.72611641, 22.10366705], [86.72613054, 22.10360551], [86.72611087, 22.10357054], [86.72615189, 22.10348616], [86.72623419, 22.10348893], [86.72623365, 22.10349206], [86.72628318, 22.10346977], [86.72634898, 22.10337996], [86.72635379, 22.10336773], [86.72636755, 22.10335235], [86.72643216, 22.10337229], [86.72643068, 22.10347707], [86.72633638, 22.10352917], [86.72645369, 22.10361446], [86.72649884, 22.10381184], [86.72657052, 22.10376823], [86.7266016, 22.10368851], [86.72666148, 22.10365405], [86.72675222, 22.10354164], [86.72671479, 22.10351651], [86.72672882, 22.10341571], [86.72673303, 22.10340325], [86.72677146, 22.10328124], [86.72677177, 22.10327828], [86.72682439, 22.10322168], [86.72690191, 22.103309], [86.72690694, 22.10331497], [86.72685788, 22.10342339], [86.72677771, 22.10354473], [86.72670528, 22.10365363], [86.72670792, 22.10370785], [86.72663086, 22.10378478], [86.72667241, 22.10383698], [86.72711319, 22.10369932], [86.72721669, 22.10367237], [86.72723549, 22.10348537], [86.7271475, 22.10348542], [86.72712874, 22.10341277], [86.72712959, 22.10339719], [86.72734463, 22.10330494], [86.72736109, 22.10331095], [86.7273514, 22.10337531], [86.72725649, 22.10345353], [86.72726214, 22.10345353], [86.72730055, 22.10359274], [86.72734186, 22.10367986], [86.72771642, 22.10361578], [86.72777057, 22.10366697], [86.72818786, 22.10356645], [86.72810529, 22.10357568], [86.72807892, 22.10355264], [86.72802663, 22.10350697], [86.72801352, 22.10341278], [86.72807291, 22.1033775], [86.72814502, 22.10337311], [86.72815333, 22.10336435], [86.72822295, 22.1034261], [86.7282536, 22.10344839], [86.72821259, 22.10351606], [86.7281921, 22.10356184], [86.7285403, 22.1033314], [86.7289782, 22.1030414], [86.7292442, 22.1026705], [86.72933497, 22.10232984], [86.72943632, 22.10227196], [86.72943188, 22.10215519], [86.72935536, 22.10210867], [86.7293108, 22.10205602], [86.72932978, 22.10201618], [86.72931172, 22.10199768], [86.72928159, 22.10192747], [86.72927835, 22.10188556], [86.7292475, 22.10188338], [86.72917755, 22.10192427], [86.72913477, 22.10197686], [86.72912569, 22.10204779], [86.72903047, 22.10205226], [86.72894985, 22.10206568], [86.72889504, 22.10206568], [86.72877554, 22.10210613], [86.72870629, 22.10210141], [86.72863851, 22.10207739], [86.72858197, 22.10210052], [86.72851381, 22.10209584], [86.72844117, 22.10208222], [86.72840201, 22.10207595], [86.7283146, 22.10209603], [86.72825633, 22.10210413], [86.72818597, 22.10212135], [86.72804116, 22.10216467], [86.72799412, 22.10220188], [86.72793943, 22.10222062], [86.72789023, 22.1022489], [86.72781713, 22.10226787], [86.72769465, 22.10224891], [86.72764509, 22.10220189], [86.72759745, 22.10221125], [86.72754579, 22.10227263], [86.72750272, 22.10233984], [86.72745977, 22.10236412], [86.72739553, 22.10234954], [86.72742617, 22.10228217], [86.72743379, 22.10221125], [86.72735868, 22.10220196], [86.72734063, 22.10225164], [86.72729126, 22.1022825], [86.72723744, 22.10229364], [86.72719261, 22.10228028], [86.72715554, 22.10222064], [86.72708025, 22.10222064], [86.72701825, 22.10222064], [86.72694279, 22.10221126], [86.72688072, 22.10219723], [86.72674365, 22.10217599], [86.72658147, 22.10219128], [86.72644409, 22.10219639], [86.72629483, 22.10221176], [86.72630928, 22.10225822], [86.72631563, 22.10231047], [86.7262349, 22.10230522], [86.7261573, 22.10231574], [86.72610865, 22.10233156], [86.726024, 22.10235808], [86.72601581, 22.10229907], [86.72590394, 22.10229644], [86.72587509, 22.10231122], [86.7257747, 22.1022403], [86.72573433, 22.10224268], [86.72566599, 22.10225304], [86.72550718, 22.10224786], [86.72542454, 22.10225823], [86.72530766, 22.10225304], [86.72521763, 22.10223235], [86.72510228, 22.10217091], [86.72501339, 22.10214558], [86.72480882, 22.10209105], [86.72476767, 22.10204584], [86.72467506, 22.10202432], [86.72456935, 22.10198714], [86.72449205, 22.10195334], [86.72437242, 22.10190076], [86.7242289, 22.10182552], [86.72410911, 22.10176545], [86.72401454, 22.1017426], [86.72387477, 22.10169729], [86.72366764, 22.10161707], [86.72351579, 22.10153853], [86.72340995, 22.10148281], [86.72334115, 22.10146583], [86.7232532, 22.10144051], [86.72316249, 22.10141119], [86.72295976, 22.10136559], [86.72286602, 22.10134095], [86.72274202, 22.10130836], [86.72267273, 22.10124404], [86.7227384, 22.10144294], [86.72240189, 22.1015275], [86.72215597, 22.10155593], [86.72222348, 22.10174783], [86.72224101, 22.10175053], [86.72240187, 22.10221967], [86.72240034, 22.10239543]], [[86.72824443, 22.10214927], [86.72827245, 22.10216177], [86.72828034, 22.10218277], [86.72827515, 22.10221686], [86.72825248, 22.10225375], [86.72822511, 22.10227798], [86.72819896, 22.10226693], [86.7281661, 22.10223847], [86.72811056, 22.10225374], [86.72808688, 22.10220401], [86.72818597, 22.10212135], [86.72824443, 22.10214927]], [[86.72264736, 22.10172356], [86.72266897, 22.10174728], [86.72270466, 22.10179974], [86.72265371, 22.10181433], [86.7226438, 22.10181195], [86.72260886, 22.10180659], [86.72264188, 22.10172595], [86.72264736, 22.10172356]], [[86.72599561, 22.10398379], [86.72598824, 22.10397164], [86.72597298, 22.10392119], [86.72598283, 22.10384028], [86.72597025, 22.10379166], [86.72596283, 22.10363753], [86.72589058, 22.10371788], [86.72586033, 22.10368212], [86.7258762, 22.10362524], [86.72581636, 22.10355035], [86.72577963, 22.10356342], [86.72569722, 22.10356325], [86.72561871, 22.10360099], [86.72559582, 22.10366037], [86.72574203, 22.10364609], [86.7257443, 22.10368129], [86.72565578, 22.1037307], [86.7256015, 22.10380167], [86.7255987, 22.10380167], [86.72551559, 22.10378104], [86.72549949, 22.1036916], [86.72549692, 22.10368896], [86.72546771, 22.1036196], [86.72532425, 22.10357107], [86.72525703, 22.10366247], [86.72518176, 22.10364784], [86.72527309, 22.10355318], [86.72547408, 22.10361403], [86.72553108, 22.10356175], [86.72552272, 22.10349796], [86.72558425, 22.10348179], [86.72570693, 22.10351829], [86.7257665, 22.10349474], [86.72587429, 22.10361452], [86.7259642, 22.10361873], [86.72597046, 22.10378888], [86.72603471, 22.10378281], [86.7260755, 22.1039685], [86.72607737, 22.10396961], [86.72601431, 22.10402673], [86.72599561, 22.10398379]], [[86.72563851, 22.10328443], [86.72559704, 22.10325329], [86.72560319, 22.10318674], [86.72556808, 22.10314505], [86.7256085, 22.10318675], [86.72569415, 22.10322284], [86.72564688, 22.10328186], [86.72552252, 22.10349647], [86.72552207, 22.10349301], [86.72563851, 22.10328443]], [[86.72538748, 22.10316672], [86.72535092, 22.10321025], [86.72532199, 22.10330126], [86.72532395, 22.10330642], [86.72526115, 22.10334312], [86.72519988, 22.10336467], [86.72518899, 22.10336468], [86.72520674, 22.10323401], [86.72539357, 22.10306134], [86.72551573, 22.10309104], [86.72553581, 22.10311176], [86.72548202, 22.10312354], [86.72538748, 22.10316672]], [[86.72472426, 22.10371075], [86.72471196, 22.10371083], [86.72470581, 22.10371087], [86.72469679, 22.10365019], [86.72478627, 22.10362071], [86.7248562, 22.10368034], [86.72477872, 22.1037287], [86.72472426, 22.10371075]], [[86.72495971, 22.10276208], [86.72503083, 22.10278753], [86.7250339, 22.10278752], [86.72496369, 22.10282188], [86.72493061, 22.10283277], [86.72494219, 22.10282763], [86.72495971, 22.10276208]], [[86.72462488, 22.10272262], [86.7245049, 22.10277555], [86.72446234, 22.10273895], [86.72454854, 22.10269152], [86.72467413, 22.10263852], [86.72471382, 22.10267488], [86.72476481, 22.10274498], [86.72470464, 22.10267207], [86.72462488, 22.10272262]], [[86.72370058, 22.10336626], [86.72384053, 22.10338715], [86.72388401, 22.10345969], [86.72387665, 22.10347141], [86.72374275, 22.10344787], [86.72370058, 22.10336626]], [[86.72314799, 22.10347844], [86.72320134, 22.10347694], [86.72320101, 22.10348331], [86.72327033, 22.10352285], [86.72327369, 22.10352275], [86.72324539, 22.10356856], [86.7232338, 22.1035819], [86.72316931, 22.10355496], [86.72306643, 22.10355612], [86.72312249, 22.10355303], [86.72314799, 22.10347844]], [[86.72323658, 22.1032232], [86.7232759, 22.10328396], [86.72326882, 22.10329817], [86.72321462, 22.10329042], [86.7232151, 22.10328348], [86.72323658, 22.1032232]], [[86.72324154, 22.10303648], [86.72329053, 22.10296501], [86.72334757, 22.10298835], [86.72335248, 22.10305978], [86.72338833, 22.10311051], [86.72338487, 22.1031136], [86.7234679, 22.10317072], [86.72345447, 22.10317699], [86.72334266, 22.1031507], [86.72324752, 22.10303942], [86.72324154, 22.10303648]], [[86.7234915, 22.10294985], [86.72345342, 22.10288879], [86.72339983, 22.10283396], [86.72339654, 22.10283681], [86.72345582, 22.10278287], [86.7234419, 22.10269071], [86.72348437, 22.10276603], [86.72353107, 22.10279731], [86.7235425, 22.10289186], [86.72357464, 22.10296795], [86.72353588, 22.10297895], [86.72338957, 22.10310941], [86.72353322, 22.10297311], [86.7234915, 22.10294985]], [[86.7237274, 22.10279203], [86.72375911, 22.10271314], [86.72384124, 22.10272707], [86.72386506, 22.10280617], [86.72379492, 22.10285181], [86.72366558, 22.10292038], [86.7237667, 22.10286039], [86.7237274, 22.10279203]], [[86.72338899, 22.10269279], [86.72339142, 22.10265658], [86.72343252, 22.10262894], [86.72344797, 22.10262344], [86.72346005, 22.10262347], [86.72346818, 22.1025488], [86.7234886, 22.10247466], [86.72355002, 22.10242658], [86.72349761, 22.10247467], [86.72354914, 22.1025131], [86.72349093, 22.10261248], [86.72343939, 22.10267412], [86.72343887, 22.10267066], [86.72338899, 22.10269279]], [[86.72353752, 22.10234963], [86.72354628, 22.10235233], [86.7235719, 22.10240651], [86.72356311, 22.10241457], [86.72345444, 22.10240924], [86.72353752, 22.10234963]], [[86.72273754, 22.10306632], [86.72282162, 22.10307144], [86.72289707, 22.10307323], [86.72290338, 22.10307313], [86.72299083, 22.10311083], [86.722962, 22.10314486], [86.72284732, 22.10314995], [86.7227831, 22.10313238], [86.72275001, 22.10315149], [86.72277365, 22.10313246], [86.72273754, 22.10306632]], [[86.72425236, 22.10343799], [86.72425651, 22.10349595], [86.72420158, 22.10349639], [86.72414899, 22.10344837], [86.72415467, 22.10340317], [86.72415307, 22.10342925], [86.72425236, 22.10343799]], [[86.725807, 22.1023744], [86.72572732, 22.10241385], [86.7257266, 22.1024753], [86.72568041, 22.10251356], [86.72566614, 22.10250631], [86.72565668, 22.10250389], [86.72565782, 22.10242318], [86.72571389, 22.10234177], [86.72579504, 22.10230543], [86.72580644, 22.10230544], [86.7258707, 22.10231347], [86.72586403, 22.10231688], [86.725807, 22.1023744]]]]}, "properties": {"site_id": "FCF_Soova_EMU_Mayurbhanj_5", "name": "FCF_Soova_EMU_Mayurbhanj_5", "n_member_parcels": 3}}]}