{"type": "FeatureCollection", "features": [{"type": "Feature", "geometry": {"type": "MultiPolygon", "coordinates": [[[[86.62480585, 22.02000716], [86.62481554, 22.02015318], [86.62481431, 22.02021091], [86.62486113, 22.02019385], [86.62487325, 22.02023146], [86.62486547, 22.02029022], [86.62481922, 22.02032514], [86.6247691, 22.02038513], [86.62496816, 22.02038513], [86.62500126, 22.02031114], [86.62503858, 22.02031813], [86.62510444, 22.02031813], [86.62516859, 22.02033567], [86.62569836, 22.02029022], [86.62571142, 22.02022118], [86.62580481, 22.02021846], [86.6258274, 22.02024523], [86.62614357, 22.02022461], [86.62612334, 22.0201474], [86.62609063, 22.01984193], [86.62607741, 22.01959901], [86.62567113, 22.01962335], [86.62567039, 22.01963988], [86.62570342, 22.01966532], [86.62569358, 22.01971362], [86.6256404, 22.01968776], [86.62562372, 22.01964939], [86.62563618, 22.01962409], [86.62607461, 22.01959901], [86.62609594, 22.01957724], [86.62614128, 22.01956796], [86.62616992, 22.01959901], [86.62617732, 22.01965894], [86.62620977, 22.01963672], [86.62628356, 22.01962724], [86.62628527, 22.01958966], [86.62630139, 22.0195403], [86.62628946, 22.0194978], [86.62627055, 22.01943089], [86.626301, 22.01942345], [86.626352, 22.01937248], [86.62639337, 22.01932824], [86.62646248, 22.0193508], [86.62655343, 22.0193508], [86.6265224, 22.01921636], [86.62652375, 22.01914425], [86.62655018, 22.01914612], [86.62661151, 22.01918009], [86.62663495, 22.01910539], [86.62663461, 22.01910451], [86.62666282, 22.01908663], [86.62673595, 22.01908986], [86.62671361, 22.01900829], [86.62669542, 22.01894315], [86.62671947, 22.01889479], [86.62672524, 22.01883516], [86.62671831, 22.01879123], [86.62670294, 22.01878084], [86.62667568, 22.01877395], [86.62665335, 22.01874494], [86.62666821, 22.01871973], [86.62670609, 22.01870146], [86.62673295, 22.01869487], [86.62688274, 22.01865738], [86.62688088, 22.01856364], [86.62678492, 22.01859266], [86.6266734, 22.01858684], [86.62662057, 22.01855211], [86.6266404, 22.01848935], [86.62669221, 22.01845561], [86.62680536, 22.01845561], [86.62688652, 22.01846121], [86.62699648, 22.01844444], [86.6269878, 22.01840013], [86.62698568, 22.01831863], [86.62699169, 22.01823388], [86.62696375, 22.01820785], [86.6269575, 22.018131], [86.62692176, 22.01808578], [86.62685131, 22.01806588], [86.62675941, 22.01802158], [86.62667358, 22.01803628], [86.62659604, 22.01808079], [86.62654022, 22.01809577], [86.62649309, 22.01807581], [86.62649311, 22.01804119], [86.62642565, 22.01803137], [86.62636386, 22.01803137], [86.62628093, 22.01804119], [86.62621064, 22.01810078], [86.6260978, 22.01815131], [86.62603005, 22.01814622], [86.6259851, 22.01814622], [86.6259943, 22.01805598], [86.62597878, 22.01800695], [86.62593115, 22.01802647], [86.62588726, 22.01807777], [86.62588027, 22.01815564], [86.62585626, 22.01816247], [86.62582584, 22.01811484], [86.6258568, 22.01806102], [86.62586382, 22.01800785], [86.62583375, 22.01797821], [86.62584089, 22.01791955], [86.62583959, 22.017883], [86.62582965, 22.01782287], [86.62579622, 22.01776062], [86.62581282, 22.01773883], [86.62579467, 22.0176285], [86.62577612, 22.01757739], [86.62573121, 22.01758038], [86.62563362, 22.01752689], [86.62552698, 22.01749161], [86.62551475, 22.0177852], [86.62553372, 22.01796332], [86.62553781, 22.01807338], [86.62557517, 22.01817404], [86.62555462, 22.0181957], [86.62550798, 22.01823233], [86.62550617, 22.01822866], [86.6255014, 22.01827714], [86.62547592, 22.01826135], [86.62542485, 22.0182898], [86.62533108, 22.01830887], [86.62519794, 22.01835691], [86.62520728, 22.0184091], [86.62522465, 22.01847551], [86.62524248, 22.01854019], [86.62521593, 22.01856578], [86.62515427, 22.01859728], [86.62513463, 22.01865226], [86.62511494, 22.01870503], [86.62507922, 22.01875549], [86.62507551, 22.01880354], [86.62507358, 22.01887053], [86.62510992, 22.01909093], [86.62507778, 22.0191201], [86.62505996, 22.01909093], [86.62504924, 22.01901848], [86.6250528, 22.01896988], [86.62503035, 22.01892302], [86.62500217, 22.01887053], [86.62498643, 22.01882778], [86.62496869, 22.01880959], [86.62493267, 22.01881564], [86.62491901, 22.01892613], [86.62495072, 22.01897302], [86.62494615, 22.01902361], [86.62497338, 22.01909093], [86.62496132, 22.01914103], [86.62493182, 22.01918233], [86.62488249, 22.01920548], [86.62478056, 22.01921211], [86.62469692, 22.01920548], [86.62479517, 22.0196117], [86.62480585, 22.02000716]], [[86.62659695, 22.01900729], [86.62658451, 22.01901775], [86.62654848, 22.01901251], [86.62654325, 22.01901077], [86.62652275, 22.01897932], [86.62652843, 22.01897628], [86.62654404, 22.0189458], [86.62655914, 22.01894748], [86.62656246, 22.01894748], [86.62658886, 22.01897799], [86.62661782, 22.01906116], [86.62659695, 22.01900729]], [[86.62637205, 22.01903706], [86.62641063, 22.01905837], [86.6263919, 22.01909626], [86.62637666, 22.01910356], [86.62635186, 22.01908898], [86.62634413, 22.01906553], [86.62637035, 22.01903706], [86.6264121, 22.01902128], [86.62637205, 22.01903706]], [[86.62556296, 22.01834557], [86.62563754, 22.01830256], [86.62563224, 22.01837274], [86.6255898, 22.01840564], [86.62552826, 22.01843331], [86.62550621, 22.01838367], [86.62555781, 22.01833546], [86.62556296, 22.01834557]]], [[[86.61807652, 22.01971979], [86.61823918, 22.01976196], [86.61829355, 22.01977065], [86.61831227, 22.0196931], [86.61839094, 22.0196931], [86.61839881, 22.0196931], [86.61842713, 22.01971877], [86.61837933, 22.01978374], [86.61842295, 22.0197857], [86.61852973, 22.0197857], [86.61847752, 22.01961856], [86.61858415, 22.01954018], [86.61872376, 22.01954017], [86.61885059, 22.01952602], [86.61890998, 22.01956855], [86.61902144, 22.01967616], [86.61914401, 22.01963288], [86.61930307, 22.01966475], [86.61929578, 22.01966956], [86.61940639, 22.01964792], [86.61943423, 22.01969626], [86.6200239, 22.01983672], [86.6199923, 22.01979083], [86.6200186, 22.01973939], [86.62004196, 22.01968587], [86.62002199, 22.0196396], [86.62000406, 22.01957625], [86.62001576, 22.01950583], [86.62005093, 22.01948567], [86.62009661, 22.01952615], [86.62012038, 22.01959418], [86.62008944, 22.019658], [86.62008797, 22.01971406], [86.62007561, 22.01977141], [86.62008185, 22.01979733], [86.62017018, 22.0198301], [86.62024509, 22.01981366], [86.62041767, 22.0198235], [86.6205055, 22.01982021], [86.62057959, 22.0198202], [86.6207151, 22.01978755], [86.6207601, 22.01981036], [86.62070487, 22.0198566], [86.62060359, 22.01989016], [86.62050368, 22.01991391], [86.62046307, 22.01998101], [86.6206334, 22.0200315], [86.62080726, 22.02007477], [86.62091877, 22.02012139], [86.62093317, 22.02006089], [86.62090124, 22.01995921], [86.62087616, 22.01995418], [86.62086481, 22.01987469], [86.62095214, 22.01989439], [86.62100131, 22.0198502], [86.62105833, 22.01976342], [86.62106228, 22.01976342], [86.62113953, 22.01979691], [86.6211053, 22.01985019], [86.621068, 22.01988945], [86.6211237, 22.01992056], [86.62130461, 22.01992992], [86.62136039, 22.01985217], [86.62144, 22.01983568], [86.62151926, 22.01988482], [86.6215117, 22.01999193], [86.62140466, 22.02004332], [86.62135136, 22.02003758], [86.62131345, 22.02006634], [86.62130088, 22.02018766], [86.62135397, 22.02020682], [86.62163085, 22.02016859], [86.6218027, 22.0200445], [86.62196186, 22.02004243], [86.62207832, 22.01998774], [86.62212419, 22.01999226], [86.62210614, 22.01988279], [86.62204419, 22.01992345], [86.62203363, 22.01992309], [86.62201778, 22.01992255], [86.62197143, 22.01990074], [86.62196238, 22.01989468], [86.6219623, 22.01981804], [86.62191776, 22.01977495], [86.62189942, 22.01969542], [86.62190031, 22.01968736], [86.62194169, 22.01964567], [86.62197847, 22.01965454], [86.6220786, 22.01975222], [86.6220785, 22.01955412], [86.62200405, 22.01949079], [86.62167318, 22.01930032], [86.62149732, 22.01921268], [86.62114795, 22.01906141], [86.62105582, 22.01901281], [86.62105901, 22.01901221], [86.62095398, 22.01895337], [86.62089279, 22.01892461], [86.62071681, 22.01876098], [86.62069262, 22.01873307], [86.62066529, 22.01876591], [86.62062623, 22.0188849], [86.62065917, 22.018764], [86.62068863, 22.01872754], [86.62056559, 22.01866664], [86.62031009, 22.01858074], [86.6202033, 22.01861487], [86.6202292, 22.0186972], [86.62027035, 22.01884041], [86.6201579, 22.01889509], [86.62011333, 22.01896496], [86.62010084, 22.01915766], [86.62016615, 22.01919237], [86.62012674, 22.01930179], [86.62012701, 22.01930511], [86.62007593, 22.01938101], [86.61999298, 22.01936539], [86.61999176, 22.01923242], [86.61988155, 22.0192526], [86.61976456, 22.01923747], [86.61967286, 22.01917253], [86.61966532, 22.01908916], [86.61966915, 22.01907463], [86.61973207, 22.01901704], [86.61979724, 22.01909887], [86.61982195, 22.01914782], [86.62003334, 22.01914288], [86.62009643, 22.01915766], [86.62010382, 22.01905273], [86.62010857, 22.01896027], [86.62014983, 22.01889971], [86.62009964, 22.01884809], [86.62009409, 22.01876187], [86.62007508, 22.01866081], [86.62006144, 22.01862768], [86.62012227, 22.01853398], [86.6200287, 22.0185145], [86.61998494, 22.01841325], [86.61990861, 22.01834785], [86.61966629, 22.01824747], [86.61963379, 22.0186381], [86.61966905, 22.01866665], [86.6196942, 22.01875854], [86.61961844, 22.01882054], [86.61953638, 22.0188174], [86.61954067, 22.01871458], [86.61963107, 22.0186381], [86.61966543, 22.01824384], [86.61935099, 22.01815571], [86.61934351, 22.01832402], [86.61941571, 22.01858929], [86.61942801, 22.01858929], [86.61946134, 22.01859366], [86.61946504, 22.01862458], [86.61942571, 22.01862459], [86.61933953, 22.01832214], [86.61926305, 22.01835718], [86.61921659, 22.01833749], [86.61917959, 22.01831148], [86.61904645, 22.01865352], [86.61917703, 22.01831148], [86.61910817, 22.01829139], [86.61904737, 22.01824387], [86.61903355, 22.01819046], [86.61907794, 22.0181116], [86.61897066, 22.0180874], [86.61869998, 22.01803088], [86.61871387, 22.01819793], [86.61876013, 22.01821913], [86.61871218, 22.0182689], [86.61870768, 22.01814731], [86.61869971, 22.01802967], [86.61836259, 22.01798984], [86.61821865, 22.01794906], [86.618128, 22.0178817], [86.61801557, 22.0179146], [86.61801443, 22.01790856], [86.61741349, 22.01797626], [86.61740228, 22.0181139], [86.61750993, 22.01812783], [86.61752536, 22.01818389], [86.61752149, 22.01823337], [86.61735911, 22.01824048], [86.61732205, 22.01852393], [86.61741833, 22.01850907], [86.61752631, 22.0185388], [86.61750466, 22.01867437], [86.61742061, 22.01872788], [86.61730432, 22.01872789], [86.61733276, 22.01944887], [86.61791688, 22.01965454], [86.61807652, 22.01971979]], [[86.62016947, 22.01936872], [86.62016987, 22.01930179], [86.62019367, 22.01925905], [86.62023569, 22.01928199], [86.62020621, 22.01936196], [86.62019018, 22.01942676], [86.62020843, 22.0194894], [86.62014235, 22.01949644], [86.62013239, 22.01945097], [86.62012701, 22.01930521], [86.62013319, 22.01938228], [86.62016947, 22.01936872]], [[86.61914584, 22.01872976], [86.619115, 22.01876061], [86.61904482, 22.01874206], [86.61902829, 22.01870426], [86.61902683, 22.0187049], [86.61904616, 22.01865428], [86.61912892, 22.0186662], [86.61914584, 22.01872976]], [[86.62165993, 22.01953336], [86.6217404, 22.01956422], [86.62174845, 22.01957974], [86.6217669, 22.01964762], [86.62172995, 22.01971655], [86.62172489, 22.01971655], [86.62162655, 22.01973261], [86.62154011, 22.01969316], [86.62155086, 22.01959013], [86.62165993, 22.01953336]], [[86.62095546, 22.01912321], [86.62101985, 22.01922232], [86.62103944, 22.01933942], [86.62100813, 22.01938618], [86.62096723, 22.01938618], [86.62093263, 22.01927791], [86.62094614, 22.01918735], [86.62086188, 22.01918736], [86.62084185, 22.01910368], [86.6209085, 22.01904087], [86.62103402, 22.01901697], [86.62090944, 22.01904567], [86.62095546, 22.01912321]], [[86.62066563, 22.01902299], [86.62066379, 22.01910124], [86.62070887, 22.01917864], [86.62064286, 22.01922246], [86.62068872, 22.01930001], [86.6207321, 22.01931535], [86.62074788, 22.01936345], [86.62080607, 22.01937699], [86.62079697, 22.01946682], [86.62082154, 22.01959034], [86.62082702, 22.01967528], [86.62084787, 22.01978833], [86.62082543, 22.01980428], [86.62078275, 22.01964075], [86.62072507, 22.01954545], [86.62069568, 22.0194324], [86.62069342, 22.01942743], [86.62070173, 22.01934554], [86.62063611, 22.01922233], [86.62061511, 22.01911117], [86.62061518, 22.01910901], [86.62058791, 22.01901969], [86.62060504, 22.01896268], [86.62061076, 22.01894168], [86.62069039, 22.01897208], [86.62066563, 22.01902299]], [[86.62035424, 22.01879485], [86.62037223, 22.01883553], [86.62034277, 22.01890432], [86.62038309, 22.01891823], [86.62039594, 22.01891823], [86.62040284, 22.01900274], [86.62033096, 22.01901701], [86.62030675, 22.01896026], [86.62027215, 22.01884385], [86.62031152, 22.01879035], [86.62035424, 22.01879485]], [[86.61956743, 22.01937476], [86.61962038, 22.01940641], [86.61960706, 22.01935954], [86.61969115, 22.01926775], [86.61973849, 22.01929253], [86.61974839, 22.01937225], [86.61971439, 22.01939355], [86.61941892, 22.01958837], [86.6196534, 22.01943225], [86.61956743, 22.01937476]], [[86.61953866, 22.01905092], [86.61953974, 22.01901307], [86.61955877, 22.01898759], [86.61958011, 22.01898926], [86.61959551, 22.01901478], [86.61956853, 22.01905524], [86.61956185, 22.01907138], [86.61956856, 22.0190538], [86.61953866, 22.01905092]], [[86.61942993, 22.01945395], [86.61939044, 22.01942363], [86.61940224, 22.01935955], [86.61947142, 22.01932169], [86.61947264, 22.0193181], [86.61955063, 22.01936471], [86.6195086, 22.01946703], [86.61942993, 22.01945395]], [[86.61941666, 22.01898087], [86.61939187, 22.0189526], [86.61941529, 22.0189232], [86.61943938, 22.0189039], [86.61946505, 22.01891352], [86.6194689, 22.01900965], [86.61946624, 22.01897572], [86.61941666, 22.01898087]], [[86.61949816, 22.01899435], [86.61951313, 22.01899943], [86.61950388, 22.01909029], [86.61953902, 22.01911382], [86.61947626, 22.01907592], [86.61945019, 22.01904594], [86.6194689, 22.01900965], [86.61949816, 22.01899435]], [[86.61945887, 22.01923681], [86.61943249, 22.01923501], [86.61941188, 22.0191797], [86.61941791, 22.01913733], [86.61950268, 22.0191327], [86.61953215, 22.01914717], [86.61953469, 22.01914068], [86.6194977, 22.01924446], [86.61950482, 22.01922353], [86.61945887, 22.01923681]], [[86.61864137, 22.01889748], [86.61868855, 22.01891816], [86.61867639, 22.01895488], [86.61862794, 22.0189655], [86.61858959, 22.01892337], [86.61859745, 22.01889235], [86.61854821, 22.01890211], [86.61859078, 22.01889235], [86.61878417, 22.01880984], [86.61862232, 22.01887984], [86.61864137, 22.01889748]], [[86.61844304, 22.01899231], [86.61840411, 22.01897887], [86.61840184, 22.01897887], [86.61836301, 22.01892599], [86.6183182, 22.018926], [86.61830151, 22.01889493], [86.61831561, 22.01885426], [86.61837667, 22.0188975], [86.618426, 22.01889493], [86.61846681, 22.01892077], [86.6184677, 22.01892057], [86.618474, 22.01894961], [86.61844304, 22.01899231]], [[86.6181453, 22.01836882], [86.61821477, 22.01839875], [86.61818875, 22.01847205], [86.61811846, 22.01846081], [86.61804676, 22.01808017], [86.61810627, 22.01837253], [86.6181453, 22.01836882]]], [[[86.6185399, 22.02098296], [86.61843581, 22.02082658], [86.61839543, 22.02085715], [86.61833855, 22.02085277], [86.61821553, 22.02085277], [86.61806825, 22.02089697], [86.61793417, 22.0209059], [86.61784187, 22.02089252], [86.61765089, 22.02092389], [86.61759059, 22.0210014], [86.61765646, 22.02102463], [86.61763811, 22.02113398], [86.61755476, 22.02117301], [86.61750268, 22.02117301], [86.61749319, 22.02103397], [86.61758819, 22.02101067], [86.6175882, 22.02100255], [86.6176481, 22.02092384], [86.6173685, 22.0209419], [86.61710633, 22.02097669], [86.61704307, 22.02097669], [86.61705225, 22.02103318], [86.61702803, 22.0210509], [86.6169963, 22.0210376], [86.61699831, 22.02098528], [86.61683886, 22.02100691], [86.61683086, 22.02110275], [86.6168063, 22.02120104], [86.61681236, 22.02129427], [86.61680616, 22.02145591], [86.61682345, 22.02148897], [86.6168772, 22.0217947], [86.61690313, 22.02185856], [86.61727998, 22.02174792], [86.61729297, 22.02166011], [86.61729583, 22.02161308], [86.61732078, 22.02155565], [86.61738085, 22.02155281], [86.61741515, 22.0215191], [86.61746082, 22.02155521], [86.61746735, 22.02157558], [86.61743614, 22.02160437], [86.61740017, 22.02159569], [86.61739659, 22.02163353], [86.61739251, 22.02170511], [86.6173986, 22.02172641], [86.61738034, 22.02174792], [86.61733848, 22.02178526], [86.61736078, 22.02186502], [86.61739597, 22.02192168], [86.61745775, 22.02164006], [86.61758179, 22.02149443], [86.61761979, 22.02141825], [86.61769678, 22.02145571], [86.6177098, 22.02153833], [86.61775715, 22.02159814], [86.61779862, 22.02167458], [86.61782243, 22.02171688], [86.61787713, 22.02174141], [86.61789662, 22.02178077], [86.61786448, 22.02187814], [86.61795453, 22.02192167], [86.6180625, 22.02195312], [86.61814903, 22.02183914], [86.6182051, 22.02180714], [86.61823992, 22.02181032], [86.61831574, 22.02184739], [86.61832754, 22.02187196], [86.61835386, 22.02199127], [86.6182173, 22.022135], [86.61799936, 22.02223663], [86.61792572, 22.02221606], [86.61781326, 22.02224351], [86.61762188, 22.02229909], [86.61760262, 22.02229209], [86.61748942, 22.02224352], [86.61768258, 22.02275429], [86.6178437, 22.02271474], [86.61788538, 22.02283468], [86.61812134, 22.02277822], [86.61872055, 22.02263689], [86.61868336, 22.02241296], [86.6187641, 22.02230983], [86.61868895, 22.02230609], [86.61864328, 22.02220241], [86.61869292, 22.02214226], [86.61874259, 22.02214934], [86.61876882, 22.02209861], [86.61880407, 22.02201786], [86.6188519, 22.02179054], [86.61884926, 22.02179033], [86.61905661, 22.02164233], [86.61911452, 22.02160459], [86.61909983, 22.02174542], [86.6191219, 22.02171052], [86.61918929, 22.02166132], [86.6192236, 22.02167729], [86.61923009, 22.0217487], [86.61922762, 22.02176189], [86.61918597, 22.02180856], [86.61913091, 22.02174871], [86.61909991, 22.02174871], [86.61909542, 22.02182204], [86.61908858, 22.02202445], [86.61916193, 22.02204932], [86.61920673, 22.02204282], [86.61928476, 22.02199127], [86.61934007, 22.02201051], [86.61935245, 22.02205437], [86.61934897, 22.02208499], [86.61933643, 22.02214029], [86.61940704, 22.02217716], [86.61958199, 22.02217208], [86.61964278, 22.02219944], [86.61963655, 22.02223224], [86.6196332, 22.02234983], [86.61964981, 22.02234983], [86.61966355, 22.02235252], [86.61967067, 22.02235252], [86.61970582, 22.02235521], [86.61967688, 22.02238502], [86.61967162, 22.02247127], [86.61971854, 22.02267561], [86.61968213, 22.02282656], [86.6197789, 22.0228139], [86.61993855, 22.02278376], [86.61999752, 22.02273874], [86.62000269, 22.02273874], [86.62011506, 22.0227197], [86.62014574, 22.02268209], [86.62017446, 22.02262678], [86.62015099, 22.02240968], [86.62049076, 22.02226291], [86.62067651, 22.02221696], [86.62076912, 22.02208528], [86.62091337, 22.02191886], [86.62096178, 22.02177481], [86.62093906, 22.02175813], [86.62092862, 22.02170072], [86.62095278, 22.02166857], [86.62097349, 22.02166061], [86.6209906, 22.02148352], [86.62092064, 22.02126281], [86.62098759, 22.02113399], [86.62108574, 22.02095128], [86.6210999, 22.02081359], [86.62058689, 22.02103673], [86.62009525, 22.02119263], [86.61971994, 22.02122302], [86.61957728, 22.02122256], [86.61918789, 22.02127132], [86.61898697, 22.02129114], [86.61896412, 22.02140033], [86.61897438, 22.02151759], [86.61894696, 22.0215996], [86.61886825, 22.02163475], [86.61884928, 22.02156482], [86.61876266, 22.02150057], [86.6186682, 22.02145424], [86.61861718, 22.02140444], [86.61860551, 22.02133921], [86.61871841, 22.02131909], [86.61864294, 22.02127923], [86.61864747, 22.02121648], [86.61876284, 22.02125949], [86.61861173, 22.02115496], [86.61854419, 22.02122174], [86.61861203, 22.02115115], [86.6185399, 22.02098296]], [[86.6181217, 22.02162429], [86.61807807, 22.02160392], [86.61806417, 22.02154959], [86.61814945, 22.02144763], [86.61820303, 22.02143957], [86.61824282, 22.02146383], [86.61826587, 22.02147161], [86.61819128, 22.02162722], [86.6181217, 22.02162429]], [[86.61833026, 22.02125555], [86.61833333, 22.02119712], [86.61843973, 22.02118557], [86.61847713, 22.02128805], [86.61844169, 22.0213231], [86.6183398, 22.02131737], [86.61828615, 22.0214293], [86.61834218, 22.02130479], [86.61833026, 22.02125555]], [[86.61877844, 22.02188234], [86.61873379, 22.02192127], [86.61869729, 22.0218963], [86.61866491, 22.02183955], [86.61865074, 22.02178373], [86.61872759, 22.02176269], [86.6188168, 22.02178743], [86.61883287, 22.02178899], [86.61881387, 22.02178743], [86.61877844, 22.02188234]]]]}, "properties": {"site_id": "FCF_Soova_EMU_Mayurbhanj_10", "name": "FCF_Soova_EMU_Mayurbhanj_10", "n_member_parcels": 3}}]}