{"type": "FeatureCollection", "features": [{"type": "Feature", "geometry": {"type": "Polygon", "coordinates": [[[77.95323411537801, 16.456822508305272], [77.95323753373268, 16.457048207033406], [77.95347142396005, 16.45704490824363], [77.95346800533561, 16.45681920956324], [77.95323411537801, 16.456822508305272]]]}, "properties": {"name": "SFV-T0236", "emu_id": "SEG01", "typicality_percentile": 81.2, "pool_rank": 1, "selection_rationale": "highest-scoring position in its site region \u2014 camera trap pool (1 of 8)"}}, {"type": "Feature", "geometry": {"type": "Polygon", "coordinates": [[[77.95792559968247, 16.457659275051515], [77.95792902364671, 16.457884972802066], [77.95816291388246, 16.45788166861356], [77.95815948964844, 16.457655970910817], [77.95792559968247, 16.457659275051515]]]}, "properties": {"name": "SFV-T0559", "emu_id": "EMU_ANCHOR_Fruit_Forest", "typicality_percentile": 99.3, "pool_rank": 2, "selection_rationale": "highest-scoring position in its site region \u2014 camera trap pool (2 of 8)"}}, {"type": "Feature", "geometry": {"type": "Polygon", "coordinates": [[[77.95208516762474, 16.458193191827146], [77.9520885849514, 16.458418890760626], [77.95232247706488, 16.458415592986455], [77.95231905946842, 16.458189894100695], [77.95208516762474, 16.458193191827146]]]}, "properties": {"name": "SFV-T0109", "emu_id": "SEG02", "typicality_percentile": 100.0, "pool_rank": 3, "selection_rationale": "highest-scoring position in its site region \u2014 camera trap pool (3 of 8)"}}, {"type": "Feature", "geometry": {"type": "Polygon", "coordinates": [[[77.9532751391645, 16.4595308926769], [77.95327855816109, 16.45975659133849], [77.95351245162598, 16.459753291975908], [77.95350903235958, 16.459527593362047], [77.9532751391645, 16.4595308926769]]]}, "properties": {"name": "SFV-T0248", "emu_id": "SEG03", "typicality_percentile": 100.0, "pool_rank": 4, "selection_rationale": "highest-scoring position in its site region \u2014 camera trap pool (4 of 8)"}}, {"type": "Feature", "geometry": {"type": "Polygon", "coordinates": [[[77.95819373439991, 16.459912947688622], [77.95819715916976, 16.460138645335885], [77.95843105204993, 16.460135340408854], [77.95842762701027, 16.4599096428094], [77.95819373439991, 16.459912947688622]]]}, "properties": {"name": "SFV-T0588", "emu_id": "EMU_ANCHOR_Wetland", "typicality_percentile": 100.0, "pool_rank": 5, "selection_rationale": "highest-scoring position in its site region \u2014 camera trap pool (5 of 8)"}}, {"type": "Feature", "geometry": {"type": "Polygon", "coordinates": [[[77.95307201638248, 16.46156547991562], [77.95307543559066, 16.461791178575034], [77.9533093315376, 16.461787879043282], [77.95330591205956, 16.461562180431603], [77.95307201638248, 16.46156547991562]]]}, "properties": {"name": "SFV-T0226", "emu_id": "SEG04", "typicality_percentile": 100.0, "pool_rank": 6, "selection_rationale": "highest-scoring position in its site region \u2014 camera trap pool (6 of 8)"}}, {"type": "Feature", "geometry": {"type": "Polygon", "coordinates": [[[77.95512575742038, 16.45815030107228], [77.95512917825432, 16.45837599938516], [77.9553630696723, 16.458372698225794], [77.95535964856856, 16.458146999960675], [77.95512575742038, 16.45815030107228]]]}, "properties": {"name": "SFV-T0416", "emu_id": "SEG01", "typicality_percentile": 100.0, "pool_rank": 7, "selection_rationale": "highest-scoring position in its site region \u2014 camera trap pool (7 of 8)"}}, {"type": "Feature", "geometry": {"type": "Polygon", "coordinates": [[[77.95815606546799, 16.45743027320253], [77.95815948964844, 16.457655970910817], [77.95839337956082, 16.45765266650974], [77.9583899551106, 16.457426968849266], [77.95815606546799, 16.45743027320253]]]}, "properties": {"name": "SFV-T0577", "emu_id": "EMU_ANCHOR_Fruit_Forest", "typicality_percentile": 100.0, "pool_rank": 8, "selection_rationale": "highest-scoring position in its site region \u2014 camera trap pool (8 of 8)"}}]}