{"type": "FeatureCollection", "features": [{"type": "Feature", "geometry": {"type": "Polygon", "coordinates": [[[73.81505514609253, 18.64161882841764, 0.0], [73.81505357927743, 18.64184473065309, 0.0], [73.81529055575646, 18.641846224110196, 0.0], [73.8152921222584, 18.641620321855356, 0.0], [73.81505514609253, 18.64161882841764, 0.0]]]}, "properties": {"name": "PMP-T0899", "emu_id": "EMU_Deccan_forest", "typicality_percentile": 97.4, "pool_rank": 1, "selection_rationale": "highest-scoring position in its site region \u2014 camera trap pool (1 of 4)"}}, {"type": "Feature", "geometry": {"type": "Polygon", "coordinates": [[[73.80982593807005, 18.643844915084845, 0.0], [73.80982436413976, 18.64407081683716, 0.0], [73.81006134325564, 18.644072317057088, 0.0], [73.81006291687271, 18.643846415285296, 0.0], [73.80982593807005, 18.643844915084845, 0.0]]]}, "properties": {"name": "PMP-T0256", "emu_id": "EMU_Narmada_valley", "typicality_percentile": 100.0, "pool_rank": 2, "selection_rationale": "highest-scoring position in its site region \u2014 camera trap pool (2 of 4)"}}, {"type": "Feature", "geometry": {"type": "Polygon", "coordinates": [[[73.81127453264511, 18.64001357918448, 0.0], [73.81127296097704, 18.640239481147955, 0.0], [73.8115099349042, 18.64024097924563, 0.0], [73.8115114448479, 18.640023905959357, 0.0], [73.81147882770367, 18.64001487069614, 0.0], [73.81127453264511, 18.64001357918448, 0.0]]]}, "properties": {"name": "PMP-T0435", "emu_id": "EMU_Deccan_forest", "typicality_percentile": 100.0, "pool_rank": 3, "selection_rationale": "highest-scoring position in its site region \u2014 camera trap pool (3 of 4)"}}, {"type": "Feature", "geometry": {"type": "Polygon", "coordinates": [[[73.81293334841605, 18.64002405946322, 0.0], [73.81293177893991, 18.64024996156279, 0.0], [73.81316875302463, 18.640251457570834, 0.0], [73.81317032218763, 18.64002555545183, 0.0], [73.81293334841605, 18.64002405946322, 0.0]]]}, "properties": {"name": "PMP-T0612", "emu_id": "EMU_Grass_land", "typicality_percentile": 100.0, "pool_rank": 4, "selection_rationale": "highest-scoring position in its site region \u2014 camera trap pool (4 of 4)"}}]}