{"type": "FeatureCollection", "features": [{"type": "Feature", "geometry": {"type": "MultiPolygon", "coordinates": [[[[82.9592348090001, 19.6375708680001], [82.959052204, 19.6376719080001], [82.959172589, 19.6377495240001], [82.9591508890001, 19.6378326710001], [82.9593411330001, 19.6379488810001], [82.959421938, 19.6379939550001], [82.9594685850001, 19.637914876], [82.9595234210001, 19.6379798560001], [82.959507085, 19.6380261940001], [82.9595801350001, 19.6380248080001], [82.9597651870001, 19.6376668190001], [82.959646837, 19.6376772940001], [82.9595156290001, 19.637616737], [82.9593563180001, 19.637564314], [82.959281387, 19.6375259210001], [82.9592348090001, 19.6375708680001]]], [[[82.9575360950001, 19.638563726], [82.9578412050001, 19.6385277480001], [82.9580929200001, 19.638194266], [82.9584283830001, 19.6381434570001], [82.9586646710001, 19.637978467], [82.9586643160001, 19.6376419260001], [82.958722536, 19.637456979], [82.9589301350001, 19.6373030410001], [82.958903042, 19.63718548], [82.958548158, 19.637243004], [82.9579031440001, 19.636911417], [82.9577966370001, 19.636898758], [82.9576383620001, 19.636951466], [82.957310851, 19.6369751120001], [82.9572427320001, 19.6370222960001], [82.9571653300001, 19.63698227], [82.9570457550001, 19.637054187], [82.9569500850001, 19.6371110530001], [82.9571158460001, 19.63741107], [82.9579031740001, 19.6377369730001], [82.9578299490001, 19.637898647], [82.9577438750001, 19.637968282], [82.9567099110001, 19.6380874990001], [82.956502352, 19.638075202], [82.956356961, 19.638082813], [82.9564258610001, 19.637532574], [82.956103587, 19.6375872610001], [82.956116029, 19.637705726], [82.955941711, 19.6378828150001], [82.955770864, 19.6377490470001], [82.955663224, 19.637833872], [82.95627226, 19.638291575], [82.9564642920001, 19.6386033320001], [82.9568023410001, 19.6387492220001], [82.9568889380001, 19.6389489470001], [82.95674646, 19.638958406], [82.9565653270001, 19.6391002290001], [82.9567317930001, 19.6394461300001], [82.9568814690001, 19.6395105930001], [82.9571640940001, 19.6394091760001], [82.957264659, 19.6393075010001], [82.95704722, 19.639069966], [82.9571417920001, 19.638927025], [82.9573191260001, 19.6386797600001], [82.9574867860001, 19.6385024360001], [82.9575360950001, 19.638563726]]], [[[82.958235448, 19.6400895250001], [82.9581089280001, 19.639925201], [82.957987002, 19.6398580160001], [82.9579717560001, 19.639801665], [82.9579142100001, 19.639771544], [82.9578459250001, 19.6398473450001], [82.9577380050001, 19.639915671], [82.9576292730001, 19.64001911], [82.9576159150001, 19.640060733], [82.957638015, 19.6401791100001], [82.9576785360001, 19.640250693], [82.9577479610001, 19.6401972080001], [82.9577673430001, 19.6401485600001], [82.9578131630001, 19.640150368], [82.9579759010001, 19.640107003], [82.958235448, 19.6400895250001]]], [[[82.955113613, 19.6454698110001], [82.9555724300001, 19.645830158], [82.955721952, 19.6461093940001], [82.9558128950001, 19.6460527850001], [82.9559721970001, 19.6460431140001], [82.9559195420001, 19.645746978], [82.9558739140001, 19.645681977], [82.955895625, 19.6456489780001], [82.956021895, 19.645654988], [82.9560803240001, 19.64562621], [82.956068696, 19.6455733720001], [82.955999203, 19.6454980090001], [82.9559351660001, 19.645498161], [82.9557598000001, 19.6453226], [82.955649871, 19.6452206770001], [82.9554828440001, 19.6452122320001], [82.9553712530001, 19.6452796040001], [82.9551911520001, 19.645333329], [82.955113613, 19.6454698110001]]], [[[82.958805817, 19.646876354], [82.9588972320001, 19.646814368], [82.9590840550001, 19.6468357160001], [82.9591057390001, 19.646657309], [82.959140506, 19.646658261], [82.9591675950001, 19.646783299], [82.9592495320001, 19.646695177], [82.9592514450001, 19.6466442560001], [82.9592202480001, 19.64664228], [82.959155342, 19.646613696], [82.9591123740001, 19.6465460210001], [82.9591537320001, 19.646521964], [82.959218799, 19.6465268700001], [82.959210146, 19.6464092200001], [82.958975852, 19.646394672], [82.958932286, 19.646478684], [82.958855682, 19.646490956], [82.95881896, 19.6465346900001], [82.9587681630001, 19.6464986130001], [82.9587782450001, 19.646401215], [82.958759371, 19.6463739020001], [82.9587139610001, 19.646403644], [82.9586772580001, 19.6464628270001], [82.9585946020001, 19.646471062], [82.9585798670001, 19.6463678750001], [82.958515687, 19.6463950190001], [82.958514257, 19.6464715980001], [82.95848155, 19.6466244760001], [82.9585793160001, 19.6466985860001], [82.9585439130001, 19.6467882320001], [82.9586436390001, 19.6468413000001], [82.9586851610001, 19.6468756670001], [82.958805817, 19.646876354]]], [[[82.9610138410001, 19.651127595], [82.961079388, 19.6511573550001], [82.961202955, 19.6510351920001], [82.96117517, 19.650909557], [82.9611803760001, 19.6508215470001], [82.9611974860001, 19.650786146], [82.9611959310001, 19.6507463510001], [82.9611777840001, 19.65072804], [82.9611837460001, 19.650694103], [82.9610501290001, 19.6506806300001], [82.9610359860001, 19.650701296], [82.9610136700001, 19.6506911480001], [82.9610152290001, 19.650672172], [82.96092988, 19.650644066], [82.9609176220001, 19.6506878650001], [82.9608796140001, 19.6506817740001], [82.960892426, 19.650636078], [82.9607978350001, 19.650589537], [82.9608435820001, 19.6507890520001], [82.9608844730001, 19.6507945290001], [82.960895275, 19.650894173], [82.9608699650001, 19.650936046], [82.960909546, 19.651078565], [82.9610138410001, 19.651127595]]], [[[82.961198638, 19.6507860400001], [82.961181417, 19.650822469], [82.9611761300001, 19.650907547], [82.961203916, 19.6510351700001], [82.9611339830001, 19.6511070180001], [82.961226444, 19.65118011], [82.961377445, 19.6511413700001], [82.9614349000001, 19.651102914], [82.9614685220001, 19.6511264600001], [82.9615268100001, 19.651108085], [82.9615791250001, 19.651097872], [82.9615910780001, 19.6510639260001], [82.9615520090001, 19.6510408390001], [82.9615213230001, 19.6509610640001], [82.9615265830001, 19.650863347], [82.9614734410001, 19.65091786], [82.961429088, 19.6509021890001], [82.961458619, 19.650863739], [82.961487564, 19.650837294], [82.961480109, 19.65076057], [82.961513041, 19.650716706], [82.961509988, 19.650647716], [82.9613585100001, 19.6505871740001], [82.961341706, 19.6506461450001], [82.9612404100001, 19.650703666], [82.9611843770001, 19.6506961220001], [82.9611792700001, 19.650727578], [82.961196693, 19.6507458360001], [82.961198638, 19.6507860400001]]], [[[82.9593079630001, 19.6526852910001], [82.959334826, 19.6526899790001], [82.959394821, 19.6526017910001], [82.9593511410001, 19.6525765000001], [82.959339592, 19.6525149880001], [82.9594215400001, 19.652453624], [82.9592527450001, 19.6523264210001], [82.959194675, 19.652444313], [82.9591202080001, 19.6527074520001], [82.9591019870001, 19.6527743620001], [82.9591793540001, 19.6528183250001], [82.9592310020001, 19.652785685], [82.9592458800001, 19.652730664], [82.9592818930001, 19.6526890590001], [82.9593014600001, 19.6526993640001], [82.9593079630001, 19.6526852910001]]], [[[82.9590186180001, 19.65243681], [82.959043626, 19.652480601], [82.9590510900001, 19.652562259], [82.9589811050001, 19.6525975070001], [82.95894063, 19.6527362410001], [82.9590506700001, 19.6528107020001], [82.959101354, 19.652772799], [82.9591948570001, 19.6524365180001], [82.959163656, 19.6524054870001], [82.959173019, 19.6523495370001], [82.95907334, 19.6523592930001], [82.9590186180001, 19.65243681]]], [[[82.9613800590001, 19.652956498], [82.9615075940001, 19.6529378810001], [82.9616539500001, 19.6527842520001], [82.9616775210001, 19.652844467], [82.9617523000001, 19.65282531], [82.9617605320001, 19.652688305], [82.9617239990001, 19.652578695], [82.9615673630001, 19.6525538340001], [82.9616326620001, 19.6524364250001], [82.96153983, 19.652263073], [82.961477206, 19.6523292100001], [82.9613527280001, 19.652406774], [82.9614330540001, 19.6525666850001], [82.9612646040001, 19.6527009070001], [82.961204405, 19.6526872060001], [82.9610554180001, 19.6529814310001], [82.9610827400001, 19.652996334], [82.961163728, 19.65295028], [82.961281157, 19.652947736], [82.9613800590001, 19.652956498]]], [[[82.9586779430001, 19.6525271], [82.9586247380001, 19.652567425], [82.958554586, 19.652558319], [82.958475218, 19.6525944040001], [82.958432718, 19.6526156250001], [82.9583865230001, 19.6526910470001], [82.958318654, 19.652724602], [82.9582815210001, 19.652758174], [82.9585214730001, 19.652989679], [82.9585498120001, 19.652970108], [82.9587606970001, 19.652675479], [82.9587601260001, 19.6526159370001], [82.9587360780001, 19.6525986130001], [82.9587706870001, 19.6525684100001], [82.9586779430001, 19.6525271]]], [[[82.9586317910001, 19.653080958], [82.9586498640001, 19.6530365090001], [82.958568046, 19.6529596180001], [82.9585276110001, 19.6529875890001], [82.957919185, 19.6534726250001], [82.9579389080001, 19.6535712630001], [82.958518993, 19.6532399160001], [82.9584898480001, 19.653150419], [82.9586317910001, 19.653080958]]], [[[82.9582897930001, 19.653581043], [82.9584724470001, 19.653557058], [82.958519541, 19.6534466310001], [82.958461114, 19.6534202600001], [82.9582334400001, 19.653405417], [82.9580958020001, 19.65381776], [82.958237221, 19.6538238910001], [82.9582897930001, 19.653581043]]], [[[82.9543657340001, 19.6538425890001], [82.954289266, 19.653802921], [82.9541991410001, 19.6537328310001], [82.9540741800001, 19.6536762270001], [82.9539934580001, 19.6536428540001], [82.9539175, 19.653758635], [82.953819492, 19.6539777130001], [82.9540143230001, 19.654089136], [82.954105462, 19.654022931], [82.9541875740001, 19.6539701180001], [82.954247535, 19.6539885710001], [82.9543763520001, 19.653882058], [82.9543657340001, 19.6538425890001]]], [[[82.9561069150001, 19.653691888], [82.9561550660001, 19.65378444], [82.9562493350001, 19.6539084360001], [82.9563682450001, 19.654219531], [82.9564212000001, 19.654223455], [82.9565427890001, 19.6542463980001], [82.9566216050001, 19.654255763], [82.956672272, 19.654223121], [82.9564869330001, 19.6535438770001], [82.9563965870001, 19.6535775520001], [82.956361896, 19.653609535], [82.9563156520001, 19.653608965], [82.9562970800001, 19.653632031], [82.9562604720001, 19.653594159], [82.9561069150001, 19.653691888]]], [[[82.9562824750001, 19.6543412], [82.9563582690001, 19.6542297030001], [82.9562873770001, 19.6540141130001], [82.956245697, 19.653906853], [82.956151402, 19.6537826090001], [82.9561061000001, 19.653703448], [82.9559183430001, 19.653765519], [82.955696484, 19.6538319790001], [82.9555358690001, 19.6539017540001], [82.9554197670001, 19.6539758600001], [82.9555641170001, 19.654133078], [82.9556405390001, 19.6541908130001], [82.955719812, 19.6543854080001], [82.9558226650001, 19.6545019490001], [82.9562824750001, 19.6543412]]], [[[82.9584925880001, 19.654192129], [82.9584599300001, 19.6542413510001], [82.9585648240001, 19.6543823970001], [82.958779285, 19.6545729870001], [82.9588784640001, 19.654558889], [82.9589768930001, 19.654433066], [82.9590141190001, 19.6543628580001], [82.9588797220001, 19.654241364], [82.9588671490001, 19.654272194], [82.958738065, 19.654230521], [82.9586973670001, 19.654160108], [82.9584925880001, 19.654192129]]], [[[82.9567733430001, 19.654399868], [82.956660152, 19.654236245], [82.9566225520001, 19.65426124], [82.9563659870001, 19.6542258310001], [82.9562841520001, 19.6543455980001], [82.9557434110001, 19.654535364], [82.955788538, 19.6545814630001], [82.9558257620001, 19.6546411040001], [82.955960207, 19.654742556], [82.9568549360001, 19.6545298990001], [82.956848289, 19.6544683870001], [82.9567733430001, 19.654399868]]], [[[82.9535361490001, 19.654555337], [82.9534724200001, 19.65453984], [82.9534001740001, 19.6546139060001], [82.953457357, 19.654681967], [82.9534984210001, 19.654729178], [82.9536594590001, 19.654733729], [82.9537765480001, 19.6546847820001], [82.9538114370001, 19.654687875], [82.9539187710001, 19.6545220670001], [82.9539479090001, 19.6544516180001], [82.9539609620001, 19.6544131410001], [82.95388705, 19.6543994790001], [82.953844185, 19.6544419300001], [82.953788945, 19.6544644590001], [82.9537280310001, 19.65449377], [82.9536698320001, 19.6544376200001], [82.9535982580001, 19.65455753], [82.9535361490001, 19.654555337]]], [[[82.9589844100001, 19.655006455], [82.9590332240001, 19.655036234], [82.959412882, 19.654955381], [82.959436275, 19.654945103], [82.959416408, 19.6546052100001], [82.959229432, 19.654651001], [82.9590124210001, 19.6547233200001], [82.9589169930001, 19.654771328], [82.958912571, 19.6550118920001], [82.9589464150001, 19.6550334200001], [82.9589844100001, 19.655006455]]], [[[82.9587160010001, 19.6548584780001], [82.9587506300001, 19.6548662440001], [82.9587666830001, 19.654847524], [82.958759087, 19.654808513], [82.9586726090001, 19.6547314800001], [82.9586762050001, 19.654711515], [82.958631702, 19.6546777890001], [82.9584149200001, 19.6548831960001], [82.958517661, 19.6550932210001], [82.9585561530001, 19.6550621230001], [82.9586030610001, 19.6551103730001], [82.9587429000001, 19.6549440000001], [82.9587046060001, 19.6549026910001], [82.9587160010001, 19.6548584780001]]], [[[82.9589228460001, 19.655213475], [82.9587952950001, 19.655339424], [82.9588274920001, 19.655435052], [82.9588757880001, 19.6554607090001], [82.958885695, 19.6554945280001], [82.9588621660001, 19.655505024], [82.9589228450001, 19.655637971], [82.9589748560001, 19.6556473000001], [82.95899467, 19.655679954], [82.9589699030001, 19.655699779], [82.958984763, 19.6557487590001], [82.9590565880001, 19.6557440940001], [82.9590528730001, 19.6557825790001], [82.959004577, 19.6557837450001], [82.959061541, 19.6559446810001], [82.959428094, 19.6557452600001], [82.9594355240001, 19.6557207700001], [82.959379798, 19.6556857840001], [82.959402088, 19.6556181450001], [82.9593884660001, 19.6555645], [82.9594367620001, 19.6552624550001], [82.9589228460001, 19.655213475]]], [[[82.9593305060001, 19.6558456280001], [82.9594177150001, 19.6557667210001], [82.9588346080001, 19.656066246], [82.9590637460001, 19.6566572450001], [82.9595921360001, 19.65640603], [82.9596246250001, 19.6562610980001], [82.9595442550001, 19.6562498260001], [82.959503215, 19.6562047360001], [82.9595134750001, 19.656141932], [82.9594946650001, 19.656011494], [82.9593561560001, 19.6559567420001], [82.9593305060001, 19.6558456280001]]], [[[82.9615860110001, 19.6571491240001], [82.961587222, 19.6570647400001], [82.961491562, 19.6570590380001], [82.961400745, 19.657014566], [82.961331724, 19.657181053], [82.9611973140001, 19.657256315], [82.9611670420001, 19.6574798180001], [82.9614031660001, 19.6575242910001], [82.9616235500001, 19.6577523560001], [82.961777334, 19.6576166570001], [82.9616405020001, 19.6572745600001], [82.9616162840001, 19.657173071], [82.9615860110001, 19.6571491240001]]], [[[82.9612338380001, 19.6576604410001], [82.9612005710001, 19.6576291650001], [82.961162217, 19.657624728], [82.9611492870001, 19.65768016], [82.9611481260001, 19.6577679330001], [82.9611960830001, 19.657829141], [82.9612600460001, 19.6578314550001], [82.961290428, 19.6578486990001], [82.9612956720001, 19.657811628], [82.9613480890001, 19.657809818], [82.9613599640001, 19.6578460260001], [82.9613279260001, 19.657870529], [82.9613306430001, 19.6578953470001], [82.9613553300001, 19.6579627850001], [82.9613467820001, 19.6579932340001], [82.9613610110001, 19.658003922], [82.9613689180001, 19.65796427], [82.961384949, 19.6579208700001], [82.9614236340001, 19.6579376280001], [82.9614387290001, 19.6578569490001], [82.9614140840001, 19.65781937], [82.961393383, 19.657741609], [82.96141959, 19.6576640660001], [82.9614682820001, 19.657669909], [82.9615514160001, 19.6577331830001], [82.9615675000001, 19.6577000130001], [82.961401698, 19.657528063], [82.9611771310001, 19.6574845810001], [82.961175435, 19.657546278], [82.9612176800001, 19.657561168], [82.9612279990001, 19.6575834770001], [82.961253325, 19.6575946930001], [82.961263118, 19.657617169], [82.9612474950001, 19.657643588], [82.9612338380001, 19.6576604410001]]], [[[82.9588336670001, 19.6575738230001], [82.9585481400001, 19.6577367400001], [82.9581331160001, 19.6581068830001], [82.9581364850001, 19.6584225980001], [82.9582409170001, 19.6589122140001], [82.9585736490001, 19.658860513], [82.9585822080001, 19.658720384], [82.9585525790001, 19.6587098430001], [82.958532168, 19.6586906220001], [82.958555871, 19.6586571400001], [82.9585855000001, 19.658670161], [82.9586019610001, 19.658699923], [82.9585848420001, 19.658720384], [82.9585762820001, 19.6588592730001], [82.958904175, 19.658830751], [82.9591563930001, 19.658131215], [82.959114615, 19.658102834], [82.959133008, 19.658059231], [82.9591654530001, 19.6580744830001], [82.9591860240001, 19.658011355], [82.9591794660001, 19.657524725], [82.9588336670001, 19.6575738230001]]], [[[82.959772823, 19.6587668980001], [82.959737616, 19.6587422750001], [82.9597374310001, 19.6587052620001], [82.9596537100001, 19.6586928290001], [82.9596088850001, 19.658695928], [82.959579493, 19.658719154], [82.9595445750001, 19.658723025], [82.9595297100001, 19.6587095030001], [82.959513326, 19.6587107760001], [82.9593778830001, 19.658724519], [82.9593471910001, 19.658705334], [82.959326601, 19.6587189300001], [82.9593036350001, 19.658733156], [82.9592735200001, 19.6587699770001], [82.9592651040001, 19.6587917000001], [82.9592360280001, 19.6587743210001], [82.9592255100001, 19.658824119], [82.9592450530001, 19.6588529420001], [82.9592295560001, 19.658938391], [82.9592418540001, 19.6589725100001], [82.9592343480001, 19.6589960320001], [82.9592467130001, 19.6590910510001], [82.9593098460001, 19.6591077850001], [82.9593870680001, 19.6590772430001], [82.9594383290001, 19.659096644], [82.9595560560001, 19.659091603], [82.959554896, 19.6590512280001], [82.9596430550001, 19.659049844], [82.9596948770001, 19.659017126], [82.959719663, 19.659057982], [82.9597896610001, 19.6590462410001], [82.959834609, 19.659038934], [82.9598893130001, 19.659022513], [82.9599345540001, 19.659044286], [82.9599846890001, 19.659021368], [82.960031669, 19.6590000940001], [82.9600349250001, 19.658943304], [82.960008546, 19.658912092], [82.9600331650001, 19.65883839], [82.960028788, 19.658806994], [82.9600599600001, 19.658780085], [82.960022542, 19.6587515150001], [82.9599914600001, 19.658710012], [82.959930522, 19.6587346150001], [82.9598528480001, 19.658716564], [82.959832314, 19.658730609], [82.9598216040001, 19.658756064], [82.959772823, 19.6587668980001]]], [[[82.9685226460001, 19.6119756840001], [82.968532113, 19.6119056160001], [82.9683468320001, 19.61174892], [82.9680195490001, 19.611546361], [82.9679776240001, 19.6118916030001], [82.968061473, 19.6119705890001], [82.9680939310001, 19.612016451], [82.968199419, 19.6120788750001], [82.96822782, 19.612120915], [82.9682129430001, 19.612146394], [82.9683224890001, 19.6122049960001], [82.9685226460001, 19.6119756840001]]], [[[82.9675888660001, 19.612136343], [82.9677613000001, 19.6121341], [82.9678084700001, 19.6120284620001], [82.9677273080001, 19.612023654], [82.967678026, 19.611924447], [82.9677610780001, 19.611865962], [82.9676962090001, 19.6117783060001], [82.9675709000001, 19.6117907], [82.9675102, 19.6118518000001], [82.9675888660001, 19.612136343]]], [[[82.966797893, 19.6219228780001], [82.966834174, 19.6219766310001], [82.9668675060001, 19.6220062900001], [82.9668484850001, 19.622048976], [82.966883597, 19.622094051], [82.966946195, 19.6220484990001], [82.9671228550001, 19.6221773950001], [82.9671648250001, 19.622131343], [82.9672102700001, 19.622122892], [82.967210655, 19.622050652], [82.9672774920001, 19.622035983], [82.9673090460001, 19.621938044], [82.9672636190001, 19.621973756], [82.9671246760001, 19.6218673000001], [82.9670401000001, 19.6218743690001], [82.9670223360001, 19.621814473], [82.9670681220001, 19.621761663], [82.9670184710001, 19.6217369560001], [82.9669759060001, 19.621768246], [82.9669154680001, 19.621738877], [82.966896062, 19.6217999890001], [82.9668815350001, 19.6218496440001], [82.966819237, 19.621778373], [82.966807369, 19.621722587], [82.966868144, 19.621671479], [82.96688478, 19.6216418130001], [82.9666580240001, 19.621709273], [82.966724899, 19.62176514], [82.966768588, 19.621782744], [82.9667953760001, 19.6218496810001], [82.966797893, 19.6219228780001]]], [[[82.9675445140001, 19.6261407220001], [82.967866175, 19.6259421500001], [82.9677325110001, 19.6255736680001], [82.967490179, 19.6255542210001], [82.9673239150001, 19.6254907590001], [82.9669413990001, 19.625670906], [82.9671598240001, 19.62592475], [82.9675445140001, 19.6261407220001]]], [[[82.9683373190001, 19.6264973150001], [82.968342739, 19.626532463], [82.9683878150001, 19.626530931], [82.9683677100001, 19.6264896960001], [82.968400445, 19.6264426400001], [82.9684478090001, 19.6264154570001], [82.9680117820001, 19.626110065], [82.9675236350001, 19.626592454], [82.9678433070001, 19.6266280670001], [82.9678860430001, 19.626701385], [82.9682054990001, 19.62670609], [82.9682591430001, 19.626547799], [82.9683373190001, 19.6264973150001]]], [[[82.9654889230001, 19.6354542030001], [82.9653879750001, 19.635308261], [82.965403979, 19.635191682], [82.9652038300001, 19.6351085790001], [82.964955908, 19.635115077], [82.96475186, 19.635092345], [82.964784131, 19.6353545220001], [82.9651013590001, 19.6353677700001], [82.965284529, 19.6353462500001], [82.9653948710001, 19.635566408], [82.9654692390001, 19.6355512810001], [82.9654889230001, 19.6354542030001]]], [[[82.963815223, 19.6366876760001], [82.9638322070001, 19.6367452270001], [82.9638910560001, 19.6367859760001], [82.963892994, 19.6368306590001], [82.964021539, 19.636879391], [82.9641046680001, 19.6369371440001], [82.964166494, 19.636934723], [82.9642357320001, 19.636474761], [82.9640221970001, 19.6364315110001], [82.9638737910001, 19.6363695910001], [82.963815223, 19.6366876760001]]], [[[82.964298667, 19.636823174], [82.9642945320001, 19.6369620850001], [82.9643758570001, 19.636975067], [82.9643717220001, 19.637120468], [82.964335884, 19.6371827830001], [82.964469588, 19.637194467], [82.964531616, 19.6371633100001], [82.9645991560001, 19.636598581], [82.9643496670001, 19.6365804060001], [82.9642311260001, 19.636528476], [82.9641718550001, 19.63693612], [82.964239396, 19.6369594880001], [82.964249045, 19.6367790350001], [82.964298667, 19.636823174]]], [[[82.968042795, 19.6369163460001], [82.9680291980001, 19.636833745], [82.96797652, 19.636845367], [82.9679622240001, 19.6367607280001], [82.9680200990001, 19.636738382], [82.9679179120001, 19.636679133], [82.9677498550001, 19.636700895], [82.9677106140001, 19.636774243], [82.967776003, 19.636938066], [82.9678753160001, 19.637114121], [82.967969183, 19.6371037070001], [82.968042795, 19.6369163460001]]], [[[82.9640739380001, 19.637423241], [82.964172154, 19.6373913910001], [82.964266158, 19.6374063100001], [82.9642927730001, 19.637281553], [82.9642160480001, 19.637270723], [82.9642199670001, 19.6371951790001], [82.96402347, 19.637129831], [82.9639387920001, 19.637276629], [82.9639754, 19.6372952], [82.963957103, 19.6373596230001], [82.9640042130001, 19.637420252], [82.9640063260001, 19.637420252], [82.9640739380001, 19.637423241]]], [[[82.9643112380001, 19.6389133770001], [82.9642586310001, 19.6388795400001], [82.964216289, 19.6389907180001], [82.9641919100001, 19.639002802], [82.9643202190001, 19.6392892060001], [82.9646499740001, 19.6392263660001], [82.9645986500001, 19.6390402640001], [82.9645742710001, 19.639022138], [82.9645486090001, 19.638979842], [82.9644113190001, 19.638877124], [82.9643112380001, 19.6389133770001]]], [[[82.9635132940001, 19.639802129], [82.9635241770001, 19.6398687500001], [82.963533699, 19.639913591], [82.9635921920001, 19.639971244], [82.9636330010001, 19.640048114], [82.963730943, 19.640159576], [82.964393413, 19.6400763], [82.9644587080001, 19.639957152], [82.9642750660001, 19.6398854060001], [82.964164881, 19.6398200670001], [82.9640900650001, 19.6396663260001], [82.9635132940001, 19.639802129]]], [[[82.9646558330001, 19.6404981910001], [82.964873482, 19.6403060160001], [82.964813023, 19.640213488], [82.9647208250001, 19.640222029], [82.964702688, 19.640138042], [82.9647253590001, 19.6400953360001], [82.964711756, 19.6400711360001], [82.9646543210001, 19.6400867950001], [82.964513756, 19.640277546], [82.9646558330001, 19.6404981910001]]], [[[82.963243704, 19.6413579810001], [82.96275289, 19.6414793810001], [82.9628107300001, 19.641743972], [82.9628685700001, 19.6418529210001], [82.9630553110001, 19.641807785], [82.9632156100001, 19.6418451390001], [82.9633726040001, 19.641829575], [82.963243704, 19.6413579810001]]], [[[82.9623513000001, 19.6456624040001], [82.962384903, 19.64565459], [82.9624293160001, 19.6456938640001], [82.962432086, 19.6457347910001], [82.9625076670001, 19.6457051780001], [82.9625250180001, 19.6457902170001], [82.9625821770001, 19.6457658470001], [82.9625965280001, 19.645468663], [82.9625797200001, 19.645377851], [82.962516065, 19.6454394630001], [82.9622700130001, 19.645387011], [82.9622199070001, 19.6453105580001], [82.9620943940001, 19.6453304820001], [82.9620668140001, 19.6454198120001], [82.962126116, 19.6455236670001], [82.9621489800001, 19.6456780940001], [82.9622545880001, 19.6457531570001], [82.962386365, 19.645746257], [82.9623513000001, 19.6456624040001]]], [[[82.9623013170001, 19.647691185], [82.961855106, 19.647319903], [82.9618001870001, 19.647819564], [82.96208949, 19.6479350120001], [82.9623013170001, 19.647691185]]], [[[82.9624512940001, 19.649253781], [82.962489356, 19.6493032010001], [82.962512895, 19.649338496], [82.9625485810001, 19.649340146], [82.962587264, 19.6493533610001], [82.962649979, 19.6494036140001], [82.9626972680001, 19.64943025], [82.9627612090001, 19.649441159], [82.9628001080001, 19.649376101], [82.962751471, 19.649381631], [82.9627014340001, 19.649357196], [82.962668808, 19.649321071], [82.9626416230001, 19.649286085], [82.962689218, 19.649244228], [82.9627312430001, 19.6492777610001], [82.9627509580001, 19.6493279640001], [82.9627908030001, 19.64932358], [82.9628310960001, 19.64929563], [82.9628763860001, 19.649332261], [82.962849432, 19.649384974], [82.9628037160001, 19.6493728090001], [82.9627670180001, 19.649434888], [82.962853157, 19.649461618], [82.9629736620001, 19.649521399], [82.9629962760001, 19.649477151], [82.9630810340001, 19.649418392], [82.963107633, 19.6494671900001], [82.9632003300001, 19.6494561320001], [82.9632006310001, 19.649478704], [82.963258615, 19.649470206], [82.963325436, 19.6494378350001], [82.9632965100001, 19.6493894590001], [82.9632596750001, 19.6493388490001], [82.963284785, 19.6492591310001], [82.963263269, 19.6492344390001], [82.9632082890001, 19.64913348], [82.9631795080001, 19.6490704130001], [82.9631888960001, 19.6490168330001], [82.9631171940001, 19.648981291], [82.9631385070001, 19.648917673], [82.963187599, 19.6489046290001], [82.9632460400001, 19.648874984], [82.963283301, 19.6487634910001], [82.9632500540001, 19.648728476], [82.9632785310001, 19.6486623870001], [82.9632632620001, 19.64859784], [82.963105984, 19.6485483450001], [82.9629750510001, 19.6484854510001], [82.962788344, 19.648702585], [82.962714234, 19.648737904], [82.9627074850001, 19.648772019], [82.962667159, 19.6488675430001], [82.9624512940001, 19.649253781]]], [[[82.9619882900001, 19.649167247], [82.9620567050001, 19.6491550640001], [82.9621406150001, 19.649167838], [82.9621995480001, 19.649209398], [82.9622377480001, 19.649162835], [82.962196485, 19.6491164070001], [82.962291802, 19.648954007], [82.9622446550001, 19.6489046200001], [82.9622094540001, 19.648909659], [82.962041421, 19.6489353210001], [82.9619119660001, 19.648963086], [82.9619016070001, 19.6489718080001], [82.9619361430001, 19.6490470000001], [82.9619882900001, 19.649167247]]], [[[82.9618829830001, 19.654553127], [82.961947304, 19.6546863520001], [82.9618970070001, 19.655103642], [82.9621052640001, 19.6550894710001], [82.9622489880001, 19.655047347], [82.9624316910001, 19.6549621290001], [82.96247149, 19.654736631], [82.9625141720001, 19.6545892940001], [82.962273553, 19.654559466], [82.9621456150001, 19.65445713], [82.9621075900001, 19.6543748720001], [82.9622900510001, 19.6543349080001], [82.962345333, 19.654219389], [82.9623501710001, 19.653676519], [82.9622951740001, 19.653589203], [82.962456225, 19.653375324], [82.962295403, 19.653219662], [82.962249274, 19.653049126], [82.962160198, 19.6530613210001], [82.9621494560001, 19.652978881], [82.9619315020001, 19.653166405], [82.9618298560001, 19.653265445], [82.9619172860001, 19.6534628090001], [82.9618978, 19.653618667], [82.9617249010001, 19.653588498], [82.9617371850001, 19.653880024], [82.9619571640001, 19.654325719], [82.9618829830001, 19.654553127]]], [[[82.9615871620001, 19.6563142540001], [82.9615282980001, 19.656390941], [82.961599402, 19.656409748], [82.9617447640001, 19.656530493], [82.961856889, 19.656628857], [82.9620045510001, 19.656546231], [82.961986494, 19.656428614], [82.962030144, 19.656268073], [82.962121354, 19.6561329030001], [82.962110592, 19.6559804030001], [82.961952829, 19.655955905], [82.961945229, 19.655953546], [82.961882378, 19.655993267], [82.9618692430001, 19.6559369290001], [82.961698905, 19.655889487], [82.961567501, 19.65610402], [82.961292105, 19.655821335], [82.9611310270001, 19.6559005020001], [82.9610811410001, 19.655866546], [82.960938007, 19.6559184110001], [82.9609016530001, 19.6559989260001], [82.961046136, 19.656199863], [82.9611517050001, 19.656325839], [82.9613455130001, 19.6564154870001], [82.9614697000001, 19.6564265230001], [82.9614346440001, 19.656324318], [82.96149374, 19.6562546230001], [82.9615651280001, 19.6562168520001], [82.961604875, 19.656251189], [82.9615871620001, 19.6563142540001]]], [[[82.969884091, 19.6629996840001], [82.9695752820001, 19.663236811], [82.969175749, 19.663391727], [82.9693961420001, 19.663702057], [82.9696278330001, 19.663716165], [82.9697759410001, 19.663724266], [82.9704345040001, 19.6637722610001], [82.9705435230001, 19.663537386], [82.9705801060001, 19.6634101830001], [82.970260582, 19.6632842230001], [82.9701568820001, 19.663116087], [82.970003358, 19.6630426570001], [82.969884091, 19.6629996840001]]], [[[82.9698356910001, 19.6642161560001], [82.9698323420001, 19.664316845], [82.969712438, 19.664331196], [82.969691277, 19.6644060460001], [82.969751751, 19.6645790490001], [82.9697150430001, 19.66464561], [82.9698440000001, 19.6648023000001], [82.9700297910001, 19.664754826], [82.9702620530001, 19.6647060770001], [82.9702866860001, 19.664574649], [82.9703529180001, 19.6644837590001], [82.9701287620001, 19.6643193100001], [82.9701337920001, 19.664285529], [82.9700669760001, 19.6641931120001], [82.9699175250001, 19.6641113480001], [82.9698356910001, 19.6642161560001]]], [[[82.9703528970001, 19.6648412220001], [82.9702633750001, 19.664792719], [82.9702589670001, 19.6647100500001], [82.969848546, 19.6648020870001], [82.9700424760001, 19.6650514090001], [82.970096975, 19.6651007510001], [82.9703077550001, 19.6650582340001], [82.97048082, 19.665016119], [82.9705027840001, 19.6649254710001], [82.9704665500001, 19.6649283420001], [82.9703528970001, 19.6648412220001]]], [[[82.964666004, 19.6667919280001], [82.9645930120001, 19.6667726740001], [82.964569403, 19.66677925], [82.9645459390001, 19.6667337120001], [82.964511223, 19.666771269], [82.964461999, 19.6667184070001], [82.9644392880001, 19.666680921], [82.9644128790001, 19.6666878190001], [82.964389253, 19.6666547460001], [82.964357642, 19.666637177], [82.9643302150001, 19.6666495490001], [82.964311513, 19.666703704], [82.9643358660001, 19.666726559], [82.9643876478218, 19.6667757342012], [82.9643870099028, 19.6668108490057], [82.9643349754733, 19.6668160951128], [82.964313162647, 19.6668597272533], [82.9643672522871, 19.6668816536265], [82.9643931214314, 19.6668266003006], [82.964647554232, 19.6668922653121], [82.964666004, 19.6667919280001]]], [[[82.9649326420001, 19.6672972970001], [82.9648908080001, 19.6671871500001], [82.9648819340001, 19.667075147], [82.964835184, 19.667007417], [82.9647116670001, 19.6669170390001], [82.9646230640001, 19.6668873140001], [82.9643943880001, 19.6668326020001], [82.9643412180001, 19.6669510180001], [82.964492771, 19.667206446], [82.9645895340001, 19.6674294220001], [82.9647320450001, 19.667418749], [82.9648259320001, 19.6675086980001], [82.9650181160001, 19.6674588670001], [82.9649835420001, 19.6673577290001], [82.9649326420001, 19.6672972970001]]], [[[82.9663503560001, 19.667141578], [82.9662786970001, 19.666937036], [82.9657801210001, 19.666990275], [82.9658389160001, 19.6674034930001], [82.9659321290001, 19.667452107], [82.966041116, 19.6674777640001], [82.9663212450001, 19.6674389030001], [82.9663503560001, 19.667141578]]], [[[82.965507743, 19.6675486400001], [82.9655649750001, 19.667574534], [82.9655432710001, 19.6677517100001], [82.9657375950001, 19.667861513], [82.965816513, 19.667995741], [82.9659719040001, 19.667967748], [82.9659800680001, 19.6678875470001], [82.9659209490001, 19.6679120220001], [82.9658683100001, 19.6678776420001], [82.9658814040001, 19.66784147], [82.965950772, 19.6678064430001], [82.965978358, 19.667822605], [82.966006216, 19.6676654710001], [82.9659253440001, 19.6676638810001], [82.9658791460001, 19.6676289920001], [82.9657716130001, 19.667630575], [82.965806979, 19.667724976], [82.9657098580001, 19.6677188250001], [82.9656732620001, 19.6676439730001], [82.9657293770001, 19.6676131790001], [82.9655994380001, 19.6674876870001], [82.9652523770001, 19.667282964], [82.965200791, 19.667219306], [82.964929898, 19.6671231980001], [82.9649327400001, 19.6672829620001], [82.9649928440001, 19.6673680060001], [82.965062866, 19.667543935], [82.9651352880001, 19.66759897], [82.9651770980001, 19.667517328], [82.96539533, 19.6676561310001], [82.965374162, 19.6675157660001], [82.965429279, 19.6675126420001], [82.965483437, 19.6675910660001], [82.965507743, 19.6675486400001]]], [[[82.974907101, 19.602088032], [82.974932622, 19.6020122510001], [82.9749049420001, 19.601888199], [82.9746029760001, 19.601496734], [82.9741544510001, 19.6015898260001], [82.974206042, 19.6019335510001], [82.974292844, 19.6019244780001], [82.974345832, 19.601939601], [82.974334378, 19.602021339], [82.9742620060001, 19.602021339], [82.974389778, 19.602467001], [82.974586806, 19.602390691], [82.9747837800001, 19.60245173], [82.9749131830001, 19.602534242], [82.974999251, 19.602204941], [82.9749796420001, 19.602124444], [82.9749378110001, 19.602132033], [82.974907101, 19.602088032]]], [[[82.971248652, 19.6025546720001], [82.971531498, 19.602765102], [82.971987524, 19.602855848], [82.972194513, 19.6029194990001], [82.972250612, 19.602877418], [82.972350949, 19.6028390720001], [82.9723988250001, 19.602609176], [82.972256315, 19.6024082660001], [82.9714339660001, 19.6023270110001], [82.9714429620001, 19.6023970160001], [82.971248652, 19.6025546720001]]], [[[82.9753651, 19.604206], [82.9756800590001, 19.6045630630001], [82.9758747100001, 19.6045068970001], [82.976353445, 19.604369784], [82.9761956190001, 19.604103819], [82.9760763740001, 19.6039452320001], [82.9759010130001, 19.6037684730001], [82.975669538, 19.6036743110001], [82.9755520460001, 19.6036660510001], [82.9754876000001, 19.6039044], [82.9753651, 19.604206]]], [[[82.9975615320001, 19.604596471], [82.997334714, 19.6046854040001], [82.9971413160001, 19.6047325930001], [82.9971806070001, 19.6050892750001], [82.9978962420001, 19.6051219820001], [82.9978410690001, 19.604856339], [82.9978116440001, 19.604855184], [82.9977417600001, 19.6045745270001], [82.9976878140001, 19.6045190880001], [82.9975811480001, 19.6045456530001], [82.9975615320001, 19.604596471]]], [[[82.977376162, 19.6055108690001], [82.9773862590001, 19.6054592740001], [82.9774163720001, 19.6053795660001], [82.977586483, 19.605134062], [82.9772634970001, 19.605016962], [82.977096379, 19.605424091], [82.9769201500001, 19.6058094380001], [82.977124668, 19.6058889890001], [82.9772674750001, 19.6059577560001], [82.977384591, 19.6060339530001], [82.9776155610001, 19.6057303530001], [82.977376162, 19.6055108690001]]], [[[82.9918585500001, 19.60902373], [82.992103344, 19.608948448], [82.9920651670001, 19.608884726], [82.9920664750001, 19.6088635250001], [82.9921069050001, 19.608853638], [82.9919450580001, 19.608658201], [82.991882865, 19.608476938], [82.9914442830001, 19.608700239], [82.9912809080001, 19.6087423550001], [82.991248704, 19.6089967140001], [82.9913270910001, 19.6089825080001], [82.9913659170001, 19.6090308450001], [82.991709363, 19.608979667], [82.9917334800001, 19.6090009770001], [82.9918585500001, 19.60902373]]], [[[82.9818686790001, 19.6093044030001], [82.9821591840001, 19.609505959], [82.9822913900001, 19.609551842], [82.982390545, 19.6093519250001], [82.9825244900001, 19.6092486900001], [82.982579758, 19.608897665], [82.9825431950001, 19.608649827], [82.98258738, 19.608558466], [82.9824659240001, 19.608558466], [82.9823268430001, 19.6086558430001], [82.9822513810001, 19.6087734770001], [82.9821644040001, 19.6088128050001], [82.9822165900001, 19.608963562], [82.982190497, 19.609084823], [82.9820878630001, 19.6091946130001], [82.981990448, 19.6092323020001], [82.9818704190001, 19.609237218], [82.9818686790001, 19.6093044030001]]], [[[82.993641966, 19.610951345], [82.9938603530001, 19.610884664], [82.993575697, 19.6106278720001], [82.9934085190001, 19.6104008730001], [82.9930892240001, 19.610582472], [82.992937108, 19.6105938220001], [82.992715709, 19.610830752], [82.9928512500001, 19.6111928830001], [82.99310667, 19.6111589170001], [82.993611844, 19.6109102020001], [82.993641966, 19.610951345]]], [[[82.988772565, 19.6116773050001], [82.9891802660001, 19.611300547], [82.9888680390001, 19.611042893], [82.988452598, 19.611354023], [82.9881713360001, 19.6116554280001], [82.988570193, 19.6118916410001], [82.988772565, 19.6116773050001]]], [[[82.9777207170001, 19.6152373530001], [82.9776576310001, 19.6152151310001], [82.9776873590001, 19.6150226450001], [82.9779304360001, 19.6148386680001], [82.9781898040001, 19.614543256], [82.978385626, 19.614474898], [82.978757387, 19.6141551210001], [82.978536434, 19.6141585340001], [82.9785664730001, 19.614070586], [82.9787184530001, 19.614027277], [82.978854879, 19.613865463], [82.9790084520001, 19.613801891], [82.979282325, 19.613719416], [82.979232218, 19.6135885420001], [82.9791185390001, 19.613601626], [82.9784363000001, 19.6135712], [82.9784144340001, 19.613659908], [82.9782977570001, 19.613911713], [82.978167215, 19.6140223630001], [82.9780983540001, 19.6141407980001], [82.9779617600001, 19.614211923], [82.977904084, 19.6143769500001], [82.9776375470001, 19.6149432610001], [82.9774627940001, 19.6152644740001], [82.9774506970001, 19.6155522650001], [82.9776230460001, 19.6156165470001], [82.977690018, 19.6154130780001], [82.9777207170001, 19.6152373530001]]], [[[82.975847204, 19.615732619], [82.9758630530001, 19.615658298], [82.975932588, 19.6155858280001], [82.9758750270001, 19.615523599], [82.975942505, 19.615429637], [82.975872608, 19.6153743940001], [82.9757850700001, 19.6153443000001], [82.9757831050001, 19.61528086], [82.9756886740001, 19.6152975430001], [82.9751275680001, 19.6152391910001], [82.975048406, 19.6155471320001], [82.9753465000001, 19.6156947000001], [82.9753893960001, 19.615798636], [82.9755061500001, 19.61580372], [82.9755690360001, 19.6157783090001], [82.975847204, 19.615732619]]], [[[82.989217017, 19.6153591450001], [82.9889677080001, 19.6153345110001], [82.988922378, 19.615769707], [82.989370438, 19.615756569], [82.9894279710001, 19.61542812], [82.989217017, 19.6153591450001]]], [[[82.9708860250001, 19.621175898], [82.9709388740001, 19.6211097080001], [82.970941204, 19.621072267], [82.9708731690001, 19.620999969], [82.9707850340001, 19.6210322150001], [82.9707495060001, 19.6210026250001], [82.9707876210001, 19.620934547], [82.9707713230001, 19.6208948250001], [82.970728707, 19.620849186], [82.9706254980001, 19.6209857200001], [82.970659475, 19.621025649], [82.970644641, 19.621119822], [82.970601382, 19.6212032930001], [82.9705245420001, 19.621284906], [82.9704907450001, 19.621237738], [82.970413702, 19.6212798060001], [82.9705160780001, 19.621432987], [82.9706452710001, 19.621494942], [82.9706759840001, 19.6212975830001], [82.9708821360001, 19.6212408540001], [82.9708860250001, 19.621175898]]], [[[82.9730145410001, 19.6242596880001], [82.9728874290001, 19.6242124450001], [82.972853071, 19.6242904420001], [82.9728530410001, 19.62429031], [82.9728162860001, 19.624312624], [82.9727853690001, 19.624381181], [82.9727866540001, 19.624419978], [82.972732292, 19.624478448], [82.9726350810001, 19.624458019], [82.972587096, 19.6244282650001], [82.9724608540001, 19.6246619400001], [82.972538823, 19.6246970940001], [82.972785227, 19.624795572], [82.972835789, 19.624740597], [82.972805926, 19.624695708], [82.9728506070001, 19.624622491], [82.9729060170001, 19.624602354], [82.9729103980001, 19.624504974], [82.9729443940001, 19.6244863040001], [82.9729595690001, 19.624401569], [82.972959927, 19.624362342], [82.9730145410001, 19.6242596880001]], [[82.9729279270001, 19.6243520680001], [82.972880246, 19.624424725], [82.9728370560001, 19.6243951500001], [82.9728187730001, 19.6244111560001], [82.9728030310001, 19.6243992290001], [82.972815741, 19.6243710910001], [82.9728317330001, 19.6243731220001], [82.972861449, 19.624327716], [82.9728604460001, 19.6243232520001], [82.9729279270001, 19.6243520680001]]], [[[82.9798323900001, 19.624676406], [82.9797550390001, 19.6247151110001], [82.979697979, 19.624722352], [82.9796603410001, 19.624636686], [82.9796022640001, 19.6246087960001], [82.979493425, 19.624607908], [82.97944398, 19.6246019280001], [82.9792976000001, 19.6246606], [82.9793130610001, 19.624808326], [82.9793910220001, 19.6249318600001], [82.9794671480001, 19.625005382], [82.9796907030001, 19.625126392], [82.9796568310001, 19.625245668], [82.9797043310001, 19.625297259], [82.9797469820001, 19.6253996830001], [82.9799978550001, 19.6253426800001], [82.979999992, 19.625217165], [82.9799741950001, 19.6251276250001], [82.9799657140001, 19.625071244], [82.9799718900001, 19.6247915170001], [82.979987726, 19.624672431], [82.9799752070001, 19.624605682], [82.9799187340001, 19.624608285], [82.9798323900001, 19.624676406]]], [[[82.972428731, 19.626955067], [82.9723888300001, 19.627276183], [82.972636106, 19.627571382], [82.972776755, 19.627758944], [82.973085886, 19.628303546], [82.9735009300001, 19.628239631], [82.9735957070001, 19.6283327520001], [82.9737813980001, 19.6282585180001], [82.9736725130001, 19.6280195470001], [82.9735184880001, 19.6278164980001], [82.973587347, 19.6275590990001], [82.9736285230001, 19.627418952], [82.9734319250001, 19.627164566], [82.9732870280001, 19.6272860220001], [82.9732750160001, 19.627485356], [82.9729000240001, 19.6274880610001], [82.9730762200001, 19.6271126840001], [82.9729248300001, 19.626815918], [82.972826636, 19.6266460640001], [82.972727327, 19.626546983], [82.9724553840001, 19.626657982], [82.9725212380001, 19.6267603090001], [82.9724834850001, 19.62682564], [82.972428731, 19.626955067]]], [[[82.970407288, 19.6292946400001], [82.970405177, 19.629344143], [82.97037894, 19.629371701], [82.9703144590001, 19.6293606950001], [82.9703345390001, 19.629317885], [82.970242833, 19.629341455], [82.9702743670001, 19.6294023620001], [82.9702580050001, 19.62943849], [82.9703142560001, 19.6295246180001], [82.970277626, 19.6295602000001], [82.9703119500001, 19.6296328350001], [82.9703287460001, 19.629653734], [82.970484447, 19.629737468], [82.9704962210001, 19.629792095], [82.970559451, 19.6298389360001], [82.9707340300001, 19.6296596600001], [82.9707584130001, 19.629628364], [82.9707918450001, 19.629626337], [82.9708244190001, 19.629588819], [82.9708699610001, 19.629585305], [82.97088252, 19.629531066], [82.9709028400001, 19.62950377], [82.970926825, 19.629522772], [82.97094696, 19.629533053], [82.9710712020001, 19.6294572480001], [82.9709974470001, 19.6293785020001], [82.9709628300001, 19.6293437800001], [82.9708750980001, 19.629301261], [82.970895731, 19.6292474110001], [82.970842486, 19.629221434], [82.9708418160001, 19.6292004420001], [82.9707847820001, 19.629165093], [82.9707494520001, 19.6292036040001], [82.9706768630001, 19.6291637480001], [82.970574598, 19.629107198], [82.97054918, 19.6291470670001], [82.97058144, 19.6291796090001], [82.970530765, 19.62921622], [82.9705017190001, 19.6291841], [82.9704736250001, 19.6292344350001], [82.970407288, 19.6292946400001]]], [[[82.9792686040001, 19.637680512], [82.979290861, 19.6379087710001], [82.979821325, 19.6379390500001], [82.979912825, 19.6374056670001], [82.9791721560001, 19.6372496130001], [82.9791597910001, 19.637293867], [82.9792030690001, 19.6373334640001], [82.9791721560001, 19.6376444090001], [82.979214197, 19.637643245], [82.9792500560001, 19.637684005], [82.9792686040001, 19.637680512]]], [[[82.9828876270001, 19.646218042], [82.982939537, 19.6461337050001], [82.9825445210001, 19.645681102], [82.982355569, 19.645845547], [82.982553668, 19.6460779810001], [82.982405489, 19.646183577], [82.9822513190001, 19.646016182], [82.9821430260001, 19.6461058520001], [82.9820940170001, 19.6460130190001], [82.9819726000001, 19.6460849000001], [82.9817490020001, 19.646184749], [82.981847025, 19.646315407], [82.9819956420001, 19.6464458340001], [82.982081694, 19.6468437180001], [82.9822103000001, 19.6471857], [82.9825177000001, 19.6472852000001], [82.9828849740001, 19.647495199], [82.9830527, 19.6472910000001], [82.983090906, 19.6471643360001], [82.9827362450001, 19.64697778], [82.9827502350001, 19.646870934], [82.9826431990001, 19.6466656110001], [82.982515774, 19.646777194], [82.9823485310001, 19.64643561], [82.9826249590001, 19.6462063220001], [82.9827255160001, 19.6463057120001], [82.9828876270001, 19.646218042]]], [[[82.9835965730001, 19.6468321040001], [82.9833479980001, 19.6468372840001], [82.983252308, 19.6468725030001], [82.983222611, 19.6469046140001], [82.983148918, 19.646976153], [82.9831588170001, 19.647023802], [82.983148918, 19.6470559140001], [82.983157717, 19.647118065], [82.9829418370001, 19.647481903], [82.9831832, 19.6475567000001], [82.9832214670001, 19.6475084740001], [82.983276313, 19.647511132], [82.983338067, 19.6475643630001], [82.9833252180001, 19.6476257190001], [82.98337023, 19.647677855], [82.983398519, 19.6476337330001], [82.9834549230001, 19.6476323970001], [82.9835480670001, 19.647684547], [82.9839870340001, 19.6471749720001], [82.9839309390001, 19.6470869240001], [82.9837923530001, 19.6469170440001], [82.9837098610001, 19.64691808], [82.983657066, 19.646896327], [82.9836460670001, 19.6468652520001], [82.9836460670001, 19.646848678], [82.9835965730001, 19.6468321040001]]], [[[82.981198066, 19.6561729580001], [82.981432172, 19.6566230820001], [82.98158585, 19.6565206380001], [82.981708896, 19.6564642980001], [82.9819921860001, 19.6562600070001], [82.9817995600001, 19.6559546570001], [82.9817667770001, 19.65594781], [82.981753401, 19.6559249920001], [82.9817630920001, 19.655909024], [82.9816999500001, 19.655850883], [82.9815604710001, 19.6557893740001], [82.981198066, 19.6561729580001]]], [[[82.9771852960001, 19.65688656], [82.9770605960001, 19.656842075], [82.9770126020001, 19.6575375240001], [82.976895927, 19.6577696520001], [82.9770645250001, 19.657818827], [82.9771189310001, 19.6578991210001], [82.9770981760001, 19.6579768830001], [82.9768688140001, 19.6580266300001], [82.9770652730001, 19.658793883], [82.9770342050001, 19.658853009], [82.9788613420001, 19.6593349780001], [82.9791944340001, 19.658869241], [82.9797533650001, 19.6582001420001], [82.979641649, 19.657775132], [82.9796703210001, 19.6576705210001], [82.979649802, 19.657284803], [82.9795672550001, 19.6566466040001], [82.9793224580001, 19.6560806030001], [82.979254381, 19.6557833200001], [82.9791233000001, 19.6556067000001], [82.9778621020001, 19.6568075770001], [82.9773772290001, 19.656388065], [82.9772923130001, 19.6564944680001], [82.97717972, 19.656399084], [82.977120283, 19.656595388], [82.977237642, 19.656683346], [82.9771852960001, 19.65688656]]], [[[82.9716949560001, 19.6627413800001], [82.9719962020001, 19.662281185], [82.9714773890001, 19.661953376], [82.9711008310001, 19.662430907], [82.9716949560001, 19.6627413800001]]], [[[82.9752334570001, 19.6650208930001], [82.9750943120001, 19.6650402610001], [82.975094627, 19.6649346880001], [82.9749611240001, 19.6649530460001], [82.974931682, 19.664853157], [82.9747932000001, 19.6648319], [82.9746793, 19.6654838000001], [82.9751856112047, 19.6655638545124], [82.9751427562076, 19.6655212855014], [82.9752158210178, 19.6654865601515], [82.9753544834571, 19.665143124], [82.9752334570001, 19.6650208930001]]], [[[82.9752937640001, 19.6650755200001], [82.9754065050001, 19.6651941160001], [82.9754073440001, 19.665148378], [82.9753744240001, 19.665115047], [82.9753966550001, 19.6651072970001], [82.975442747, 19.665143727], [82.9754765000001, 19.665156129], [82.9754830750001, 19.6652072950001], [82.975444371, 19.6652243520001], [82.9755728100001, 19.6653678210001], [82.975607401, 19.665339123], [82.975753174, 19.665369372], [82.9757728820001, 19.665094896], [82.9754164140001, 19.6651049710001], [82.9753645760001, 19.665039097], [82.9752937640001, 19.6650755200001]]], [[[82.9751761090001, 19.66555257], [82.9752721580001, 19.6655913750001], [82.975367163, 19.6655913750001], [82.975453615, 19.6656197180001], [82.9755012680001, 19.6656295920001], [82.975492665, 19.6656783390001], [82.9754242120001, 19.6656917710001], [82.9753796310001, 19.6656428090001], [82.9753159750001, 19.665718815], [82.9752448550001, 19.665673875], [82.975210992, 19.6656076940001], [82.975166239, 19.665598979], [82.975204637, 19.6656996340001], [82.97521814, 19.6660822530001], [82.9756486000001, 19.6660456000001], [82.9755688500001, 19.6656164340001], [82.975492203, 19.6653598670001], [82.975145985, 19.665521676], [82.9751761090001, 19.66555257]]], [[[82.974771348, 19.6712320780001], [82.9748625710001, 19.6713832620001], [82.975170522, 19.671533507], [82.9752246890001, 19.671520807], [82.9754760320001, 19.6716048500001], [82.975438436, 19.671681967], [82.9758842780001, 19.672194158], [82.9760465750001, 19.6722238020001], [82.9761514900001, 19.672151263], [82.976249932, 19.672201563], [82.9763487420001, 19.67230727], [82.9766822270001, 19.671982718], [82.9766576010001, 19.6718121500001], [82.976593284, 19.6715413060001], [82.97656763, 19.671495296], [82.976342329, 19.67135001], [82.9764234400001, 19.6710861170001], [82.9763218570001, 19.6710567420001], [82.976414816, 19.670727431], [82.976331649, 19.670640013], [82.9758043480001, 19.670486468], [82.97580043, 19.670083413], [82.97538903, 19.669984007], [82.975258522, 19.670078695], [82.9750809450001, 19.6700525040001], [82.9748333840001, 19.66969275], [82.9746436400001, 19.6697545960001], [82.9746764800001, 19.670008862], [82.9745232230001, 19.670558622], [82.974698371, 19.6708884780001], [82.9747640510001, 19.671043098], [82.974771348, 19.6712320780001]]], [[[83.0027445900001, 19.5896450870001], [83.0029258180001, 19.5897457310001], [83.0028767790001, 19.589576374], [83.0028498360001, 19.5893631540001], [83.0026248510001, 19.589311932], [83.002515418, 19.589364307], [83.002247927, 19.5894146360001], [83.0020456760001, 19.589526176], [83.0019770810001, 19.5894866], [83.001211045, 19.5895958890001], [83.0011417000001, 19.5898017000001], [83.000731955, 19.58991258], [83.000660785, 19.5899468650001], [83.0006569180001, 19.5901321870001], [83.000697368, 19.5903720540001], [83.0007580160001, 19.5905270960001], [83.0015227000001, 19.5902252000001], [83.0019459000001, 19.5901977], [83.002465419, 19.590170313], [83.0026622300001, 19.589841322], [83.0027445900001, 19.5896450870001]]], [[[83.002335117, 19.6030837800001], [83.002317722, 19.603142071], [83.002368265, 19.6031949480001], [83.0025201230001, 19.603038504], [83.00262208, 19.6029962310001], [83.0024136800001, 19.6028996360001], [83.0023967970001, 19.6028135830001], [83.0024343300001, 19.6027666890001], [83.002266922, 19.602610961], [83.001999954, 19.6027928680001], [83.002335117, 19.6030837800001]]], [[[83.0017927910001, 19.603218881], [83.001703057, 19.603265736], [83.001630639, 19.603264269], [83.001380479, 19.603362863], [83.0014842510001, 19.603410196], [83.0014872630001, 19.6035771040001], [83.001749944, 19.6035441650001], [83.0019740860001, 19.6035381840001], [83.0020536980001, 19.6032159580001], [83.0017927910001, 19.603218881]]], [[[82.998713331, 19.603690822], [82.9986143990001, 19.60363397], [82.998519048, 19.6036156210001], [82.9982318580001, 19.60375292], [82.9981555850001, 19.6039389850001], [82.9980939330001, 19.604008895], [82.9981331930001, 19.6042187410001], [82.9984062080001, 19.6043122670001], [82.9986198570001, 19.6045290380001], [82.9986351950001, 19.6046023430001], [82.998512335, 19.604673156], [82.9985025810001, 19.604704956], [82.9985196580001, 19.604730771], [82.9984280510001, 19.604859295], [82.9984899710001, 19.6048741170001], [82.9985483560001, 19.6048363100001], [82.998718485, 19.6048741170001], [82.9987710520001, 19.6048021780001], [82.9989742910001, 19.6046744990001], [82.9988402990001, 19.6043794280001], [82.99880683, 19.6043543530001], [82.99881429, 19.604120358], [82.9987724650001, 19.6039611200001], [82.9987817310001, 19.603845682], [82.998713331, 19.603690822]]], [[[82.9971859650001, 19.6052003180001], [82.997386792, 19.605243639], [82.9975464010001, 19.60542696], [82.9981256600001, 19.6054290050001], [82.998187913, 19.6053399630001], [82.9982700690001, 19.6051851760001], [82.9982629250001, 19.605136385], [82.997210969, 19.6050993700001], [82.9971859650001, 19.6052003180001]]], [[[82.9998113520001, 19.6072454920001], [82.999561461, 19.6078220900001], [82.9999068160001, 19.607906728], [83.00007528, 19.6073803840001], [82.9998113520001, 19.6072454920001]]], [[[82.998335146, 19.6092129080001], [82.998684306, 19.609165628], [82.998703225, 19.608421564], [82.9985884430001, 19.608388129], [82.998569101, 19.6084532830001], [82.998438391, 19.6085027070001], [82.99840879, 19.6087906990001], [82.998344075, 19.6089540090001], [82.998335146, 19.6092129080001]]], [[[83.0071380900001, 19.613100021], [83.00746123, 19.6132532130001], [83.0075378120001, 19.6129281720001], [83.0071789140001, 19.612693526], [83.0069220930001, 19.6128412530001], [83.006874, 19.6129462000001], [83.0071380900001, 19.613100021]]], [[[83.0047073700001, 19.616193073], [83.0048944110001, 19.6162379730001], [83.005010849, 19.6160962600001], [83.0050953040001, 19.6159383740001], [83.0051662610001, 19.6158823870001], [83.005132857, 19.615829203], [83.005073145, 19.615806865], [83.005000405, 19.6158016860001], [83.004795114, 19.615670559], [83.0045564930001, 19.615863631], [83.0046268350001, 19.61600658], [83.004674515, 19.616017438], [83.0046805850001, 19.616070144], [83.004768723, 19.6161208090001], [83.0047073700001, 19.616193073]]], [[[83.0065375990001, 19.617013183], [83.0065063860001, 19.61685125], [83.0063795280001, 19.6165716290001], [83.00626221, 19.6165945270001], [83.006333871, 19.61696154], [83.006315881, 19.6171873760001], [83.0065369800001, 19.61718783], [83.0065372780001, 19.617103511], [83.0065375990001, 19.617013183]]], [[[83.0050530440001, 19.6180799370001], [83.0050981270001, 19.6179389800001], [83.0050846450001, 19.6178601570001], [83.0049973160001, 19.6177946600001], [83.0049770400001, 19.6178438330001], [83.0046256250001, 19.617740622], [83.0044510650001, 19.617861702], [83.0046854000001, 19.6182591], [83.0047419590001, 19.6183035610001], [83.004866092, 19.6184143560001], [83.0049793410001, 19.61829063], [83.0050530440001, 19.6180799370001]]], [[[83.0132695140001, 19.6236307020001], [83.013419952, 19.623601787], [83.0134280760001, 19.623666239], [83.0135015860001, 19.6236676930001], [83.0135479730001, 19.623707041], [83.0135933030001, 19.623694358], [83.0137123150001, 19.6234669040001], [83.013644006, 19.623443573], [83.0136243570001, 19.6234911870001], [83.0134415210001, 19.6234655120001], [83.013214012, 19.623414165], [83.0132246800001, 19.62331928], [83.012859758, 19.6232247470001], [83.012761346, 19.623393761], [83.012753349, 19.6236868560001], [83.012997823, 19.623740802], [83.0130439870001, 19.62369317], [83.0130090630001, 19.6236546690001], [83.0130551970001, 19.6235791460001], [83.013148024, 19.623590844], [83.0131024670001, 19.623706317], [83.0132724260001, 19.623705135], [83.0132695140001, 19.6236307020001]], [[83.0127893050001, 19.6234069400001], [83.0128894740001, 19.623274773], [83.0130084190001, 19.6233475380001], [83.012916551, 19.6234674830001], [83.012761346, 19.623393761], [83.0127893050001, 19.6234069400001]]], [[[83.012435565, 19.6243510090001], [83.0126609000001, 19.624334086], [83.0127942810001, 19.624434132], [83.0129041490001, 19.6243578400001], [83.0126039350001, 19.6239192740001], [83.0125261740001, 19.62397686], [83.0125242400001, 19.62411681], [83.012406909, 19.6241280450001], [83.0124062830001, 19.623982707], [83.0121743460001, 19.624007872], [83.011756436, 19.62397929], [83.0117939560001, 19.624051636], [83.0118469000001, 19.6241257], [83.0120703050001, 19.6243296480001], [83.012187833, 19.624457938], [83.012263782, 19.6244139770001], [83.012435565, 19.6243510090001]]], [[[83.0272982960001, 19.625892069], [83.027284453, 19.625916519], [83.027248978, 19.625909999], [83.02721956, 19.625924668], [83.0271884110001, 19.6259450430001], [83.0271382280001, 19.6259776420001], [83.0272567650001, 19.626070548], [83.0274445220001, 19.625962972], [83.0274142380001, 19.625896959], [83.0274808620001, 19.6258464310001], [83.0275345060001, 19.625845616], [83.027465287, 19.625760859], [83.027245517, 19.625524517], [83.027131108, 19.625561587], [83.026893134, 19.6257130390001], [83.0268722310001, 19.6257410580001], [83.026968707, 19.625848589], [83.0271364970001, 19.625976012], [83.0271875460001, 19.6259434130001], [83.0272005250001, 19.6259083690001], [83.027218695, 19.6259214090001], [83.027249843, 19.625907554], [83.027274935, 19.6258700650001], [83.0272982960001, 19.625892069]]], [[[83.0260223000001, 19.6262529000001], [83.0259506400001, 19.6261565410001], [83.0258652110001, 19.626214147], [83.0258826900001, 19.626246151], [83.025856478, 19.62627267], [83.0258836660001, 19.6263046760001], [83.0258632800001, 19.626336683], [83.025845803, 19.6263257090001], [83.025813756, 19.6262260340001], [83.025862298, 19.6262123180001], [83.025948698, 19.6261537980001], [83.025840923, 19.6259928870001], [83.0254302540001, 19.626283643], [83.0255642290001, 19.626436369], [83.0257147300001, 19.62644643], [83.0258642640001, 19.6264903320001], [83.025894362, 19.626454661], [83.0259244640001, 19.626469295], [83.025908939, 19.626574482], [83.0260254770001, 19.626648577], [83.026058495, 19.626657725], [83.0261895770001, 19.626602839], [83.026146849, 19.6265964360001], [83.0261662600001, 19.6265507000001], [83.0262157870001, 19.626568994], [83.026242971, 19.62654887], [83.0260223000001, 19.6262529000001]]], [[[83.0585977960001, 19.6266369520001], [83.0584329810001, 19.626829163], [83.058613027, 19.626932637], [83.0586426510001, 19.627077688], [83.058851217, 19.627001523], [83.0589108890001, 19.626899516], [83.0590227860001, 19.626970263], [83.0591939820001, 19.626911319], [83.0592581230001, 19.626610832], [83.0594615740001, 19.626599807], [83.0595212150001, 19.6265303870001], [83.0596223910001, 19.626551442], [83.059675042, 19.6266060130001], [83.059528658, 19.626670652], [83.059478147, 19.6267211270001], [83.059584192, 19.6267786990001], [83.0595156370001, 19.626869637], [83.0598488700001, 19.62728624], [83.0600474510001, 19.6271769800001], [83.0600195260001, 19.627085], [83.0598481160001, 19.626681004], [83.0597002270001, 19.6265034310001], [83.059657611, 19.626476607], [83.059581225, 19.6264885580001], [83.0596087490001, 19.626409532], [83.0594510390001, 19.626294403], [83.0594011460001, 19.6262878320001], [83.059380504, 19.6263023650001], [83.0593853670001, 19.626432176], [83.059256594, 19.6265108320001], [83.05899478, 19.6265651910001], [83.058929515, 19.6265590150001], [83.0587836920001, 19.626575975], [83.058673712, 19.626590218], [83.0585977960001, 19.6266369520001]]], [[[83.0272617690001, 19.6284153550001], [83.027293414, 19.628387757], [83.0273145100001, 19.6284065240001], [83.0273145100001, 19.628442953], [83.027272317, 19.6285246420001], [83.0272383290001, 19.628467239], [83.0272570810001, 19.628417563], [83.0272160600001, 19.6283723020001], [83.027073074, 19.628455095], [83.0271094070001, 19.6285456160001], [83.0271891040001, 19.62855224], [83.0271797280001, 19.628596396], [83.0272055120001, 19.628654904], [83.027172696, 19.6286858130001], [83.0271551150001, 19.628681398], [83.0271574590001, 19.628614059], [83.0271387070001, 19.628616267], [83.0271082350001, 19.6286030200001], [83.0270859660001, 19.628630618], [83.0272113720001, 19.62895296], [83.027246532, 19.6290081560001], [83.027296929, 19.6289783500001], [83.027352014, 19.629082118], [83.0274317120001, 19.6290754950001], [83.027464529, 19.6289938050001], [83.0274328840001, 19.6289750380001], [83.0274246800001, 19.62893309], [83.02744812, 19.6288911410001], [83.0275489140001, 19.628867959], [83.0275547740001, 19.628631722], [83.0275289890001, 19.6286217860001], [83.0275114090001, 19.6283171060001], [83.027439916, 19.628210027], [83.0272828650001, 19.6282641190001], [83.0272184040001, 19.628371198], [83.0272617690001, 19.6284153550001]]], [[[83.037117347, 19.629906362], [83.0371269330001, 19.629870248], [83.0370754100001, 19.6298804050001], [83.0369855450001, 19.6298533190001], [83.0369184460001, 19.629897333], [83.0367291310001, 19.6299108760001], [83.03680941, 19.629837519], [83.0366871940001, 19.6298273620001], [83.0366812020001, 19.629921032], [83.036617698, 19.629956018], [83.0366847970001, 19.630014703], [83.036808212, 19.630049689], [83.036838167, 19.630046303], [83.036866923, 19.6300632320001], [83.0368896890001, 19.630051946], [83.0370083110001, 19.630053075], [83.0370310770001, 19.6301614170001], [83.037231176, 19.630198659], [83.0372359690001, 19.6302291310001], [83.037451645, 19.6301918880001], [83.0375451040001, 19.630054203], [83.0375355180001, 19.629803662], [83.037217996, 19.6299255480001], [83.0371784550001, 19.6299142620001], [83.037158086, 19.629928933], [83.037117347, 19.629906362]]], [[[83.062271792, 19.631125879], [83.062285096, 19.631093951], [83.062274255, 19.631051611], [83.062293916, 19.6310273710001], [83.0623534630001, 19.6309861030001], [83.062364109, 19.6309372260001], [83.0624572580001, 19.6308221400001], [83.0622345200001, 19.6307519480001], [83.0621703210001, 19.6308197160001], [83.0621909700001, 19.6308432340001], [83.062200595, 19.630864371], [83.0621938510001, 19.630885741], [83.0622167940001, 19.630890267], [83.0622183420001, 19.6308901690001], [83.062234962, 19.6308501010001], [83.0622675910001, 19.630852218], [83.0623049760001, 19.630880066], [83.0622900770001, 19.630906979], [83.062275399, 19.6309246660001], [83.062251255, 19.630944345], [83.062219687, 19.6308976120001], [83.0621590700001, 19.630879067], [83.0621533330001, 19.630870578], [83.06211727, 19.63087446], [83.062076157, 19.630910972], [83.0619992360001, 19.6309385610001], [83.0619320910001, 19.630978425], [83.0619434390001, 19.631010987], [83.0619135200001, 19.6310510370001], [83.0618897410001, 19.6310515070001], [83.061862734, 19.631035958], [83.0617589760001, 19.6311135070001], [83.0617857110001, 19.631127936], [83.0618127540001, 19.6311767770001], [83.0617835310001, 19.631208422], [83.0617435880001, 19.6312220230001], [83.0617307190001, 19.6312025130001], [83.0617258920001, 19.631174194], [83.0617127230001, 19.6311712850001], [83.0616925250001, 19.631140461], [83.061626806, 19.631167243], [83.0616270690001, 19.6312072060001], [83.0615834660001, 19.6312236270001], [83.062074942, 19.631468254], [83.062073533, 19.631418787], [83.0620971930001, 19.631374834], [83.0621308010001, 19.6313658440001], [83.062143608, 19.631340879], [83.0621279700001, 19.6313108460001], [83.062212618, 19.6312166480001], [83.0622284350001, 19.631125044], [83.062271792, 19.631125879]]], [[[83.0389196040001, 19.6316777120001], [83.038994808, 19.63154511], [83.0388972170001, 19.631466577], [83.038887399, 19.6313478280001], [83.038952002, 19.6313207920001], [83.0389571100001, 19.631197232], [83.0389603, 19.631192775], [83.0387284560001, 19.63115114], [83.0386549560001, 19.631103425], [83.038601509, 19.6312635040001], [83.038567625, 19.631270541], [83.038487004, 19.631441269], [83.0385116910001, 19.631478713], [83.0384856950001, 19.631510173], [83.0385738370001, 19.6320300620001], [83.03872992, 19.6318904300001], [83.0388470180001, 19.6317291990001], [83.0388718030001, 19.6317228720001], [83.0389196040001, 19.6316777120001]]], [[[83.0373388390001, 19.631605897], [83.037285603, 19.6316257030001], [83.0373229560001, 19.631687297], [83.0372250080001, 19.6317611010001], [83.03727818, 19.6317940490001], [83.037343945, 19.6317518750001], [83.0373537390001, 19.631775598], [83.0373033660001, 19.6318164530001], [83.0372459970001, 19.631825679], [83.0371998210001, 19.6317808690001], [83.03712706, 19.631825679], [83.0371788320001, 19.6319192510001], [83.0372376010001, 19.631859945], [83.037271183, 19.6318849850001], [83.0371648400001, 19.631985147], [83.037097676, 19.632032592], [83.0370319100001, 19.632161748], [83.037105899, 19.6322252530001], [83.0371854220001, 19.6321218950001], [83.037172174, 19.6320973630001], [83.0372594470001, 19.632045395], [83.037315429, 19.632011672], [83.037334329, 19.6319166860001], [83.037380607, 19.631863007], [83.0374778460001, 19.6318825700001], [83.037534614, 19.63175491], [83.037474741, 19.6317296710001], [83.037393858, 19.631799567], [83.0373571520001, 19.6317145740001], [83.037393884, 19.6316495500001], [83.0373388390001, 19.631605897]]], [[[83.0347927240001, 19.632550587], [83.0348456850001, 19.632550587], [83.0349465350001, 19.6324667370001], [83.0349757380001, 19.6324887480001], [83.03504115, 19.6324534660001], [83.0350653740001, 19.632494928], [83.035039248, 19.6325313510001], [83.03496885, 19.632526268], [83.03496118, 19.6326208240001], [83.035071294, 19.6326608250001], [83.0350993930001, 19.632648288], [83.0351454070001, 19.6326678390001], [83.0351253220001, 19.6327311040001], [83.0351499130001, 19.632781972], [83.0351275190001, 19.632818974], [83.0351601180001, 19.632834669], [83.035388159, 19.632591231], [83.035369679, 19.6325740390001], [83.0354474100001, 19.6324924530001], [83.035376484, 19.6324558690001], [83.035277374, 19.632548007], [83.0352187220001, 19.632507376], [83.035175403, 19.6325237340001], [83.0351614620001, 19.6324838250001], [83.035191932, 19.632469165], [83.0352344820001, 19.632489982], [83.0353383390001, 19.6324238], [83.035374727, 19.632445091], [83.0354000580001, 19.6324121220001], [83.0354017860001, 19.632289272], [83.0353454190001, 19.6322652760001], [83.0353094710001, 19.63229561], [83.0352891480001, 19.632277737], [83.03529567, 19.63225499], [83.0353332160001, 19.632246824], [83.035358247, 19.6322206630001], [83.0353335, 19.6321778], [83.0350039040001, 19.6322966700001], [83.0348441420001, 19.632346425], [83.0347566720001, 19.6324063210001], [83.0347915460001, 19.6324594810001], [83.034751783, 19.6325149], [83.0347927240001, 19.632550587]]], [[[83.033041085, 19.632766281], [83.0330579500001, 19.6327345120001], [83.0330557020001, 19.6326805050001], [83.033098426, 19.6326773280001], [83.0331164150001, 19.6327345120001], [83.033169258, 19.6327588680001], [83.0332119830001, 19.6327503970001], [83.0332131070001, 19.63271651], [83.03327382, 19.6327186280001], [83.0332681990001, 19.632783224], [83.0332080860001, 19.632782606], [83.0332123810001, 19.6327519720001], [83.033170038, 19.6327606420001], [83.033149531, 19.632788093], [83.0329630250001, 19.6329204420001], [83.032961856, 19.633321091], [83.033199514, 19.6332576400001], [83.033388518, 19.633183613], [83.0334483, 19.633065], [83.0335082810001, 19.6326372290001], [83.033452142, 19.63253324], [83.0333585760001, 19.632194833], [83.0328271220001, 19.632393999], [83.0329623820001, 19.632918771], [83.0331467190001, 19.6327872300001], [83.0331209120001, 19.632780047], [83.033098426, 19.6328033450001], [83.033041085, 19.632766281]]], [[[83.039201366, 19.6324980050001], [83.0387336570001, 19.632827536], [83.03897736, 19.6330676590001], [83.0393264940001, 19.632798931], [83.03928276, 19.6327234130001], [83.039319204, 19.632610137], [83.0392536040001, 19.632496861], [83.039201366, 19.6324980050001]]], [[[82.9999167990001, 19.647743244], [82.9999276780001, 19.6477995980001], [82.999968476, 19.6479097440001], [82.999963581, 19.6480142290001], [83.0003063670001, 19.6481934400001], [83.0007759000001, 19.6484271470001], [83.001095557, 19.648435106], [83.001191255, 19.648090863], [83.001137493, 19.648032825], [83.0011698700001, 19.647945323], [83.00121341, 19.6479124690001], [83.0013695480001, 19.6479363440001], [83.0013779320001, 19.6480040170001], [83.0012822840001, 19.6480602460001], [83.00120179, 19.6480694150001], [83.0010928090001, 19.6484562630001], [83.0014690030001, 19.648554774], [83.001604823, 19.648193006], [83.0016986590001, 19.648194862], [83.001731997, 19.6482618690001], [83.001994611, 19.648355582], [83.0020573630001, 19.648224812], [83.0020927180001, 19.6477867880001], [83.0020328780001, 19.6476228500001], [83.002008398, 19.647341081], [83.0021416720001, 19.6468979310001], [83.0017656000001, 19.6468577000001], [83.0016439290001, 19.646782666], [83.0014888960001, 19.6470157680001], [83.0013033000001, 19.6471310000001], [83.0011897090001, 19.6474589160001], [83.0009639580001, 19.647387193], [83.0008823620001, 19.6476510310001], [83.0006810900001, 19.6475741850001], [83.0005178970001, 19.6474128080001], [83.000283987, 19.647320592], [83.000033757, 19.647184829], [82.9996176110001, 19.6474486650001], [82.999712806, 19.6476638350001], [82.9997971230001, 19.647725313], [82.999840642, 19.6476484670001], [82.9998814410001, 19.6476535900001], [82.9999276790001, 19.6476996980001], [82.9999167990001, 19.647743244]]]]}, "properties": {"site_id": "FCF_GV_EMU_Kalahandi_2", "name": "FCF_GV_EMU_Kalahandi_2", "n_member_parcels": 106}}]}