{"type": "FeatureCollection", "features": [{"type": "Feature", "geometry": {"type": "Polygon", "coordinates": [[[73.8110921338132, 18.641507896682295, 0.0], [73.8111099822834, 18.641583924152496, 0.0], [73.81113578155217, 18.64159408503076, 0.0], [73.81126353049554, 18.641594892812254, 0.0], [73.8115005063016, 18.641596391026667, 0.0], [73.81173748213017, 18.64159788894253, 0.0], [73.81197445798125, 18.641599386559857, 0.0], [73.81197390061715, 18.641679538920318, 0.0], [73.8120220436082, 18.64168312292619, 0.0], [73.81209243423751, 18.641826043940902, 0.0], [73.81220986328177, 18.64182678588106, 0.0], [73.8122088843577, 18.641967586925855, 0.0], [73.8122228913221, 18.641981880125197, 0.0], [73.812230857679, 18.641999017509796, 0.0], [73.812239995002, 18.642015615409804, 0.0], [73.8122502633196, 18.6420316012169, 0.0], [73.8122616177129, 18.642046905000203, 0.0], [73.81226685577042, 18.642053057868107, 0.0], [73.81244526920861, 18.642054184937056, 0.0], [73.81244683949105, 18.641828282920738, 0.0], [73.8124470028811, 18.641804777320477, 0.0], [73.81244045260453, 18.64178934353309, 0.0], [73.81243943407009, 18.64178671141526, 0.0], [73.81241604515608, 18.641719955478248, 0.0], [73.81241519995366, 18.64171726817432, 0.0], [73.81239620238478, 18.6416492571558, 0.0], [73.81239553377301, 18.641646525027266, 0.0], [73.81238831299947, 18.641612240165813, 0.0], [73.81238519249767, 18.6416119088159, 0.0], [73.81236764632037, 18.641609460868416, 0.0], [73.81236443962003, 18.641608905526713, 0.0], [73.81234711140776, 18.641605313869476, 0.0], [73.8123439523256, 18.641604549761222, 0.0], [73.81233350557423, 18.641601655065397, 0.0], [73.81221143385486, 18.641600883878635, 0.0], [73.8122118734124, 18.641537659926723, 0.0], [73.81220969631785, 18.641536132151415, 0.0], [73.81218536377976, 18.641520888290465, 0.0], [73.81216021587005, 18.641506898553438, 0.0], [73.81213435351768, 18.641494217116872, 0.0], [73.81198997675664, 18.641432671810293, 0.0], [73.81197565350192, 18.641427462019063, 0.0], [73.81184234269047, 18.641378972868996, 0.0], [73.81182071507374, 18.641372503079374, 0.0], [73.81173905330708, 18.641371986973443, 0.0], [73.81150207779167, 18.64137048907703, 0.0], [73.81126510229878, 18.641368990882075, 0.0], [73.8110281268284, 18.64136749238859, 0.0], [73.8110271026268, 18.641514663222537, 0.0], [73.8110921338132, 18.641507896682295, 0.0]]]}, "properties": {"site_id": "SEG32", "name": "SEG32", "n_member_parcels": 8}}]}