{"type": "FeatureCollection", "features": [{"type": "Feature", "geometry": {"type": "Polygon", "coordinates": [[[73.80890322294515, 18.640224483752643, 0.0], [73.80914019664684, 18.640225984835507, 0.0], [73.80914177113311, 18.640000083047305, 0.0], [73.80906038256089, 18.63999956754037, 0.0], [73.8090015147726, 18.64005946315709, 0.0], [73.8089730383232, 18.6400878068783, 0.0], [73.8089428246034, 18.6401144660415, 0.0], [73.808910983077, 18.64013934406031, 0.0], [73.8089037818435, 18.64014431129344, 0.0], [73.80890322294515, 18.640224483752643, 0.0]]]}, "properties": {"site_id": "SEG106", "name": "SEG106", "n_member_parcels": 1}}]}