{"type": "FeatureCollection", "features": [{"type": "Feature", "geometry": {"type": "Polygon", "coordinates": [[[73.81004245809169, 18.64678313788571, 0.0], [73.81004088418142, 18.647009039585352, 0.0], [73.80980712014059, 18.647007559496412, 0.0], [73.8098038739884, 18.647011414313997, 0.0], [73.80980232674735, 18.647233440786792, 0.0], [73.80980075247872, 18.647459342455853, 0.0], [73.80980030165045, 18.64752403402903, 0.0], [73.80980748563958, 18.647557759471443, 0.0], [73.80985346627847, 18.647685587886052, 0.0], [73.80993491370477, 18.64791201523964, 0.0], [73.8100345883149, 18.64791264632839, 0.0], [73.81003301429189, 18.648138548000272, 0.0], [73.81003287561727, 18.648158450240732, 0.0], [73.81012691606986, 18.64836505413532, 0.0], [73.81026842533659, 18.64836594995798, 0.0], [73.81026685158176, 18.648591851638244, 0.0], [73.81026629829398, 18.64867127152459, 0.0], [73.81026733842423, 18.64867355664655, 0.0], [73.81035264123362, 18.648818306325758, 0.0], [73.81050226354381, 18.648819253344612, 0.0], [73.81050383700789, 18.648593351650437, 0.0], [73.81074082245654, 18.648594851363963, 0.0], [73.81074239558475, 18.648368949644766, 0.0], [73.81074396869043, 18.648143047920016, 0.0], [73.81074554177358, 18.647917146189716, 0.0], [73.81063372562147, 18.647916438646245, 0.0], [73.8106062269365, 18.648059424135695, 0.0], [73.8106096882376, 18.648142198210373, 0.0], [73.8106114783977, 18.6481850083595, 0.0], [73.81056672636531, 18.64836783799996, 0.0], [73.8105247777403, 18.64853921420399, 0.0], [73.81050413840522, 18.64855007976741, 0.0], [73.8104617541742, 18.648572392904203, 0.0], [73.8104355900769, 18.648367008055047, 0.0], [73.81042626791742, 18.64829383019209, 0.0], [73.81042081322431, 18.648197442601607, 0.0], [73.81036419301265, 18.648140644499765, 0.0], [73.81026999906886, 18.64814004827218, 0.0], [73.81027157277857, 18.647914146580817, 0.0], [73.81027314646575, 18.647688244883906, 0.0], [73.81034246406566, 18.647688683643892, 0.0], [73.8103448181842, 18.6476743191266, 0.0], [73.8104645965124, 18.64762836060409, 0.0], [73.810477417487, 18.647546687613794, 0.0], [73.81036779906096, 18.6474629323309, 0.0], [73.81027472013038, 18.647462343181445, 0.0], [73.81027513857822, 18.64740227387747, 0.0], [73.8102183122092, 18.647366940389798, 0.0], [73.8101083736075, 18.64731952781821, 0.0], [73.81003864844806, 18.647329926495306, 0.0], [73.809958129269, 18.647341934937796, 0.0], [73.80996466174909, 18.647234468664738, 0.0], [73.8099650484562, 18.6472281069133, 0.0], [73.81003948271112, 18.647210188431227, 0.0], [73.81027687473797, 18.64715304106592, 0.0], [73.8102841379459, 18.64715129258899, 0.0], [73.81051412486079, 18.647116248240742, 0.0], [73.8105148506251, 18.647012039635758, 0.0], [73.81051581864342, 18.64687304600144, 0.0], [73.8105008581421, 18.6468198080912, 0.0], [73.8104853393712, 18.64678594118127, 0.0], [73.8104356121309, 18.646677420382996, 0.0], [73.81043044528225, 18.646559682081534, 0.0], [73.81028101456342, 18.646558736316088, 0.0], [73.81027944098896, 18.646784638040753, 0.0], [73.81004245809169, 18.64678313788571, 0.0]]]}, "properties": {"site_id": "SEG11", "name": "SEG11", "n_member_parcels": 21}}]}