{"type": "FeatureCollection", "features": [{"type": "Feature", "geometry": {"type": "Polygon", "coordinates": [[[73.81268067576181, 18.64228158372783, 0.0], [73.81268121692887, 18.642203716973597, 0.0], [73.81265343147591, 18.642155718862906, 0.0], [73.81258586367588, 18.642055072977662, 0.0], [73.81244526920861, 18.642054184937056, 0.0], [73.81244441361255, 18.64217727026758, 0.0], [73.8124562544317, 18.642186441226606, 0.0], [73.8124760250387, 18.64220386171929, 0.0], [73.8124945906257, 18.642222448075497, 0.0], [73.8125118756875, 18.642242124705696, 0.0], [73.81252780992651, 18.64226281158659, 0.0], [73.81253974953205, 18.642280693653444, 0.0], [73.81268067576181, 18.64228158372783, 0.0]]]}, "properties": {"site_id": "SEG107", "name": "SEG107", "n_member_parcels": 1}}]}