{"type": "FeatureCollection", "features": [{"type": "Feature", "geometry": {"type": "Polygon", "coordinates": [[[73.80677203826372, 18.63998505898051, 0.0], [73.80677050687612, 18.640204340870525, 0.0], [73.80677257437439, 18.64021097398807, 0.0], [73.8068196607343, 18.64036204017824, 0.0], [73.80684050378191, 18.64043731668395, 0.0], [73.80690316585854, 18.640663625933747, 0.0], [73.80700427946778, 18.640664267551713, 0.0], [73.80700585681745, 18.640438365950192, 0.0], [73.80724283065159, 18.64043986944072, 0.0], [73.80724440766552, 18.64021396781412, 0.0], [73.80700743414452, 18.640212464343122, 0.0], [73.80700901144897, 18.6399865627305, 0.0], [73.80677203826372, 18.63998505898051, 0.0]]]}, "properties": {"site_id": "SEG50", "name": "SEG50", "n_member_parcels": 4}}]}