{"type": "FeatureCollection", "features": [{"type": "Feature", "geometry": {"type": "Polygon", "coordinates": [[[73.81269166523167, 18.64070026939987, 0.0], [73.81269323506594, 18.640474367330828, 0.0], [73.8125189017058, 18.640473266347982, 0.0], [73.81251928466415, 18.640476487478434, 0.0], [73.8125195348999, 18.640479474836493, 0.0], [73.81252118716979, 18.640513314781003, 0.0], [73.81252122910692, 18.640516311381155, 0.0], [73.81252052442909, 18.640550181300362, 0.0], [73.81252035788292, 18.640553173958907, 0.0], [73.81251729935607, 18.64058692483788, 0.0], [73.81251692505923, 18.640589900388026, 0.0], [73.81251152613832, 18.640623383735342, 0.0], [73.81251094573744, 18.640626329085904, 0.0], [73.81250323017424, 18.64065939758725, 0.0], [73.8125024462227, 18.640662299779795, 0.0], [73.81249244796133, 18.640694807945803, 0.0], [73.81249146390822, 18.64069765421149, 0.0], [73.81249094544073, 18.640699001747592, 0.0], [73.81269166523167, 18.64070026939987, 0.0]]]}, "properties": {"site_id": "SEG129", "name": "SEG129", "n_member_parcels": 1}}]}