{"type": "FeatureCollection", "features": [{"type": "Feature", "geometry": {"type": "Polygon", "coordinates": [[[73.80748453454291, 18.639763667677723, 0.0], [73.80772150748287, 18.639765170512653, 0.0], [73.80771993114038, 18.639991072189392, 0.0], [73.80795690441605, 18.639992574745325, 0.0], [73.8079584804454, 18.639766673049078, 0.0], [73.80795858486707, 18.639751705553874, 0.0], [73.80793985200519, 18.639686772001976, 0.0], [73.80790209542552, 18.639579700570202, 0.0], [73.80790205676743, 18.63957959047404, 0.0], [73.80788832535679, 18.639540316570265, 0.0], [73.80772308380274, 18.639539268830372, 0.0], [73.80748611117592, 18.639537766014957, 0.0], [73.80724913857169, 18.639536262901032, 0.0], [73.80724756162557, 18.63976216454428, 0.0], [73.80748453454291, 18.639763667677723, 0.0]]]}, "properties": {"site_id": "SEG56", "name": "SEG56", "n_member_parcels": 4}}]}