{"type": "FeatureCollection", "features": [{"type": "Feature", "geometry": {"type": "Polygon", "coordinates": [[[73.81365621045151, 18.644772773957335, 0.0], [73.81362470449051, 18.644793706079124, 0.0], [73.81361110703101, 18.644803989524384, 0.0], [73.81360975679686, 18.64499839272436, 0.0], [73.81360947432479, 18.645039062014575, 0.0], [73.81373293684669, 18.645225082063707, 0.0], [73.8138451688078, 18.64522579029978, 0.0], [73.8138461044902, 18.64509104846075, 0.0], [73.81384369842132, 18.64508156046952, 0.0], [73.81384238847711, 18.645075490528153, 0.0], [73.81384044110992, 18.645064584293728, 0.0], [73.81383957067928, 18.645058443040945, 0.0], [73.81383841205738, 18.6450474352218, 0.0], [73.81383798523393, 18.645041251541116, 0.0], [73.81383762080628, 18.645030193909076, 0.0], [73.81383763959731, 18.645023996883566, 0.0], [73.81383807107761, 18.645012941444513, 0.0], [73.8138385353946, 18.645006760219164, 0.0], [73.81383930604298, 18.644999841351083, 0.0], [73.81383976075332, 18.64499575896881, 0.0], [73.81384066841241, 18.644989622615277, 0.0], [73.81384268188627, 18.644978727294173, 0.0], [73.8138440286183, 18.6449726646733, 0.0], [73.81384682073728, 18.644961926524157, 0.0], [73.81384700543501, 18.644961307875302, 0.0], [73.81384830622154, 18.644773986183864, 0.0], [73.81365621045151, 18.644772773957335, 0.0]]]}, "properties": {"site_id": "SEG76", "name": "SEG76", "n_member_parcels": 2}}]}