{"type": "FeatureCollection", "features": [{"type": "Feature", "geometry": {"type": "Polygon", "coordinates": [[[73.80819009925234, 18.640535760974927, 0.0], [73.80817109186475, 18.64049000403573, 0.0], [73.80817047591545, 18.64048843708043, 0.0], [73.80815459892321, 18.64044565140791, 0.0], [73.8079537522896, 18.64044437812117, 0.0], [73.80795217619249, 18.640670279800766, 0.0], [73.80807364288114, 18.64067104988526, 0.0], [73.80807665700682, 18.640663043368004, 0.0], [73.80808049260858, 18.640655269810626, 0.0], [73.80808508523482, 18.640647878590865, 0.0], [73.80809039337825, 18.640640936508984, 0.0], [73.80809636906488, 18.64063450630603, 0.0], [73.80810295828772, 18.64062864609686, 0.0], [73.80811010149469, 18.640623408844768, 0.0], [73.80811773412698, 18.640618841882915, 0.0], [73.80812578720248, 18.640614986486533, 0.0], [73.80813418793919, 18.640611877499854, 0.0], [73.80818969174041, 18.6405941811687, 0.0], [73.80819009925234, 18.640535760974927, 0.0]]]}, "properties": {"site_id": "SEG94", "name": "SEG94", "n_member_parcels": 1}}]}