{"type": "FeatureCollection", "features": [{"type": "Feature", "geometry": {"type": "Polygon", "coordinates": [[[73.81289881474466, 18.64499390437206, 0.0], [73.81313579540624, 18.644995400788094, 0.0], [73.81313422574843, 18.645221302785018, 0.0], [73.81313265606812, 18.64544720477639, 0.0], [73.81313108636533, 18.645673106762207, 0.0], [73.81336806798912, 18.64567460293792, 0.0], [73.81360504963538, 18.645676098815013, 0.0], [73.8136066187117, 18.64545019679035, 0.0], [73.81360773172291, 18.645289953103475, 0.0], [73.813563968702, 18.645224015669452, 0.0], [73.81337120674573, 18.645222798921882, 0.0], [73.8133727760903, 18.644996896905532, 0.0], [73.81337318926468, 18.644937421267663, 0.0], [73.81331508570099, 18.644839098364844, 0.0], [73.81327206472432, 18.64477034920463, 0.0], [73.81313736504156, 18.64476949878562, 0.0], [73.81313883841331, 18.64455744808918, 0.0], [73.81313013598141, 18.644543541224955, 0.0], [73.81298820760358, 18.644316733153783, 0.0], [73.81290352452281, 18.644316198406287, 0.0], [73.81290195461926, 18.64454210040042, 0.0], [73.81290038469321, 18.644768002389014, 0.0], [73.81289881474466, 18.64499390437206, 0.0]]]}, "properties": {"site_id": "SEG29", "name": "SEG29", "n_member_parcels": 9}}]}