{"type": "FeatureCollection", "features": [{"type": "Feature", "geometry": {"type": "Polygon", "coordinates": [[[73.81269721617646, 18.639901463584135, 0.0], [73.81269637466696, 18.64002256317609, 0.0], [73.81245940094038, 18.64002106659044, 0.0], [73.81245783083797, 18.640246968651148, 0.0], [73.81245767121719, 18.64026993427542, 0.0], [73.81247197802602, 18.640298564310644, 0.0], [73.81247323516372, 18.640301311135538, 0.0], [73.81248635778844, 18.640332793433792, 0.0], [73.81248742114036, 18.640335613661843, 0.0], [73.81249832554832, 18.640367855998704, 0.0], [73.81249919043597, 18.640370737221936, 0.0], [73.81250782865072, 18.640403597743717, 0.0], [73.81250849126897, 18.640406527286206, 0.0], [73.81251482528405, 18.64043986141915, 0.0], [73.81251528271736, 18.6404428263917, 0.0], [73.8125189017058, 18.640473266347982, 0.0], [73.81269323506594, 18.640474367330828, 0.0], [73.81269166523167, 18.64070026939987, 0.0], [73.81292863992016, 18.6407017657453, 0.0], [73.8130069715013, 18.64070226029406, 0.0], [73.81301356305042, 18.640699835122078, 0.0], [73.81302940256491, 18.640692819587134, 0.0], [73.81304471712848, 18.64068481462174, 0.0], [73.81305943882276, 18.64067585572692, 0.0], [73.81307350235872, 18.640665982634495, 0.0], [73.8130868453662, 18.640655239130428, 0.0], [73.8130994086707, 18.640643672860996, 0.0], [73.81311113655556, 18.640631335121157, 0.0], [73.81312197700898, 18.640618280627645, 0.0], [73.81313188195485, 18.640604567275542, 0.0], [73.81314080746645, 18.64059025588181, 0.0], [73.81314871396009, 18.640575409916128, 0.0], [73.81315556637182, 18.64056009521832, 0.0], [73.8131613343122, 18.640544379707485, 0.0], [73.81316599220149, 18.64052833307982, 0.0], [73.81316685754886, 18.64052433247616, 0.0], [73.81316718383913, 18.64047735968429, 0.0], [73.81316875302463, 18.640251457570834, 0.0], [73.81322968147893, 18.640251842161494, 0.0], [73.81323230458187, 18.640247414462877, 0.0], [73.81323387931435, 18.640244944391526, 0.0], [73.81324665393942, 18.64022627919351, 0.0], [73.81324799328289, 18.640224424909384, 0.0], [73.81329528908772, 18.64016231678621, 0.0], [73.8133383510957, 18.6400989033602, 0.0], [73.81337788554693, 18.640033247150246, 0.0], [73.81338131578484, 18.640026887179207, 0.0], [73.81340763602552, 18.639978087055564, 0.0], [73.81340826039758, 18.639888181170058, 0.0], [73.81340027650474, 18.639885017804268, 0.0], [73.81335399340657, 18.639869543524917, 0.0], [73.81330682785914, 18.63985657902495, 0.0], [73.81327007591693, 18.639848571525505, 0.0], [73.81323239538058, 18.6398421544153, 0.0], [73.81320804622555, 18.639839146451738, 0.0], [73.81317159011478, 18.639843017915513, 0.0], [73.81303528881283, 18.639857492394164, 0.0], [73.81303474727446, 18.639857524039307, 0.0], [73.81303420352926, 18.639857603626435, 0.0], [73.81293443639407, 18.639867459752658, 0.0], [73.8128588466214, 18.639874927329277, 0.0], [73.81269721617646, 18.639901463584135, 0.0]]]}, "properties": {"site_id": "SEG22", "name": "SEG22", "n_member_parcels": 12}}]}