{"type": "FeatureCollection", "features": [{"type": "Feature", "geometry": {"type": "Polygon", "coordinates": [[[73.81150522070425, 18.640918685161115, 0.0], [73.81150607897933, 18.640795303067797, 0.0], [73.81148093211532, 18.640779869208572, 0.0], [73.811440552143, 18.640758556712363, 0.0], [73.81139877830041, 18.640739844109927, 0.0], [73.81135579453999, 18.640723813802328, 0.0], [73.81131179014135, 18.640710536379128, 0.0], [73.81126975191282, 18.640700722354893, 0.0], [73.81126974840505, 18.640701226520278, 0.0], [73.81132175031279, 18.640784759599388, 0.0], [73.81132285039503, 18.640786626103633, 0.0], [73.81139603632805, 18.640917994934163, 0.0], [73.81150522070425, 18.640918685161115, 0.0]]]}, "properties": {"site_id": "SEG100", "name": "SEG100", "n_member_parcels": 1}}]}