{"type": "FeatureCollection", "features": [{"type": "Feature", "geometry": {"type": "Polygon", "coordinates": [[[73.81028888209735, 18.6454292276095, 0.0], [73.81028730863567, 18.645655129361916, 0.0], [73.81028573515142, 18.64588103110879, 0.0], [73.81028416164463, 18.646106932850103, 0.0], [73.8102825881153, 18.646332834585873, 0.0], [73.81042212849238, 18.6463337177475, 0.0], [73.8104216579912, 18.64631710286369, 0.0], [73.8104811945861, 18.646124773453497, 0.0], [73.81050488177586, 18.64610832974059, 0.0], [73.81052122334475, 18.646096985374374, 0.0], [73.8106812569034, 18.645985889436798, 0.0], [73.8107063290632, 18.64590429392649, 0.0], [73.81075961651281, 18.645895806783418, 0.0], [73.8107596985076, 18.64588403036723, 0.0], [73.81052271681824, 18.64588253088732, 0.0], [73.81052367498899, 18.645744941356927, 0.0], [73.8105221338512, 18.645743999814094, 0.0], [73.8103830176588, 18.645708081954105, 0.0], [73.81038094169885, 18.645655721963372, 0.0], [73.810380412329, 18.645642370162694, 0.0], [73.8104160317337, 18.645585659668384, 0.0], [73.8104606058534, 18.645562583418304, 0.0], [73.81052538293645, 18.645499683875634, 0.0], [73.8105258631377, 18.645430727349087, 0.0], [73.81052743626361, 18.645204825571643, 0.0], [73.81052900936699, 18.64497892378866, 0.0], [73.81029202895313, 18.644977424088015, 0.0], [73.81029045553652, 18.64520332585153, 0.0], [73.81028888209735, 18.6454292276095, 0.0]]]}, "properties": {"site_id": "SEG37", "name": "SEG37", "n_member_parcels": 7}}]}