{"type": "FeatureCollection", "features": [{"type": "Feature", "geometry": {"type": "Polygon", "coordinates": [[[73.81037621186894, 18.640911544884617, 0.0], [73.81038134278391, 18.640928587378003, 0.0], [73.8103982006818, 18.6410010216519, 0.0], [73.8104003848276, 18.641014318314188, 0.0], [73.8104016607397, 18.6410277219312, 0.0], [73.81040202305711, 18.641041176188, 0.0], [73.81040147025742, 18.641054624556702, 0.0], [73.8104000046629, 18.6410680105343, 0.0], [73.810397632431, 18.6410812778798, 0.0], [73.8103943635285, 18.6410943708506, 0.0], [73.8103902116895, 18.641107234436898, 0.0], [73.8103851943575, 18.641119814592486, 0.0], [73.8103793326127, 18.64113205846199, 0.0], [73.81037629015297, 18.641137457200635, 0.0], [73.8103726510829, 18.64114391460299, 0.0], [73.8103651778403, 18.641155333202097, 0.0], [73.8103569442836, 18.64116626628399, 0.0], [73.8103479850041, 18.6411766678835, 0.0], [73.8103388343222, 18.6411859687853, 0.0], [73.8103290515087, 18.64119466537679, 0.0], [73.8103186803826, 18.6412027187046, 0.0], [73.81031831489565, 18.64120296566708, 0.0], [73.8103077673977, 18.6412100926962, 0.0], [73.8102963614352, 18.641216754322407, 0.0], [73.8102845135845, 18.641222673744405, 0.0], [73.8102722769141, 18.6412278244483, 0.0], [73.8102597062342, 18.641232183363, 0.0], [73.810246857851, 18.64123573096429, 0.0], [73.8102337893149, 18.6412384513618, 0.0], [73.810220559162, 18.641240332370394, 0.0], [73.8102072266526, 18.641241365564593, 0.0], [73.8101938515055, 18.6412415463168, 0.0], [73.8101804936315, 18.6412408738318, 0.0], [73.8101435595293, 18.641236641583493, 0.0], [73.8101070041403, 18.6412300686834, 0.0], [73.81008118488847, 18.641223699309272, 0.0], [73.8100709905132, 18.6412211844487, 0.0], [73.8100356792802, 18.641210028506098, 0.0], [73.8100012279419, 18.6411966506014, 0.0], [73.8099912330895, 18.6411920046095, 0.0], [73.809981586681, 18.641186731616088, 0.0], [73.8099723319382, 18.6411808552476, 0.0], [73.80996351032812, 18.6411744018336, 0.0], [73.8099551613769, 18.6411674002894, 0.0], [73.80994732249292, 18.6411598819864, 0.0], [73.8099400287992, 18.64115188061109, 0.0], [73.80993331297582, 18.6411434320146, 0.0], [73.80992723354478, 18.641134615284088, 0.0], [73.80984482347428, 18.641134093624142, 0.0], [73.80984324981463, 18.64135999544306, 0.0], [73.8100802251723, 18.641361495429233, 0.0], [73.81031720055252, 18.64136299511688, 0.0], [73.81055417595528, 18.64136449450599, 0.0], [73.81055574867545, 18.64113859262865, 0.0], [73.81055732137308, 18.64091269074576, 0.0], [73.81037621186894, 18.640911544884617, 0.0]]]}, "properties": {"site_id": "SEG58", "name": "SEG58", "n_member_parcels": 4}}]}