{"type": "FeatureCollection", "features": [{"type": "Feature", "geometry": {"type": "Polygon", "coordinates": [[[73.81383575602707, 18.64658120251434, 0.0], [73.81383732488005, 18.64635530049246, 0.0], [73.81371491628207, 18.646354527988702, 0.0], [73.8136971078952, 18.6464352517812, 0.0], [73.8137240654368, 18.6465230157316, 0.0], [73.81373926074677, 18.646580593545504, 0.0], [73.81383575602707, 18.64658120251434, 0.0]]]}, "properties": {"site_id": "SEG123", "name": "SEG123", "n_member_parcels": 1}}]}