{"type": "FeatureCollection", "features": [{"type": "Feature", "geometry": {"type": "Polygon", "coordinates": [[[73.81126615149714, 18.64641052137383, 0.0], [73.81125712278497, 18.64640986989261, 0.0], [73.81124820046503, 18.64640840024867, 0.0], [73.81123946594023, 18.646406125850298, 0.0], [73.81123099890009, 18.646403067448016, 0.0], [73.81123007336677, 18.646402632787094, 0.0], [73.81122894512497, 18.646564733872104, 0.0], [73.81122737280359, 18.64679063567463, 0.0], [73.81122674239414, 18.646881208250882, 0.0], [73.81122924154812, 18.646891242346218, 0.0], [73.81124619900929, 18.646944300534393, 0.0], [73.8112666064219, 18.64699624317731, 0.0], [73.81127628843507, 18.64701685678236, 0.0], [73.81146278378293, 18.647018036152957, 0.0], [73.81146126498895, 18.64723628474694, 0.0], [73.81146985628756, 18.647242099022485, 0.0], [73.81147312761388, 18.64724401331282, 0.0], [73.81169819538881, 18.647245436366003, 0.0], [73.81184730174745, 18.647246378983745, 0.0], [73.81184963491813, 18.64724126334272, 0.0], [73.81185283271348, 18.647232779995658, 0.0], [73.81185544432392, 18.647224116190355, 0.0], [73.81185745866823, 18.64721530868821, 0.0], [73.81185886719925, 18.647206394861126, 0.0], [73.81185966394047, 18.647197412531458, 0.0], [73.81185984551136, 18.64718839981227, 0.0], [73.8118594111416, 18.647179394945617, 0.0], [73.81185836485858, 18.647170454803756, 0.0], [73.81185578887415, 18.647156733381284, 0.0], [73.81185226238999, 18.64714322472623, 0.0], [73.81184779767227, 18.647129970634367, 0.0], [73.811841845623, 18.647115662365728, 0.0], [73.81183318654493, 18.64709494936488, 0.0], [73.81183216312665, 18.6470922559781, 0.0], [73.81182488594098, 18.647071025055173, 0.0], [73.81182404363507, 18.64706827526006, 0.0], [73.81181819249886, 18.647046647413156, 0.0], [73.81181753469102, 18.64704385226288, 0.0], [73.81181313312493, 18.64702191443392, 0.0], [73.81181285614716, 18.64702024946217, 0.0], [73.81169976712872, 18.64701953453567, 0.0], [73.81170133884608, 18.64679363269978, 0.0], [73.81184763423175, 18.646794557526686, 0.0], [73.81185391387565, 18.646782774372593, 0.0], [73.81185546866055, 18.646780087084803, 0.0], [73.81186690381037, 18.6467618186066, 0.0], [73.81186864638241, 18.646759238128354, 0.0], [73.81188135613235, 18.646741751764157, 0.0], [73.81188327845192, 18.646739290000856, 0.0], [73.81189720416359, 18.646722666426324, 0.0], [73.81189929736162, 18.646720334735814, 0.0], [73.81191437478665, 18.64670465064579, 0.0], [73.81191662920585, 18.646702459785566, 0.0], [73.81193278878223, 18.6466877875407, 0.0], [73.81193519402156, 18.646685747618555, 0.0], [73.81193910431374, 18.646682651508833, 0.0], [73.81193989328271, 18.646569228903523, 0.0], [73.81210689624554, 18.646570284404245, 0.0], [73.81214249201987, 18.64654872979282, 0.0], [73.81214502638485, 18.646547298513088, 0.0], [73.81217715638898, 18.646530416295562, 0.0], [73.8121784470928, 18.64634482476419, 0.0], [73.81194146464178, 18.646343327037084, 0.0], [73.81170448221327, 18.64634182901135, 0.0], [73.81165136310004, 18.646341493191045, 0.0], [73.8116492798521, 18.646345442166357, 0.0], [73.81164427117172, 18.646352978426847, 0.0], [73.81163850731362, 18.646360007154396, 0.0], [73.81163204445994, 18.646366459837687, 0.0], [73.81162494560623, 18.646372273580276, 0.0], [73.81161727994724, 18.646377391713717, 0.0], [73.81160912220268, 18.646381764349847, 0.0], [73.8116005518888, 18.646385348867142, 0.0], [73.81159165254324, 18.64638811032613, 0.0], [73.81158251091091, 18.646390021809957, 0.0], [73.81157321609835, 18.646391064686753, 0.0], [73.81146709898215, 18.646397931478266, 0.0], [73.81127520422798, 18.646410348748507, 0.0], [73.81126615149714, 18.64641052137383, 0.0]]]}, "properties": {"site_id": "SEG24", "name": "SEG24", "n_member_parcels": 11}}]}