{"type": "FeatureCollection", "features": [{"type": "Feature", "geometry": {"type": "Polygon", "coordinates": [[[73.8109840990522, 18.64769274379088, 0.0], [73.81122108329275, 18.647694242829246, 0.0], [73.81122265570426, 18.64746834104891, 0.0], [73.81098567177698, 18.64746684203001, 0.0], [73.81098558987986, 18.647478605581963, 0.0], [73.8110021813377, 18.64750132958999, 0.0], [73.81098503544092, 18.64755824394194, 0.0], [73.8109840990522, 18.64769274379088, 0.0]]]}, "properties": {"site_id": "SEG116", "name": "SEG116", "n_member_parcels": 1}}]}