{"type": "FeatureCollection", "features": [{"type": "Feature", "geometry": {"type": "Polygon", "coordinates": [[[73.81074554177358, 18.647917146189716, 0.0], [73.81098252630488, 18.647918645546188, 0.0], [73.8109840990522, 18.64769274379088, 0.0], [73.81089958062012, 18.6476922090992, 0.0], [73.8108227851543, 18.6477512966631, 0.0], [73.8107462446534, 18.64781620847362, 0.0], [73.81074554177358, 18.647917146189716, 0.0]]]}, "properties": {"site_id": "SEG115", "name": "SEG115", "n_member_parcels": 1}}]}