{"type": "FeatureCollection", "features": [{"type": "Feature", "geometry": {"type": "Polygon", "coordinates": [[[73.81154936992606, 18.638905604913646, 0.0], [73.81155421980037, 18.63891374675696, 0.0], [73.81158485011223, 18.638969574895267, 0.0], [73.81158909879935, 18.638978016485936, 0.0], [73.81161561306536, 18.639035727221067, 0.0], [73.81161924029148, 18.639044428279167, 0.0], [73.81164151199265, 18.639103746241464, 0.0], [73.8116443677785, 18.639112269294493, 0.0], [73.81175476383773, 18.639112966977407, 0.0], [73.811753192886, 18.63933886900198, 0.0], [73.81175162191174, 18.63956477102101, 0.0], [73.81175072589092, 18.639693615034684, 0.0], [73.81181968368692, 18.63969940278722, 0.0], [73.81185823834642, 18.63970135171872, 0.0], [73.8118871699023, 18.63970183710657, 0.0], [73.81198775507855, 18.63968706176857, 0.0], [73.81198859494455, 18.639566268463305, 0.0], [73.81199016560568, 18.639340366424832, 0.0], [73.8119917362443, 18.639114464380814, 0.0], [73.81212016718013, 18.639115275797437, 0.0], [73.81212046898965, 18.639114749239134, 0.0], [73.81212208874273, 18.639112135947872, 0.0], [73.81215243928935, 18.639066724289556, 0.0], [73.81215423945174, 18.639064220571363, 0.0], [73.81218772003055, 18.639020854043697, 0.0], [73.8121896924773, 18.639018471198792, 0.0], [73.81222615197585, 18.63897734553083, 0.0], [73.81222828780443, 18.638975094313928, 0.0], [73.81222969753573, 18.638973705210756, 0.0], [73.81223027897637, 18.638890059416706, 0.0], [73.81199330686042, 18.638888562331243, 0.0], [73.81175633476695, 18.638887064947287, 0.0], [73.8115365240894, 18.638885675736244, 0.0], [73.81154936992606, 18.638905604913646, 0.0]]]}, "properties": {"site_id": "SEG39", "name": "SEG39", "n_member_parcels": 6}}]}