{"type": "FeatureCollection", "features": [{"type": "Feature", "geometry": {"type": "Polygon", "coordinates": [[[73.81483227309285, 18.639584214487257, 0.0], [73.81483383999652, 18.639358312215723, 0.0], [73.814596867007, 18.639356818374928, 0.0], [73.81459677838969, 18.639369591965615, 0.0], [73.81460637747045, 18.639375156281734, 0.0], [73.81460900435813, 18.639376795014947, 0.0], [73.81462021406679, 18.639384304928573, 0.0], [73.81462272138974, 18.639386105845755, 0.0], [73.8146333849791, 18.63939430671165, 0.0], [73.81463576173616, 18.639396261911084, 0.0], [73.81464583242067, 18.639405117748677, 0.0], [73.81464806818455, 18.639407218652554, 0.0], [73.81465750177983, 18.63941669060776, 0.0], [73.81465958674087, 18.63941892799819, 0.0], [73.81466834185804, 18.639428974513866, 0.0], [73.81467026686883, 18.63943133857471, 0.0], [73.81467830509538, 18.639441915572654, 0.0], [73.81468006170996, 18.63944439593165, 0.0], [73.81468734777884, 18.639455457006306, 0.0], [73.81468892829047, 18.639458042781502, 0.0], [73.81469543023452, 18.639469539403585, 0.0], [73.81469682770854, 18.639472219249726, 0.0], [73.81470251700098, 18.639484100978873, 0.0], [73.81470372530616, 18.639486863138583, 0.0], [73.8147085769855, 18.639499077844793, 0.0], [73.81470959082053, 18.639501910199485, 0.0], [73.81471358360024, 18.639514404292022, 0.0], [73.8147143985168, 18.63951729441461, 0.0], [73.81471751487874, 18.639530013076637, 0.0], [73.81471812730152, 18.63953294828719, 0.0], [73.81472035357272, 18.639545835716838, 0.0], [73.814720612379, 18.639547988125592, 0.0], [73.8147209126472, 18.639550170531482, 0.0], [73.81472211117797, 18.639564188352594, 0.0], [73.81472226356793, 18.639567252953572, 0.0], [73.81472246138247, 18.639581315995343, 0.0], [73.81472241381948, 18.63958352198057, 0.0], [73.81483227309285, 18.639584214487257, 0.0]]]}, "properties": {"site_id": "SEG132", "name": "SEG132", "n_member_parcels": 1}}]}