{"type": "FeatureCollection", "features": [{"type": "Feature", "geometry": {"type": "Polygon", "coordinates": [[[73.80769613561513, 18.643400755162325, 0.0], [73.80773307791624, 18.64354416174043, 0.0], [73.80774163209192, 18.643605795878074, 0.0], [73.8079316848744, 18.643607001130494, 0.0], [73.80816866318331, 18.64360850370007, 0.0], [73.80816708708313, 18.643834405321474, 0.0], [73.80840406572783, 18.643835907611983, 0.0], [73.8086410443951, 18.64383740960391, 0.0], [73.80864253325794, 18.643623926864464, 0.0], [73.80863144136927, 18.643611437100706, 0.0], [73.8084056415148, 18.64361000597107, 0.0], [73.80840721727917, 18.64338410432461, 0.0], [73.80817023926089, 18.643382602073114, 0.0], [73.80793326126519, 18.643381099523047, 0.0], [73.80769628329207, 18.643379596674407, 0.0], [73.80769613561513, 18.643400755162325, 0.0]]]}, "properties": {"site_id": "SEG45", "name": "SEG45", "n_member_parcels": 5}}]}