{"type": "FeatureCollection", "features": [{"type": "Feature", "geometry": {"type": "Polygon", "coordinates": [[[73.80747822778493, 18.64066727427329, 0.0], [73.80771520197742, 18.640668777186292, 0.0], [73.8077139098337, 18.64085394066138, 0.0], [73.80771610744658, 18.6408533740169, 0.0], [73.80779048397834, 18.64083419633896, 0.0], [73.80795134604618, 18.640789263198382, 0.0], [73.80795217619249, 18.640670279800766, 0.0], [73.8079537522896, 18.64044437812117, 0.0], [73.80771677838767, 18.640442875526208, 0.0], [73.80747980450832, 18.640441372632722, 0.0], [73.80724283065159, 18.64043986944072, 0.0], [73.80724125361506, 18.640665771061766, 0.0], [73.80747822778493, 18.64066727427329, 0.0]]]}, "properties": {"site_id": "SEG51", "name": "SEG51", "n_member_parcels": 4}}]}