{"type": "FeatureCollection", "features": [{"type": "Feature", "geometry": {"type": "Polygon", "coordinates": [[[73.80748926437413, 18.63908596267277, 0.0], [73.80748768778632, 18.639311864346638, 0.0], [73.80772466010002, 18.639313367142538, 0.0], [73.80772559894498, 18.6391788182279, 0.0], [73.80772498640083, 18.639178006929615, 0.0], [73.80771992927345, 18.639170564044896, 0.0], [73.80771566177923, 18.639162684470968, 0.0], [73.80771222501637, 18.639154444092494, 0.0], [73.80770965208268, 18.639145922268867, 0.0], [73.8077079677568, 18.63913720106991, 0.0], [73.80770718825954, 18.639128364485597, 0.0], [73.80770732109778, 18.639119497617042, 0.0], [73.80770836499205, 18.639110685857027, 0.0], [73.80771030988896, 18.639102014067593, 0.0], [73.80771313705797, 18.639093565762792, 0.0], [73.80771592499116, 18.639087400064923, 0.0], [73.80748926437413, 18.63908596267277, 0.0]]]}, "properties": {"site_id": "SEG93", "name": "SEG93", "n_member_parcels": 1}}]}