{"type": "FeatureCollection", "features": [{"type": "Feature", "geometry": {"type": "Polygon", "coordinates": [[[73.80700270209549, 18.64089016914769, 0.0], [73.80723967655592, 18.640891672677267, 0.0], [73.80747665103894, 18.640893175908307, 0.0], [73.8075758660285, 18.640893805182948, 0.0], [73.80761921169223, 18.640878705612995, 0.0], [73.8076269967261, 18.640876350798695, 0.0], [73.80765859643708, 18.640868202966896, 0.0], [73.80765859671968, 18.640868202886207, 0.0], [73.8077139098337, 18.64085394066138, 0.0], [73.80771520197742, 18.640668777186292, 0.0], [73.80747822778493, 18.64066727427329, 0.0], [73.80724125361506, 18.640665771061766, 0.0], [73.80724283065159, 18.64043986944072, 0.0], [73.80700585681745, 18.640438365950192, 0.0], [73.80700427946778, 18.640664267551713, 0.0], [73.80700270209549, 18.64089016914769, 0.0]]]}, "properties": {"site_id": "SEG54", "name": "SEG54", "n_member_parcels": 4}}]}