{"type": "FeatureCollection", "features": [{"type": "Feature", "geometry": {"type": "Polygon", "coordinates": [[[73.81246850766833, 18.63871075139315, 0.0], [73.81244421499262, 18.638713770432428, 0.0], [73.81239509257813, 18.638722793050064, 0.0], [73.81234663488084, 18.63873464009884, 0.0], [73.81229902043181, 18.638749267930713, 0.0], [73.81224834930036, 18.638768140517154, 0.0], [73.81223108180525, 18.638774564083352, 0.0], [73.81223027897637, 18.638890059416706, 0.0], [73.81232163803631, 18.63889063650325, 0.0], [73.81235855408795, 18.638862895525666, 0.0], [73.81236111949401, 18.638861097553242, 0.0], [73.81240772613619, 18.638830678070672, 0.0], [73.81241041239095, 18.638829048359884, 0.0], [73.81245905641408, 18.6388016806816, 0.0], [73.81246185139338, 18.63880022658802, 0.0], [73.8124679060104, 18.63879732389291, 0.0], [73.81246850766833, 18.63871075139315, 0.0]]]}, "properties": {"site_id": "SEG90", "name": "SEG90", "n_member_parcels": 1}}]}