{"type": "FeatureCollection", "features": [{"type": "Feature", "geometry": {"type": "Polygon", "coordinates": [[[73.8126665448234, 18.644314701749945, 0.0], [73.81290352452281, 18.644316198406287, 0.0], [73.81290432117038, 18.64420156319764, 0.0], [73.81288901491993, 18.644185128163013, 0.0], [73.81288057976943, 18.64417722866499, 0.0], [73.81287158668744, 18.644169867578913, 0.0], [73.81286209659943, 18.644163097196937, 0.0], [73.81285215212493, 18.644156947924383, 0.0], [73.81284179792438, 18.6441514473775, 0.0], [73.81283108049819, 18.644146620259047, 0.0], [73.81282004797816, 18.644142488247493, 0.0], [73.81281853664994, 18.644142030979452, 0.0], [73.81281279958327, 18.644146092830066, 0.0], [73.81280482374946, 18.64415065702189, 0.0], [73.8127964170146, 18.6441544540104, 0.0], [73.81266730362739, 18.644205533927984, 0.0], [73.8126665448234, 18.644314701749945, 0.0]]]}, "properties": {"site_id": "SEG127", "name": "SEG127", "n_member_parcels": 1}}]}