{"type": "FeatureCollection", "features": [{"type": "Feature", "geometry": {"type": "Polygon", "coordinates": [[[73.81271311735328, 18.638062472383783, 0.0], [73.81271646616, 18.63806558538971, 0.0], [73.81271794947547, 18.638067264826876, 0.0], [73.81271954541296, 18.638068847659206, 0.0], [73.81272244060513, 18.638072349766553, 0.0], [73.81272545320797, 18.63807576069075, 0.0], [73.81272675670157, 18.638077570640068, 0.0], [73.81272818220778, 18.638079294973007, 0.0], [73.81273070337298, 18.638083050739823, 0.0], [73.81273335075898, 18.638086726733277, 0.0], [73.81273446187733, 18.63808864976402, 0.0], [73.81273570322382, 18.638090498991296, 0.0], [73.81273782608181, 18.63809447224754, 0.0], [73.81274008275508, 18.638098377908474, 0.0], [73.81274099079748, 18.638100395500768, 0.0], [73.81274203602942, 18.638102351813366, 0.0], [73.81274374013587, 18.638106504294473, 0.0], [73.81274558436336, 18.63811060200926, 0.0], [73.81274628058483, 18.638112694732634, 0.0], [73.81274711963599, 18.6381147392902, 0.0], [73.81274838857934, 18.638119031005502, 0.0], [73.81274980260005, 18.638123281310957, 0.0], [73.81275028029553, 18.638125429011346, 0.0], [73.81275090508538, 18.638127542123666, 0.0], [73.81275172664492, 18.63813193174165, 0.0], [73.81275269684097, 18.63813629370502, 0.0], [73.81275295140998, 18.63813847569891, 0.0], [73.81275335592139, 18.638140637015596, 0.0], [73.81275372218492, 18.638145082261833, 0.0], [73.8127542392127, 18.63814951387505, 0.0], [73.81275426820353, 18.63815170914864, 0.0], [73.81275444854076, 18.638153897855016, 0.0], [73.8127543559809, 18.638158355919373, 0.0], [73.81275441486103, 18.63816281450357, 0.0], [73.81275421799442, 18.638165001915176, 0.0], [73.81275417242071, 18.63816719693282, 0.0], [73.81275362192874, 18.638171624881696, 0.0], [73.81275322209407, 18.638176067498257, 0.0], [73.81275280126593, 18.6381782259819, 0.0], [73.81275253022008, 18.63818040617158, 0.0], [73.81274630804695, 18.638215582329785, 0.0], [73.81274555683768, 18.638219829181846, 0.0], [73.81274373305604, 18.638228431081604, 0.0], [73.81273409816762, 18.638267341283527, 0.0], [73.81273169429208, 18.638275812647503, 0.0], [73.81271943828449, 18.638314046931058, 0.0], [73.81271646439173, 18.63832235224696, 0.0], [73.81270804104248, 18.638343600221106, 0.0], [73.81270775078845, 18.638385374216174, 0.0], [73.81277865997932, 18.638380164927494, 0.0], [73.81286666829284, 18.6383680901837, 0.0], [73.8129449626852, 18.638352262135662, 0.0], [73.81294590341534, 18.638216842466875, 0.0], [73.813182874682, 18.638218338300064, 0.0], [73.81330186361491, 18.63821908928102, 0.0], [73.81331336989817, 18.6382153454004, 0.0], [73.81332666178636, 18.63821234098002, 0.0], [73.81334019477221, 18.638210566378955, 0.0], [73.81335384394265, 18.638210037977228, 0.0], [73.81336748331225, 18.638210760652175, 0.0], [73.81338098698599, 18.638212727733308, 0.0], [73.81339423032135, 18.638215921063978, 0.0], [73.81340542616445, 18.638219742839368, 0.0], [73.81341984597114, 18.638219833834775, 0.0], [73.81341980275762, 18.638226057003173, 0.0], [73.81343119465416, 18.63823250894166, 0.0], [73.81344221498938, 18.63824020402082, 0.0], [73.81345240983505, 18.638248871736085, 0.0], [73.8134616850899, 18.638258432082075, 0.0], [73.81346995514056, 18.6382687968142, 0.0], [73.81347714365207, 18.638279870263148, 0.0], [73.81350011964426, 18.638319387739124, 0.0], [73.81350638999086, 18.638331574382082, 0.0], [73.81351135031048, 18.63834429776087, 0.0], [73.81351495085885, 18.638357430280507, 0.0], [73.81351715552793, 18.638370840242995, 0.0], [73.8135179422081, 18.63838439316799, 0.0], [73.81351730300989, 18.638397953141432, 0.0], [73.81351524434308, 18.638411384178518, 0.0], [73.8135117868525, 18.638424551587473, 0.0], [73.81350696521095, 18.63843732332027, 0.0], [73.8135024833587, 18.638446267379468, 0.0], [73.81350082777142, 18.63844957129681, 0.0], [73.81349343608244, 18.63846117268945, 0.0], [73.81348486427062, 18.638472011154697, 0.0], [73.81347519829738, 18.638481978000016, 0.0], [73.81346453509691, 18.63849097327379, 0.0], [73.81345298160402, 18.638498906767726, 0.0], [73.81344065368181, 18.638505698921485, 0.0], [73.81341778325387, 18.638516882471592, 0.0], [73.81341670860868, 18.638671638194854, 0.0], [73.81317973669333, 18.638670142621297, 0.0], [73.81317816766528, 18.638896044773592, 0.0], [73.81317659861473, 18.639121946920334, 0.0], [73.8134135711563, 18.639123442532743, 0.0], [73.81365054372034, 18.639124937846635, 0.0], [73.81388751630689, 18.639126432862042, 0.0], [73.8141244889159, 18.639127927578944, 0.0], [73.81436146154738, 18.639129421997342, 0.0], [73.81436019543455, 18.639311888829983, 0.0], [73.81437020500502, 18.63931256007807, 0.0], [73.81437349341923, 18.639312890832855, 0.0], [73.81442946544, 18.639320410716216, 0.0], [73.8144327216592, 18.63932095923789, 0.0], [73.8144880074482, 18.63933218112707, 0.0], [73.81449121562346, 18.639332944745842, 0.0], [73.81454554608116, 18.639347814019622, 0.0], [73.81454861193109, 18.639348761774567, 0.0], [73.81456149363483, 18.639353210788926, 0.0], [73.81456440822329, 18.63935432283313, 0.0], [73.81456996352672, 18.639356648760703, 0.0], [73.814596867007, 18.639356818374928, 0.0], [73.81483383999652, 18.639358312215723, 0.0], [73.81507081300852, 18.639359805758016, 0.0], [73.81506924641796, 18.639585708048948, 0.0], [73.81512077763044, 18.639586032792995, 0.0], [73.81512166890542, 18.639583108974072, 0.0], [73.81512521908921, 18.639574710216227, 0.0], [73.81512963319881, 18.639566692332785, 0.0], [73.81513486691016, 18.639559135834702, 0.0], [73.81514086766931, 18.6395521165999, 0.0], [73.81514757522001, 18.63954570511147, 0.0], [73.81515492220893, 18.639539965749787, 0.0], [73.81516283486185, 18.639534956146207, 0.0], [73.81517123372453, 18.6395307266042, 0.0], [73.81518003446048, 18.63952731959436, 0.0], [73.81518914869788, 18.63952476932789, 0.0], [73.81519848491692, 18.63952310141304, 0.0], [73.8152079493688, 18.639522332598066, 0.0], [73.81521744701705, 18.63952247060296, 0.0], [73.81530662998836, 18.639528035679223, 0.0], [73.81553623250106, 18.63954236283192, 0.0], [73.81554350882985, 18.639543153219872, 0.0], [73.81554528830581, 18.639543346514603, 0.0], [73.81555420314525, 18.639545154746546, 0.0], [73.81556289459951, 18.639547770810236, 0.0], [73.81557128231401, 18.639551170519532, 0.0], [73.81557928874224, 18.63955532244329, 0.0], [73.81558683986282, 18.63956018819599, 0.0], [73.81558795577382, 18.639561067233373, 0.0], [73.81559529754466, 18.639555331919585, 0.0], [73.81560321018668, 18.639550322296486, 0.0], [73.81561160904062, 18.639546092733994, 0.0], [73.81562040977008, 18.639542685702885, 0.0], [73.8156295240033, 18.639540135414574, 0.0], [73.8156388602205, 18.639538467477564, 0.0], [73.81564832467289, 18.639537698640293, 0.0], [73.81565782232401, 18.639537836623, 0.0], [73.81578047630877, 18.639545490013074, 0.0], [73.81597660792924, 18.639557728109562, 0.0], [73.81598566373839, 18.63955871177118, 0.0], [73.81599457858431, 18.63956051998247, 0.0], [73.81600327004712, 18.63956313602609, 0.0], [73.81601165777211, 18.6395665357161, 0.0], [73.81601729391814, 18.639569458456283, 0.0], [73.81601966421273, 18.639570687621525, 0.0], [73.81602721534745, 18.63957555335704, 0.0], [73.81603424136416, 18.639581087937703, 0.0], [73.81604067730557, 18.639587240194984, 0.0], [73.81604465296355, 18.639591852557707, 0.0], [73.81604646366972, 18.63959395324976, 0.0], [73.81605154696021, 18.63960116503819, 0.0], [73.81605588018063, 18.639608808885498, 0.0], [73.81605942326921, 18.63961681412243, 0.0], [73.81606214346905, 18.63962510673857, 0.0], [73.81606401563116, 18.63963361006659, 0.0], [73.81606502244672, 18.63964224549108, 0.0], [73.81606515460739, 18.639650933175346, 0.0], [73.81606241461137, 18.639728655497887, 0.0], [73.81606163505309, 18.639737573988086, 0.0], [73.81605993389323, 18.639746375230406, 0.0], [73.81605732781775, 18.639754972896935, 0.0], [73.81605384238843, 18.639763282656542, 0.0], [73.81604951179239, 18.639771223002032, 0.0], [73.8160469923495, 18.639774900628222, 0.0], [73.81625279052821, 18.639784114963835, 0.0], [73.81647897584185, 18.639794241845543, 0.0], [73.81648371551319, 18.639594616751673, 0.0], [73.81648907848484, 18.639368738252838, 0.0], [73.81649412347763, 18.639156251184463, 0.0], [73.8164942162412, 18.639142858330377, 0.0], [73.81649578090817, 18.638916955912055, 0.0], [73.8164973455527, 18.638691053488184, 0.0], [73.81649891017481, 18.638465151058767, 0.0], [73.8165004747745, 18.638239248623798, 0.0], [73.81650203935176, 18.638013346183286, 0.0], [73.81650360390658, 18.637787443737224, 0.0], [73.81626663295168, 18.63778595212158, 0.0], [73.81602966201922, 18.637784460207456, 0.0], [73.81579269110918, 18.637782967994852, 0.0], [73.81555572022158, 18.637781475483767, 0.0], [73.81531874935642, 18.637779982674207, 0.0], [73.81508177851371, 18.637778489566166, 0.0], [73.81484480769345, 18.63777699615965, 0.0], [73.81484559894189, 18.637662908282326, 0.0], [73.8146086762437, 18.6376545033948, 0.0], [73.81437175358708, 18.63764609820998, 0.0], [73.8141348309721, 18.637637692727868, 0.0], [73.81413432875904, 18.637710062196206, 0.0], [73.81413587549768, 18.637712291937078, 0.0], [73.8141402902363, 18.637720294153468, 0.0], [73.81414384402206, 18.63772867687844, 0.0], [73.81414650127658, 18.637737356189582, 0.0], [73.81414823539704, 18.637746245195228, 0.0], [73.81414902902239, 18.637755254904388, 0.0], [73.81414887420722, 18.637764295117652, 0.0], [73.81414829478193, 18.637772604958293, 0.0], [73.81413254936174, 18.63799841779942, 0.0], [73.81413230316954, 18.638001948556415, 0.0], [73.81413075997348, 18.63822431864799, 0.0], [73.81412919224279, 18.638450220889055, 0.0], [73.81407214652083, 18.638449861110114, 0.0], [73.81407079822363, 18.638453175325708, 0.0], [73.81406648624578, 18.638461260038177, 0.0], [73.8140613458376, 18.63846889197238, 0.0], [73.81405542878383, 18.638475994243635, 0.0], [73.81404879469319, 18.638482495303155, 0.0], [73.81404151039797, 18.638488329658788, 0.0], [73.81403364928066, 18.638493438534784, 0.0], [73.81402529053469, 18.638497770463953, 0.0], [73.8140165183667, 18.638501281806082, 0.0], [73.8140074211482, 18.63850393718768, 0.0], [73.81399809052526, 18.63850570985819, 0.0], [73.81398862049532, 18.638506581959632, 0.0], [73.81389178942055, 18.63851084020304, 0.0], [73.81376591561168, 18.63851637555467, 0.0], [73.81375655650079, 18.638516346198372, 0.0], [73.81374724604588, 18.638515437153167, 0.0], [73.81373807501089, 18.638513657280996, 0.0], [73.8137291328006, 18.63851102393313, 0.0], [73.81372050658908, 18.63850756278103, 0.0], [73.81371228046977, 18.638503307566104, 0.0], [73.81370453463585, 18.638498299770767, 0.0], [73.81369734459827, 18.638492588214014, 0.0], [73.81369078044983, 18.638486228575534, 0.0], [73.81368490618163, 18.63847928285289, 0.0], [73.81367977905951, 18.638471818757157, 0.0], [73.81367544906561, 18.63846390905278, 0.0], [73.81367195841116, 18.638455630848295, 0.0], [73.81366941929285, 18.638447320676676, 0.0], [73.8136552489259, 18.638447231273233, 0.0], [73.81365681728278, 18.638221329070998, 0.0], [73.81365838561717, 18.637995426863217, 0.0], [73.81365995392912, 18.63776952464989, 0.0], [73.81366098586693, 18.637620880871776, 0.0], [73.81352333076974, 18.63761599669378, 0.0], [73.8134240598369, 18.63761298429213, 0.0], [73.81318712893734, 18.637605794351956, 0.0], [73.81295019807604, 18.637598604114277, 0.0], [73.81274050965945, 18.637592240365084, 0.0], [73.812713954814, 18.63776355396192, 0.0], [73.81271198284978, 18.637776275701896, 0.0], [73.81271050175796, 18.637989444205115, 0.0], [73.8127100157279, 18.63805939622727, 0.0], [73.81271311735328, 18.638062472383783, 0.0]]]}, "properties": {"site_id": "SEG04", "name": "SEG04", "n_member_parcels": 105}}]}