{"type": "FeatureCollection", "features": [{"type": "Feature", "geometry": {"type": "Polygon", "coordinates": [[[73.8110391310123, 18.63978617885818, 0.0], [73.81103755905362, 18.64001208080774, 0.0], [73.81127453264511, 18.64001357918448, 0.0], [73.8112753964663, 18.639889417425742, 0.0], [73.81127377637091, 18.639886598805667, 0.0], [73.81126934273296, 18.6398782075503, 0.0], [73.81126513205008, 18.639869499494157, 0.0], [73.8112613188646, 18.639860835606044, 0.0], [73.81125775112007, 18.63985187040081, 0.0], [73.81125457670774, 18.639842975506706, 0.0], [73.81125166904405, 18.639833796229105, 0.0], [73.81124914865798, 18.639824713069203, 0.0], [73.81124691504597, 18.639815363824887, 0.0], [73.8112450607961, 18.639806136043003, 0.0], [73.81124351196776, 18.63979666175399, 0.0], [73.81124234921174, 18.63978746380386, 0.0], [73.8110391310123, 18.63978617885818, 0.0]]]}, "properties": {"site_id": "SEG99", "name": "SEG99", "n_member_parcels": 1}}]}