{"type": "FeatureCollection", "features": [{"type": "Feature", "geometry": {"type": "Polygon", "coordinates": [[[73.80960942240256, 18.640906691553923, 0.0], [73.80960989988871, 18.64083815953284, 0.0], [73.8095548149773, 18.6408063235175, 0.0], [73.8095440992689, 18.6407996882795, 0.0], [73.8095338833553, 18.640792371648093, 0.0], [73.8095242148343, 18.640784407712687, 0.0], [73.8095151387528, 18.6407758335787, 0.0], [73.8095066973979, 18.640766689194297, 0.0], [73.809498930099, 18.6407570171648, 0.0], [73.809491873045, 18.6407468625537, 0.0], [73.80948555911601, 18.640736272672992, 0.0], [73.8094800177292, 18.640725296862602, 0.0], [73.8094752746993, 18.6407139862616, 0.0], [73.80946769102951, 18.640695621655397, 0.0], [73.8094600400549, 18.64067983392083, 0.0], [73.80937402195713, 18.640679289218593, 0.0], [73.80937250571021, 18.640896869006248, 0.0], [73.80937785169883, 18.64090034734659, 0.0], [73.80938398231348, 18.640905264054624, 0.0], [73.80960942240256, 18.640906691553923, 0.0]]]}, "properties": {"site_id": "SEG109", "name": "SEG109", "n_member_parcels": 1}}]}