{"type": "FeatureCollection", "features": [{"type": "Feature", "geometry": {"type": "Polygon", "coordinates": [[[73.81670146211367, 18.64343649502581, 0.0], [73.81670252447967, 18.643283124954692, 0.0], [73.81663471906639, 18.64328016033129, 0.0], [73.81662096209301, 18.64327891808152, 0.0], [73.81660739658096, 18.643276408739194, 0.0], [73.816594150652, 18.643272656004218, 0.0], [73.8165813494095, 18.643267695319963, 0.0], [73.8165691137569, 18.643261573538464, 0.0], [73.8165575592558, 18.64325434847788, 0.0], [73.81654679503448, 18.64324608837655, 0.0], [73.8165369227573, 18.643236871248327, 0.0], [73.81652803566439, 18.643226784145913, 0.0], [73.81652021769116, 18.64321592233858, 0.0], [73.81651645358026, 18.643209418237625, 0.0], [73.8164984099656, 18.643209304645488, 0.0], [73.81649611725368, 18.643392471039984, 0.0], [73.81649611387213, 18.643392694759505, 0.0], [73.81649536101237, 18.64343519761906, 0.0], [73.81670146211367, 18.64343649502581, 0.0]]]}, "properties": {"site_id": "SEG104", "name": "SEG104", "n_member_parcels": 1}}]}