{"type": "FeatureCollection", "features": [{"type": "Feature", "geometry": {"type": "Polygon", "coordinates": [[[73.8127898920248, 18.643411833137765, 0.0], [73.81280204522501, 18.643404050883426, 0.0], [73.8128043243457, 18.643402679458262, 0.0], [73.81284067816314, 18.64338215828224, 0.0], [73.81284314992595, 18.643380856217387, 0.0], [73.81286784955212, 18.643368746266557, 0.0], [73.81287051627308, 18.643367537406395, 0.0], [73.8128959590382, 18.643356917142842, 0.0], [73.8128986995517, 18.643355868926985, 0.0], [73.8129102259787, 18.643351852859062, 0.0], [73.81291100590758, 18.64323961654928, 0.0], [73.81288882848258, 18.643186545988097, 0.0], [73.81267439556974, 18.643185191793155, 0.0], [73.81243741745888, 18.643183694935402, 0.0], [73.8124358470414, 18.643409596918424, 0.0], [73.81219886863984, 18.643408099742665, 0.0], [73.81219729788667, 18.643634001700697, 0.0], [73.81219585808547, 18.643841067609888, 0.0], [73.81243314735184, 18.643797935268584, 0.0], [73.81243427660144, 18.6436354988959, 0.0], [73.81255156607386, 18.643636239802294, 0.0], [73.81255284162064, 18.643625489021392, 0.0], [73.81255327131706, 18.643622667705106, 0.0], [73.81255583164582, 18.643608922452927, 0.0], [73.8125564471445, 18.64360613258708, 0.0], [73.81255991175983, 18.643592568623912, 0.0], [73.81256071061047, 18.643589821314738, 0.0], [73.81256506571813, 18.643576492644947, 0.0], [73.81256606045419, 18.643573759691527, 0.0], [73.8125680162798, 18.643568895013846, 0.0], [73.81256921078807, 18.64356619026051, 0.0], [73.81257149378163, 18.64356145687957, 0.0], [73.81257286996842, 18.64355883175401, 0.0], [73.81257547049812, 18.643554249639333, 0.0], [73.812577022558, 18.643551715215384, 0.0], [73.81257992965246, 18.64354730369854, 0.0], [73.81258165103667, 18.64354487066981, 0.0], [73.81258485243102, 18.64354064836238, 0.0], [73.81258673587912, 18.64353832699106, 0.0], [73.81259021806733, 18.643534311706535, 0.0], [73.8125922556307, 18.643532111789384, 0.0], [73.81259600392151, 18.643528320467766, 0.0], [73.81259818700556, 18.643526251283987, 0.0], [73.81260218558538, 18.643522699920457, 0.0], [73.81260450497957, 18.64352077020018, 0.0], [73.81260873697899, 18.643517473777422, 0.0], [73.81261118289798, 18.643515691661943, 0.0], [73.81261563046243, 18.64351266408736, 0.0], [73.81261819258647, 18.643511037095642, 0.0], [73.81262283695233, 18.64350829114201, 0.0], [73.81262550447394, 18.643506826137028, 0.0], [73.8126303260471, 18.64350437338944, 0.0], [73.8126305540417, 18.64350425816699, 0.0], [73.8126723236869, 18.643483287543805, 0.0], [73.81267282546548, 18.64341109379561, 0.0], [73.8127898920248, 18.643411833137765, 0.0]]]}, "properties": {"site_id": "SEG47", "name": "SEG47", "n_member_parcels": 5}}]}