{"type": "FeatureCollection", "features": [{"type": "Feature", "geometry": {"type": "Polygon", "coordinates": [[[73.81034393905317, 18.637522662778444, 0.0], [73.81010696899598, 18.63752116342186, 0.0], [73.80986999896136, 18.637519663766803, 0.0], [73.80963302894926, 18.637518163813276, 0.0], [73.80958551841465, 18.63751786304902, 0.0], [73.80957807205107, 18.63752195587643, 0.0], [73.80956374988158, 18.637531097427576, 0.0], [73.80955010168653, 18.637541132338505, 0.0], [73.80953599901535, 18.63755301826727, 0.0], [73.80953494874817, 18.637553877728575, 0.0], [73.80945006661452, 18.637621311881137, 0.0], [73.80944808952725, 18.637622799513526, 0.0], [73.80939505634215, 18.63766056735639, 0.0], [73.80939448503477, 18.63774256543001, 0.0], [73.80939291108724, 18.637968467293195, 0.0], [73.80939275840315, 18.637990381205835, 0.0], [73.80942833332729, 18.638151440191155, 0.0], [73.8094286700597, 18.638153122163104, 0.0], [73.8094361318456, 18.638194652778132, 0.0], [73.80961636699732, 18.638195793867254, 0.0], [73.80962835760985, 18.638188754502966, 0.0], [73.80965820709874, 18.63817123066939, 0.0], [73.80970013021451, 18.63814354033353, 0.0], [73.80970037078262, 18.63814338248111, 0.0], [73.80972114473023, 18.638129841069073, 0.0], [73.80972379392118, 18.63812823431868, 0.0], [73.80974546283103, 18.638116033879818, 0.0], [73.8097482178087, 18.638114597873116, 0.0], [73.80977068657603, 18.63810379195492, 0.0], [73.80977353524933, 18.638102532994296, 0.0], [73.80979670525922, 18.63809316902377, 0.0], [73.80979963512497, 18.63809209263495, 0.0], [73.80982340468472, 18.638084211710286, 0.0], [73.80982640288427, 18.638083322617373, 0.0], [73.80985066766956, 18.638076959328043, 0.0], [73.80985372104321, 18.638076261433426, 0.0], [73.80986613938563, 18.638073834673484, 0.0], [73.80986685234119, 18.63797146757666, 0.0], [73.810103823002, 18.63797296727067, 0.0], [73.81034079368534, 18.6379744666662, 0.0], [73.81057776439125, 18.637975965763253, 0.0], [73.81081473511968, 18.637977464561825, 0.0], [73.81081316302814, 18.638203366536313, 0.0], [73.8110501340922, 18.638204865055876, 0.0], [73.81128710517878, 18.63820636327694, 0.0], [73.81152407628791, 18.638207861199525, 0.0], [73.81152417343678, 18.638193893118753, 0.0], [73.81152386052507, 18.638193813729625, 0.0], [73.81152124905113, 18.638192881541407, 0.0], [73.81151860113708, 18.638192047989747, 0.0], [73.81151689577682, 18.63819132760239, 0.0], [73.81151514893338, 18.638190704051436, 0.0], [73.81151264588205, 18.638189532339137, 0.0], [73.81151009642426, 18.638188455383506, 0.0], [73.81150847334602, 18.638187579118306, 0.0], [73.81150679902764, 18.63818679534706, 0.0], [73.81150442850469, 18.638185395394913, 0.0], [73.81150200205585, 18.638184085406994, 0.0], [73.81150047689077, 18.638183061702847, 0.0], [73.81149889122209, 18.638182125259505, 0.0], [73.81149667605698, 18.638180510549844, 0.0], [73.81149439598514, 18.638178980145536, 0.0], [73.81149298342143, 18.638177818861326, 0.0], [73.81149150167329, 18.638176738764315, 0.0], [73.81148946319924, 18.638174924847686, 0.0], [73.81148735146276, 18.63817318876568, 0.0], [73.81148606510416, 18.63817190108519, 0.0], [73.81148470154663, 18.638170687736473, 0.0], [73.81148285939527, 18.638168692081905, 0.0], [73.81148093633135, 18.638166767041625, 0.0], [73.81147978856622, 18.63816536536596, 0.0], [73.81147855633108, 18.63816403045075, 0.0], [73.81147692824334, 18.638161872277504, 0.0], [73.81147521237209, 18.63815977681815, 0.0], [73.811474214254, 18.6381582746462, 0.0], [73.81147312520838, 18.63815683102048, 0.0], [73.81147172686363, 18.638154531112978, 0.0], [73.81147023470982, 18.638152285414986, 0.0], [73.8114693958512, 18.638150697213522, 0.0], [73.81146846048317, 18.63814915878022, 0.0], [73.81146730534819, 18.638146739287826, 0.0], [73.81146605128208, 18.638144364978515, 0.0], [73.8114653797616, 18.638142706042792, 0.0], [73.8114646070792, 18.63814108761785, 0.0], [73.81146370627857, 18.63813857184163, 0.0], [73.81146270237744, 18.63813609178692, 0.0], [73.81146220466215, 18.638134378093394, 0.0], [73.81146160210679, 18.638132695263142, 0.0], [73.81146096431567, 18.638130107431387, 0.0], [73.81146022024762, 18.638127545515573, 0.0], [73.81145990113077, 18.63812579356807, 0.0], [73.81145947450534, 18.63812406253909, 0.0], [73.81145910586596, 18.638121427574056, 0.0], [73.81145862879673, 18.638118808469788, 0.0], [73.81145849135159, 18.638117035140514, 0.0], [73.81145824476468, 18.638115272583555, 0.0], [73.8114581488272, 18.63811261586141, 0.0], [73.8114579433512, 18.6381099647921, 0.0], [73.81145461908866, 18.637981510224574, 0.0], [73.81144877177753, 18.637755561301372, 0.0], [73.8114434175722, 18.637548666824326, 0.0], [73.81129171793668, 18.63754325875598, 0.0], [73.81105479611229, 18.637534812284844, 0.0], [73.81081787432966, 18.63752636551644, 0.0], [73.81079383812158, 18.637525508557502, 0.0], [73.81058090913288, 18.637524161836556, 0.0], [73.81034393905317, 18.637522662778444, 0.0]]]}, "properties": {"site_id": "SEG10", "name": "SEG10", "n_member_parcels": 23}}]}