{"type": "FeatureCollection", "features": [{"type": "Feature", "geometry": {"type": "Polygon", "coordinates": [[[73.8137504701498, 18.64151494840728, 0.0], [73.81374222343943, 18.64151083244624, 0.0], [73.81373443998318, 18.64150596527476, 0.0], [73.81372719483937, 18.641500393828533, 0.0], [73.81372055787521, 18.641494171834857, 0.0], [73.813714593093, 18.641487359294352, 0.0], [73.81370935801296, 18.64148002190259, 0.0], [73.81370490311853, 18.64147223041636, 0.0], [73.81370127136957, 18.641464059971433, 0.0], [73.81369849778805, 18.641455589358003, 0.0], [73.81369660912037, 18.641446900260874, 0.0], [73.81369562357939, 18.6414380764717, 0.0], [73.81369555066888, 18.64142920308104, 0.0], [73.81369749421177, 18.641384354631043, 0.0], [73.81363485824065, 18.641383959397363, 0.0], [73.81363328956903, 18.64160986152192, 0.0], [73.81339631356043, 18.6416083659944, 0.0], [73.81315933757433, 18.641606870168335, 0.0], [73.8131577682539, 18.64183277224849, 0.0], [73.81292079197712, 18.641831276104455, 0.0], [73.81268381572283, 18.641829779661872, 0.0], [73.81268299120065, 18.641948420120723, 0.0], [73.81269875790382, 18.641971822290575, 0.0], [73.81269879914323, 18.641971883609976, 0.0], [73.81275536636694, 18.64205614347227, 0.0], [73.81291922232103, 18.64205717815964, 0.0], [73.81291765264244, 18.642283080209282, 0.0], [73.8129171415366, 18.642356635877128, 0.0], [73.81295872515608, 18.64245758731879, 0.0], [73.81295975781187, 18.642460355646662, 0.0], [73.81297617594136, 18.64250936169062, 0.0], [73.81300267238254, 18.64258845016593, 0.0], [73.8130035062543, 18.642591246612035, 0.0], [73.8130138716558, 18.6426308054844, 0.0], [73.81301450930553, 18.64263361683888, 0.0], [73.81302221319893, 18.64267372426759, 0.0], [73.81302266190217, 18.64267656860209, 0.0], [73.81302767306323, 18.642717062040468, 0.0], [73.81302793100134, 18.642719927827596, 0.0], [73.8130288159333, 18.642735606010316, 0.0], [73.81303022911878, 18.642760643164454, 0.0], [73.81303029524621, 18.642763518789817, 0.0], [73.81302987100402, 18.64280429101456, 0.0], [73.81302974505266, 18.642807164823495, 0.0], [73.81302660016836, 18.64284782869471, 0.0], [73.81302628264852, 18.642850689040706, 0.0], [73.81302042986545, 18.64289107975624, 0.0], [73.81301992206382, 18.64289391504665, 0.0], [73.81301138510015, 18.642933868911012, 0.0], [73.81301068907459, 18.642936667655057, 0.0], [73.81300367058991, 18.642961359197066, 0.0], [73.81299951105574, 18.642975992738325, 0.0], [73.81299584896443, 18.64298894682907, 0.0], [73.81299339848609, 18.64300066240233, 0.0], [73.81299176916681, 18.643012507189326, 0.0], [73.812990968193, 18.64302442894773, 0.0], [73.81299099909755, 18.64303637509536, 0.0], [73.81299186174445, 18.643048292942616, 0.0], [73.81299355232903, 18.643060129925125, 0.0], [73.81299606339498, 18.643071833834632, 0.0], [73.81299938386718, 18.643083353049906, 0.0], [73.81300366986072, 18.643095104978197, 0.0], [73.81304228673288, 18.643187514963376, 0.0], [73.813148351859, 18.64318818461294, 0.0], [73.81314729052437, 18.643340947654742, 0.0], [73.81315770472642, 18.643344831569873, 0.0], [73.81316047740917, 18.643345963876776, 0.0], [73.81317345183552, 18.643351734836074, 0.0], [73.81317614334674, 18.64335303297507, 0.0], [73.81318870641309, 18.64335957896797, 0.0], [73.8131913058509, 18.643361037680965, 0.0], [73.81320340667376, 18.643368332194473, 0.0], [73.81320590351054, 18.643369945573728, 0.0], [73.81321749307848, 18.643377959063375, 0.0], [73.81321987720078, 18.643379720573915, 0.0], [73.81323090857319, 18.64338842058304, 0.0], [73.81323317032539, 18.643390323090845, 0.0], [73.81324359882227, 18.643399674382366, 0.0], [73.81324533022254, 18.64340130891777, 0.0], [73.81325889883715, 18.643414794452507, 0.0], [73.81338376087268, 18.64341558263572, 0.0], [73.81338291020366, 18.643538046365087, 0.0], [73.81341283625105, 18.64356778910578, 0.0], [73.81341409521583, 18.643569090459756, 0.0], [73.81348201262796, 18.643642114751596, 0.0], [73.81348997213067, 18.643642164988968, 0.0], [73.81361974303958, 18.64356054266499, 0.0], [73.81362073938674, 18.6434170783186, 0.0], [73.81384557986246, 18.64341849711646, 0.0], [73.81385777170027, 18.643410828749364, 0.0], [73.81409579995409, 18.643261114506682, 0.0], [73.81409626470735, 18.643194166669662, 0.0], [73.81420053683954, 18.64319482441496, 0.0], [73.81420467869134, 18.64319234422513, 0.0], [73.81423339441903, 18.64317644177739, 0.0], [73.81423917404994, 18.643173491043527, 0.0], [73.8142689742123, 18.643159518777647, 0.0], [73.81427495398266, 18.643156955934796, 0.0], [73.8143056960243, 18.643144980689947, 0.0], [73.81431184732828, 18.64314281799806, 0.0], [73.81433365736095, 18.643135956948562, 0.0], [73.81434338418828, 18.64313289706017, 0.0], [73.81434967760072, 18.643131144864597, 0.0], [73.814381858416, 18.64312332569268, 0.0], [73.81438826383034, 18.643121992375654, 0.0], [73.81442093465753, 18.643116312374243, 0.0], [73.8144274214331, 18.6431154043138, 0.0], [73.81446042598472, 18.643111890654556, 0.0], [73.81446696308991, 18.64311141219475, 0.0], [73.81450014348232, 18.643110081685958, 0.0], [73.81450669964572, 18.643110035115548, 0.0], [73.81453989715371, 18.643110894122017, 0.0], [73.81454644101265, 18.64311127966378, 0.0], [73.81457080161121, 18.643113523254716, 0.0], [73.81457949682951, 18.643114324076347, 0.0], [73.81458599708091, 18.643115139886074, 0.0], [73.81461875307743, 18.64312035514147, 0.0], [73.8146251786246, 18.643121597316423, 0.0], [73.81465747810579, 18.643128958466235, 0.0], [73.81466379821182, 18.643130621064365, 0.0], [73.8146954866668, 18.64314009289527, 0.0], [73.81470167109815, 18.64314216796325, 0.0], [73.81473259693843, 18.643153705164945, 0.0], [73.8147386161103, 18.643156182776227, 0.0], [73.81476863139576, 18.643169730158228, 0.0], [73.81477445651403, 18.643172598460563, 0.0], [73.81480341765995, 18.64318809121613, 0.0], [73.81480725740617, 18.64319031512824, 0.0], [73.81480902085909, 18.64319133648848, 0.0], [73.81482085438697, 18.643198736162955, 0.0], [73.81504417791528, 18.64320014394925, 0.0], [73.81504261094301, 18.643426046145855, 0.0], [73.81504239427115, 18.643457282339273, 0.0], [73.81504993847662, 18.643475955118937, 0.0], [73.81505208186113, 18.643481861617794, 0.0], [73.81506184684824, 18.64351211970839, 0.0], [73.81506355681164, 18.64351815331263, 0.0], [73.81507110435426, 18.643548982467664, 0.0], [73.81507237271614, 18.64355511431372, 0.0], [73.81507766670735, 18.643586367054667, 0.0], [73.8150784873999, 18.643592567809197, 0.0], [73.81508150251318, 18.643624094630766, 0.0], [73.8150818716102, 18.643630334631563, 0.0], [73.81508237047198, 18.643652208827937, 0.0], [73.81508259342041, 18.643661984717884, 0.0], [73.81508250915584, 18.64366823411385, 0.0], [73.81508093420855, 18.64369985605881, 0.0], [73.81508039698525, 18.64370608495478, 0.0], [73.81507653281301, 18.643737527486834, 0.0], [73.81507554520064, 18.643743706084788, 0.0], [73.81506941028732, 18.64377481879079, 0.0], [73.81506797701003, 18.643780917534375, 0.0], [73.81505960070209, 18.643811551578644, 0.0], [73.81505772861601, 18.643817541292886, 0.0], [73.8150471509822, 18.64384755012953, 0.0], [73.8150448490428, 18.643853402160733, 0.0], [73.81503956227671, 18.643865547122793, 0.0], [73.81503947693106, 18.643877850522422, 0.0], [73.81503790989142, 18.644103752702378, 0.0], [73.814842941727, 18.644102523619928, 0.0], [73.81480073813381, 18.64412995580984, 0.0], [73.81456267431201, 18.64428469611801, 0.0], [73.81456238304833, 18.644326666640143, 0.0], [73.81456081533732, 18.644552568770205, 0.0], [73.81479779552978, 18.644554063057225, 0.0], [73.81486563738956, 18.644554490781477, 0.0], [73.81492557958927, 18.644510520589318, 0.0], [73.81493322157458, 18.6445054638993, 0.0], [73.81494134670932, 18.644501145588595, 0.0], [73.81494987674401, 18.644497607244844, 0.0], [73.81495872952992, 18.644494882944173, 0.0], [73.81496781980997, 18.64449299892308, 0.0], [73.81497706003992, 18.644491973325696, 0.0], [73.81498636123139, 18.64449181602906, 0.0], [73.81499563380902, 18.644492528548067, 0.0], [73.81500478847292, 18.64449410402075, 0.0], [73.81501373705879, 18.644496527274487, 0.0], [73.81502239338697, 18.644499774972072, 0.0], [73.81503067409237, 18.64450381583643, 0.0], [73.81503511579501, 18.644506537570074, 0.0], [73.81503849942736, 18.644508610951892, 0.0], [73.81504579402969, 18.64451411413894, 0.0], [73.8150524876484, 18.64452027239892, 0.0], [73.81505851582027, 18.64452702642449, 0.0], [73.81508178647373, 18.644555853378698, 0.0], [73.81527175598212, 18.644557050735482, 0.0], [73.81527018918833, 18.644782952918188, 0.0], [73.81521994539455, 18.644782636252096, 0.0], [73.81521772191057, 18.644790097430036, 0.0], [73.81521431495241, 18.644798349108587, 0.0], [73.81521007592897, 18.644806242723735, 0.0], [73.81520504566431, 18.64481370225559, 0.0], [73.81519927260254, 18.644820655864734, 0.0], [73.8151928123414, 18.644827036584015, 0.0], [73.81518572709672, 18.644832782963594, 0.0], [73.81510308864893, 18.644893401868117, 0.0], [73.81511465078714, 18.64490772464839, 0.0], [73.8151199554704, 18.644915009392985, 0.0], [73.8151244855637, 18.644922754702282, 0.0], [73.81512819743973, 18.644930885984788, 0.0], [73.81513105535097, 18.644939324931848, 0.0], [73.81513303177407, 18.644947990271817, 0.0], [73.81513410767484, 18.64495679855275, 0.0], [73.81513427269165, 18.644965664946135, 0.0], [73.81513352523514, 18.644974504063725, 0.0], [73.8151318725036, 18.64498323077999, 0.0], [73.81512933041361, 18.644991761051845, 0.0], [73.81512592344674, 18.645000012728083, 0.0], [73.81512168441388, 18.645007906340496, 0.0], [73.81512166922725, 18.645007928861155, 0.0], [73.81511665413913, 18.64501536586923, 0.0], [73.81511088106676, 18.645022319474894, 0.0], [73.81510442079454, 18.645028700190387, 0.0], [73.81509733553845, 18.64503444656588, 0.0], [73.81503111663746, 18.645083020909766, 0.0], [73.81503012839934, 18.645225473363812, 0.0], [73.8150357680846, 18.64523329941134, 0.0], [73.81521028850473, 18.645234399478248, 0.0], [73.81526730658807, 18.64519856116114, 0.0], [73.81550533558146, 18.64504894934267, 0.0], [73.81550560325837, 18.64501034852536, 0.0], [73.81556614156166, 18.64501072998383, 0.0], [73.81574336416821, 18.644899337197167, 0.0], [73.81574415035692, 18.644785939440844, 0.0], [73.81592199370978, 18.644787059758517, 0.0], [73.81598139234832, 18.644749724724665, 0.0], [73.81598269682901, 18.644561530013405, 0.0], [73.81598426266069, 18.644335627766996, 0.0], [73.81574728266916, 18.644334134992334, 0.0], [73.8155103027001, 18.64433264191908, 0.0], [73.81551186913578, 18.644106739705876, 0.0], [73.81527488950236, 18.644105246353423, 0.0], [73.81527645622882, 18.643879344154072, 0.0], [73.81551343554901, 18.64388083748714, 0.0], [73.81551500193979, 18.643654935262845, 0.0], [73.81551656830811, 18.643429033033005, 0.0], [73.81575354702436, 18.643430526028723, 0.0], [73.81599052576303, 18.643432018725854, 0.0], [73.81622750452415, 18.643433511124417, 0.0], [73.81635317098996, 18.643434302400937, 0.0], [73.81635395792622, 18.643389877754696, 0.0], [73.81635622953367, 18.643208409499316, 0.0], [73.8163590572408, 18.642982515138662, 0.0], [73.81623063531428, 18.6429817065318, 0.0], [73.81623183716708, 18.64280826360758, 0.0], [73.81622664886712, 18.642803679480696, 0.0], [73.81622038494534, 18.64279779127178, 0.0], [73.81619820597315, 18.64277561133061, 0.0], [73.81619169349244, 18.64276863209461, 0.0], [73.81618024512485, 18.64275547706866, 0.0], [73.81599522285418, 18.642754311886737, 0.0], [73.81599678850635, 18.64252840959594, 0.0], [73.81599794068772, 18.642362163441813, 0.0], [73.81599679821069, 18.642361197003073, 0.0], [73.8159935475391, 18.64235783879597, 0.0], [73.81599001023734, 18.642354395454078, 0.0], [73.81598863664436, 18.642352765443484, 0.0], [73.81598718319829, 18.642351263915746, 0.0], [73.81594420839897, 18.642302166289106, 0.0], [73.81576137696338, 18.64230101469936, 0.0], [73.81552439981309, 18.64229952180057, 0.0], [73.8155257145634, 18.642109891902837, 0.0], [73.81551679685043, 18.642073561768395, 0.0], [73.81546125790756, 18.64184729971266, 0.0], [73.81545534026766, 18.641823191599045, 0.0], [73.81545285656463, 18.64181028558688, 0.0], [73.81545169357847, 18.641797211116575, 0.0], [73.81545186220748, 18.641784090712104, 0.0], [73.81545336087109, 18.641771047327897, 0.0], [73.81545617552469, 18.641758203196567, 0.0], [73.81546027979118, 18.64174567868343, 0.0], [73.8154656352083, 18.64173359115863, 0.0], [73.81547219158892, 18.641722053897098, 0.0], [73.81547988749153, 18.641711175017146, 0.0], [73.81548865079586, 18.641701056467223, 0.0], [73.81549839937885, 18.6416917930705, 0.0], [73.81550857030962, 18.641683840363207, 0.0], [73.81550007976733, 18.641641758128248, 0.0], [73.81549976043229, 18.641639632710636, 0.0], [73.81549931363809, 18.641637615278963, 0.0], [73.81549662181702, 18.6416216103835, 0.0], [73.81548409215323, 18.641547112100508, 0.0], [73.81546384427928, 18.641461944512, 0.0], [73.8154432474708, 18.64139536195816, 0.0], [73.81529368873788, 18.641394419594967, 0.0], [73.81529501506847, 18.641203146708552, 0.0], [73.81527906425092, 18.641198968024128, 0.0], [73.81526964478361, 18.64119616180037, 0.0], [73.8152373371994, 18.641185350047536, 0.0], [73.81522839727351, 18.641182031294502, 0.0], [73.81519544797582, 18.641168562268863, 0.0], [73.81519391646219, 18.64116787873784, 0.0], [73.81505827965536, 18.641167023930098, 0.0], [73.81482130413826, 18.64116553023264, 0.0], [73.81479704035411, 18.641165377276973, 0.0], [73.81463754507541, 18.641206506772708, 0.0], [73.8146348831225, 18.641207115152366, 0.0], [73.81458395921457, 18.641217280771386, 0.0], [73.81434664453843, 18.641264654205195, 0.0], [73.8143457854618, 18.641388444130435, 0.0], [73.81410880969894, 18.64138694951795, 0.0], [73.8140122031457, 18.641386340132136, 0.0], [73.81401015795062, 18.641440960631826, 0.0], [73.8140093667442, 18.641449822132373, 0.0], [73.81400766557366, 18.64145856657213, 0.0], [73.81400507091733, 18.641467109247536, 0.0], [73.81400160790841, 18.641475367409363, 0.0], [73.81399731009144, 18.641483261064426, 0.0], [73.81399221909743, 18.641490713750244, 0.0], [73.81398638424052, 18.641497653275902, 0.0], [73.81397986204041, 18.641504012421166, 0.0], [73.81397271567478, 18.64150972958773, 0.0], [73.81396501436738, 18.641514749395856, 0.0], [73.81395683271745, 18.6415190232208, 0.0], [73.81394824997712, 18.641522509663833, 0.0], [73.81393934928374, 18.6415251749533, 0.0], [73.81393021685449, 18.64152699327165, 0.0], [73.81392094115141, 18.64152794700564, 0.0], [73.81391161202424, 18.641528026916824, 0.0], [73.81387085499367, 18.641526462463798, 0.0], [73.81378644835591, 18.64152322249845, 0.0], [73.81377717684929, 18.641522430555995, 0.0], [73.81376803152978, 18.64152077555872, 0.0], [73.81375910058863, 18.64151827346632, 0.0], [73.8137504701498, 18.64151494840728, 0.0]]]}, "properties": {"site_id": "SEG02", "name": "SEG02", "n_member_parcels": 134}}]}