{"type": "FeatureCollection", "features": [{"type": "Feature", "geometry": {"type": "Polygon", "coordinates": [[[73.80872741698342, 18.638867899458315, 0.0], [73.80867547076863, 18.638900393591324, 0.0], [73.80852211449522, 18.63899632302136, 0.0], [73.80851972704374, 18.63899772198308, 0.0], [73.80843749562735, 18.639042769113225, 0.0], [73.80843715251203, 18.639091971987312, 0.0], [73.80865852696563, 18.63909337474388, 0.0], [73.80867418608162, 18.639084655762126, 0.0], [73.8087526170463, 18.6390409854372, 0.0], [73.80891206882133, 18.6389555187634, 0.0], [73.80891267140302, 18.638869073057144, 0.0], [73.80872741698342, 18.638867899458315, 0.0]]]}, "properties": {"site_id": "SEG78", "name": "SEG78", "n_member_parcels": 2}}]}