{"type": "FeatureCollection", "features": [{"type": "Feature", "geometry": {"type": "Polygon", "coordinates": [[[73.81032663841432, 18.640007583886433, 0.0], [73.8103282113124, 18.63978168199527, 0.0], [73.81009123812417, 18.639780182443946, 0.0], [73.81009104278147, 18.639808232434497, 0.0], [73.8100967578486, 18.639811965697596, 0.0], [73.8101129688165, 18.6398210408327, 0.0], [73.81012980395481, 18.6398290167038, 0.0], [73.8101357751632, 18.6398318345039, 0.0], [73.8101415363345, 18.6398350250141, 0.0], [73.8101470619053, 18.639838574077505, 0.0], [73.8101523273576, 18.6398424659464, 0.0], [73.8101573093277, 18.639846683351696, 0.0], [73.8101619857096, 18.6398512075802, 0.0], [73.8101663357534, 18.639856018557, 0.0], [73.810170340157, 18.639861094934894, 0.0], [73.8101739811523, 18.639866414189196, 0.0], [73.8101772425835, 18.6398719527173, 0.0], [73.8101801099788, 18.639877685943805, 0.0], [73.810182570616, 18.6398835884272, 0.0], [73.8101999970959, 18.6399256624176, 0.0], [73.8102201326575, 18.639966622745895, 0.0], [73.8102428994654, 18.6400063110375, 0.0], [73.81024339498966, 18.640007057155206, 0.0], [73.81032663841432, 18.640007583886433, 0.0]]]}, "properties": {"site_id": "SEG113", "name": "SEG113", "n_member_parcels": 1}}]}