{"type": "FeatureCollection", "features": [{"type": "Feature", "geometry": {"type": "Polygon", "coordinates": [[[73.81285099268175, 18.645897249888193, 0.0], [73.8128358834272, 18.645848775598896, 0.0], [73.8127847482113, 18.645714142176796, 0.0], [73.81276104485318, 18.645670769919793, 0.0], [73.81265712318525, 18.645670113514953, 0.0], [73.81265644030233, 18.645768349592647, 0.0], [73.81267087625857, 18.645787098206462, 0.0], [73.8126726031209, 18.64578949948138, 0.0], [73.81269073711583, 18.645816544508104, 0.0], [73.81269229815904, 18.6458190468131, 0.0], [73.81270856730102, 18.64584714897384, 0.0], [73.81270995604376, 18.645849741919747, 0.0], [73.81272429278125, 18.64587878453314, 0.0], [73.81272550345695, 18.645881457353216, 0.0], [73.81273172049494, 18.64589649656863, 0.0], [73.81285099268175, 18.645897249888193, 0.0]]]}, "properties": {"site_id": "SEG120", "name": "SEG120", "n_member_parcels": 1}}]}