{"type": "FeatureCollection", "features": [{"type": "Feature", "geometry": {"type": "Polygon", "coordinates": [[[73.80769785997346, 18.64315369508093, 0.0], [73.80769628329207, 18.643379596674407, 0.0], [73.80793326126519, 18.643381099523047, 0.0], [73.80817023926089, 18.643382602073114, 0.0], [73.80840721727917, 18.64338410432461, 0.0], [73.8084056415148, 18.64361000597107, 0.0], [73.80863144136927, 18.643611437100706, 0.0], [73.80862089159301, 18.64359955776782, 0.0], [73.80861910248474, 18.643597414703365, 0.0], [73.80859703741724, 18.643569274207128, 0.0], [73.80859532378543, 18.64356693858101, 0.0], [73.80859102653437, 18.643560669422666, 0.0], [73.80858941331195, 18.6435581384916, 0.0], [73.80858555613474, 18.643551614438326, 0.0], [73.80858412031394, 18.643548988198923, 0.0], [73.80858071978261, 18.643542237280936, 0.0], [73.80857946753223, 18.643539527016593, 0.0], [73.80857653825682, 18.643532578238585, 0.0], [73.80857547495687, 18.643529795593242, 0.0], [73.80857302952272, 18.64352267881006, 0.0], [73.80857215974194, 18.64351983574019, 0.0], [73.80857020865552, 18.643512581528622, 0.0], [73.80856953072262, 18.643509662718674, 0.0], [73.8085656925275, 18.643490090250914, 0.0], [73.80856521509635, 18.64348710727601, 0.0], [73.80856275596379, 18.64346733423781, 0.0], [73.80856248847114, 18.64346432753715, 0.0], [73.80856141936927, 18.643444442124295, 0.0], [73.80856136300812, 18.64344142510881, 0.0], [73.80856168870503, 18.643421516018307, 0.0], [73.80856184372671, 18.64341850214508, 0.0], [73.80856356276911, 18.643398658179713, 0.0], [73.80856392848207, 18.643395660891994, 0.0], [73.80856559241423, 18.643385108130033, 0.0], [73.80856703320177, 18.643375970563962, 0.0], [73.80856760797472, 18.643373003230746, 0.0], [73.8085720845229, 18.643353554366705, 0.0], [73.80857286579196, 18.643350630223665, 0.0], [73.80857869420085, 18.643331509573414, 0.0], [73.80857967848132, 18.643328641663054, 0.0], [73.80858683275345, 18.643309934512455, 0.0], [73.80858801565469, 18.643307135627474, 0.0], [73.80859646902833, 18.643288914321285, 0.0], [73.80861956766046, 18.64323916115004, 0.0], [73.80862855301979, 18.6432158490768, 0.0], [73.80863599695829, 18.643192007972907, 0.0], [73.80864185603883, 18.64316776840091, 0.0], [73.80864325556824, 18.6431596886667, 0.0], [73.8086458763778, 18.643144558260854, 0.0], [73.80864659299883, 18.643041800362063, 0.0], [73.80864105072783, 18.642981103745836, 0.0], [73.80864088403001, 18.64297819562718, 0.0], [73.80863984183361, 18.64293375537269, 0.0], [73.80863943855896, 18.64291655935699, 0.0], [73.80863946875807, 18.642913647042363, 0.0], [73.80864219208985, 18.642852050053698, 0.0], [73.80864242261084, 18.642849114116196, 0.0], [73.80864435592405, 18.642832003594826, 0.0], [73.8086447922633, 18.64282905696584, 0.0], [73.80864790296907, 18.642812104877553, 0.0], [73.80864820443549, 18.64281073038701, 0.0], [73.80864892153812, 18.642707901246332, 0.0], [73.80841194443683, 18.642706399351916, 0.0], [73.80841352011088, 18.64248049768325, 0.0], [73.80833339815318, 18.64247998983111, 0.0], [73.80830459440554, 18.64249162926161, 0.0], [73.80830261475307, 18.642493310423514, 0.0], [73.80829491268109, 18.64249863377212, 0.0], [73.80828668965448, 18.642503194377486, 0.0], [73.80827802849836, 18.64250694630365, 0.0], [73.80817608043402, 18.642545349448408, 0.0], [73.80817496735811, 18.642704897158943, 0.0], [73.80793799030197, 18.642703394667404, 0.0], [73.80793641397896, 18.642929296291506, 0.0], [73.80769943663223, 18.642927793481892, 0.0], [73.80769785997346, 18.64315369508093, 0.0]], [[73.80817181531587, 18.643156700440603, 0.0], [73.80817339134829, 18.642930798802546, 0.0], [73.80841036874018, 18.64293230101503, 0.0], [73.80840879302097, 18.643158202672595, 0.0], [73.80817181531587, 18.643156700440603, 0.0]]]}, "properties": {"site_id": "SEG21", "name": "SEG21", "n_member_parcels": 12}}]}