{"type": "FeatureCollection", "features": [{"type": "Feature", "geometry": {"type": "Polygon", "coordinates": [[[73.81413177081146, 18.63932083006005, 0.0], [73.81413502754727, 18.639320284334005, 0.0], [73.81419100664466, 18.639312812504123, 0.0], [73.8141942953697, 18.639312484572482, 0.0], [73.81425068472997, 18.639308751703833, 0.0], [73.81425398943661, 18.63930864316281, 0.0], [73.81431051458908, 18.639308667425063, 0.0], [73.81431381919171, 18.63930877880298, 0.0], [73.81436019543455, 18.639311888829983, 0.0], [73.81436146154738, 18.639129421997342, 0.0], [73.8141244889159, 18.639127927578944, 0.0], [73.81388751630689, 18.639126432862042, 0.0], [73.81365054372034, 18.639124937846635, 0.0], [73.8134135711563, 18.639123442532743, 0.0], [73.81317659861473, 18.639121946920334, 0.0], [73.81293962609564, 18.63912045100943, 0.0], [73.81270265359906, 18.63911895480003, 0.0], [73.81270108389978, 18.63934485690237, 0.0], [73.81270065514592, 18.639406560131615, 0.0], [73.81271267189578, 18.63941634076228, 0.0], [73.81273404868908, 18.639431435600123, 0.0], [73.81275646851033, 18.639445086301507, 0.0], [73.81277982419147, 18.6394572276152, 0.0], [73.81280400409096, 18.639467801504697, 0.0], [73.81282889262762, 18.63947675742632, 0.0], [73.81285437083235, 18.63948405256983, 0.0], [73.812880316918, 18.639489652064086, 0.0], [73.81290660686035, 18.639493529143056, 0.0], [73.81293311499145, 18.63949566527397, 0.0], [73.81293701900397, 18.639495721776353, 0.0], [73.81295971460472, 18.639496050245903, 0.0], [73.81302080006542, 18.639492904384323, 0.0], [73.813081511513, 18.6394857424348, 0.0], [73.81314155873905, 18.63947459863178, 0.0], [73.81317420699156, 18.639466271719684, 0.0], [73.81317502954168, 18.639347849061533, 0.0], [73.81341200239638, 18.63934934469336, 0.0], [73.81354813280898, 18.639350203732565, 0.0], [73.81358267546766, 18.63934520211182, 0.0], [73.8135856404008, 18.639344863506313, 0.0], [73.81363865802169, 18.639340418425885, 0.0], [73.813641639438, 18.639340258480143, 0.0], [73.81364904995432, 18.639340083885596, 0.0], [73.81369484546899, 18.63933900491958, 0.0], [73.81369783153379, 18.639339024268505, 0.0], [73.81375101477362, 18.639340967204028, 0.0], [73.81375399363365, 18.63934116577082, 0.0], [73.81380694878939, 18.639346298054246, 0.0], [73.81385292886345, 18.63935075978169, 0.0], [73.81388595065317, 18.63935197780476, 0.0], [73.8138976251351, 18.639352408421715, 0.0], [73.81394234187017, 18.63935138112429, 0.0], [73.81398690294786, 18.639347681935522, 0.0], [73.8140311328601, 18.639341325424684, 0.0], [73.81407631192138, 18.63933203761058, 0.0], [73.81407647445037, 18.639332004482387, 0.0], [73.81412313801594, 18.639322574597426, 0.0], [73.81413177081146, 18.63932083006005, 0.0]]]}, "properties": {"site_id": "SEG30", "name": "SEG30", "n_member_parcels": 9}}]}