{"type": "FeatureCollection", "features": [{"type": "Feature", "geometry": {"type": "Polygon", "coordinates": [[[73.80878712493868, 18.6431606003479, 0.0], [73.80878685940276, 18.643162503454672, 0.0], [73.80878163806241, 18.643192647329304, 0.0], [73.80878106104424, 18.643195431470986, 0.0], [73.80877386473084, 18.643225203397147, 0.0], [73.80877310548753, 18.64322794751357, 0.0], [73.80876396259256, 18.643257230027945, 0.0], [73.80876302411963, 18.643259923292174, 0.0], [73.80875197071475, 18.643288600862714, 0.0], [73.8087508237978, 18.643291303715277, 0.0], [73.80872583777612, 18.643345122320426, 0.0], [73.8087193129216, 18.64335918671467, 0.0], [73.80871432765345, 18.643372222330544, 0.0], [73.808710266281, 18.643385546082943, 0.0], [73.80871015621453, 18.643386024280666, 0.0], [73.80870714691979, 18.6433990985424, 0.0], [73.80870498348371, 18.64341281925942, 0.0], [73.80870378562278, 18.6434266470339, 0.0], [73.80870355868026, 18.64344052018862, 0.0], [73.80870430366853, 18.643454376843557, 0.0], [73.80870601726495, 18.64346815519221, 0.0], [73.80870869452772, 18.64348180755275, 0.0], [73.808709098411, 18.643483309198935, 0.0], [73.80870960920647, 18.643484795727527, 0.0], [73.80871022106491, 18.643486247163686, 0.0], [73.80871093135752, 18.643487657271407, 0.0], [73.80871173703235, 18.64348901999194, 0.0], [73.80871266661957, 18.643490376142303, 0.0], [73.80873125561101, 18.64351408343441, 0.0], [73.80875135512551, 18.643536716011425, 0.0], [73.80877285630028, 18.643558146064272, 0.0], [73.8087956801248, 18.64357829484298, 0.0], [73.80882077578136, 18.643597895145096, 0.0], [73.80883997397571, 18.643612758548862, 0.0], [73.80887959824551, 18.643613009617344, 0.0], [73.8088793844875, 18.643643665918084, 0.0], [73.80892642105808, 18.64368412946915, 0.0], [73.80900612938707, 18.64375190586991, 0.0], [73.80908911720489, 18.643813909004397, 0.0], [73.80911506828713, 18.643830875233913, 0.0], [73.80912979991686, 18.643840506436607, 0.0], [73.80935198053237, 18.643841913788208, 0.0], [73.80958895928994, 18.64384341458582, 0.0], [73.80959053351087, 18.643617512847435, 0.0], [73.80948247223651, 18.643616828535333, 0.0], [73.8094612226043, 18.6437065691584, 0.0], [73.809381039739, 18.643784895681, 0.0], [73.80935230597453, 18.64379522218583, 0.0], [73.809301202763, 18.6438135879364, 0.0], [73.8092897858583, 18.64369380417959, 0.0], [73.8093115308848, 18.643650145081097, 0.0], [73.80928320391743, 18.64361556647987, 0.0], [73.80911657664474, 18.643614510992617, 0.0], [73.80911815146952, 18.643388609287655, 0.0], [73.80911972627173, 18.64316270757715, 0.0], [73.80922555701112, 18.64316337795506, 0.0], [73.8092328439467, 18.6430744479157, 0.0], [73.8093132910703, 18.6429581658356, 0.0], [73.80931494079267, 18.642938032399865, 0.0], [73.8093266818822, 18.6427947423598, 0.0], [73.80932485190122, 18.64271218346237, 0.0], [73.8093243516559, 18.642689615089797, 0.0], [73.80936059339797, 18.6426061682315, 0.0], [73.80936090448722, 18.6425615323551, 0.0], [73.80935903788563, 18.6425448890653, 0.0], [73.80935136176566, 18.642544961467465, 0.0], [73.80933746230748, 18.642543788713528, 0.0], [73.809323750365, 18.642541322892125, 0.0], [73.809310357992, 18.642537587750553, 0.0], [73.8092974141646, 18.64253261926035, 0.0], [73.80928504353919, 18.642526465270898, 0.0], [73.80927336525177, 18.642519185048624, 0.0], [73.8092624917708, 18.642510848706195, 0.0], [73.80925937969768, 18.64250794020508, 0.0], [73.80925000431061, 18.642507720778006, 0.0], [73.8092434921777, 18.642507354323342, 0.0], [73.80921729719337, 18.64250501577828, 0.0], [73.80921082692063, 18.642504223234692, 0.0], [73.80918486269131, 18.642500172798677, 0.0], [73.809178464922, 18.642498957919656, 0.0], [73.80915285441371, 18.64249321477556, 0.0], [73.80914655944736, 18.64249158331473, 0.0], [73.80912445009542, 18.642485066614096, 0.0], [73.8091242274829, 18.642485000999347, 0.0], [73.80905274587705, 18.64248454818584, 0.0], [73.80902131535147, 18.642537093410244, 0.0], [73.80901961632496, 18.64253972097232, 0.0], [73.8089841534677, 18.642590588692705, 0.0], [73.80898227020869, 18.64259309954055, 0.0], [73.80894324673912, 18.64264154042766, 0.0], [73.80894139672276, 18.642643695969713, 0.0], [73.8088924649833, 18.642697251846307, 0.0], [73.80889070060711, 18.642699079037964, 0.0], [73.80888593809728, 18.642703746865326, 0.0], [73.808885898662, 18.64270940284219, 0.0], [73.80888432359174, 18.642935304544302, 0.0], [73.8088827484989, 18.643161206240865, 0.0], [73.80878712493868, 18.6431606003479, 0.0]]]}, "properties": {"site_id": "SEG19", "name": "SEG19", "n_member_parcels": 13}}]}