{"type": "FeatureCollection", "features": [{"type": "Feature", "geometry": {"type": "Polygon", "coordinates": [[[73.81316383171412, 18.64095992537292, 0.0], [73.81314629101736, 18.640946503886937, 0.0], [73.8131415340799, 18.64094261060746, 0.0], [73.81312588822674, 18.640928923021562, 0.0], [73.81308200391372, 18.640928645985557, 0.0], [73.8129268632805, 18.64095747461308, 0.0], [73.81268957141458, 18.641001568522217, 0.0], [73.81245747379698, 18.641044696913358, 0.0], [73.81248187663944, 18.641150768390137, 0.0], [73.81268852549563, 18.64115207352132, 0.0], [73.81280421532372, 18.64115280408384, 0.0], [73.81288674675801, 18.641129592351874, 0.0], [73.81289576389085, 18.641127507639272, 0.0], [73.81290495163037, 18.641126273285394, 0.0], [73.81291422194839, 18.64112590111665, 0.0], [73.81292348602553, 18.641126394698794, 0.0], [73.81292568736515, 18.64112671991626, 0.0], [73.81293265510224, 18.641127749302818, 0.0], [73.81294164132918, 18.641129951950198, 0.0], [73.8129503586088, 18.64113298153727, 0.0], [73.81295872342042, 18.641136809037423, 0.0], [73.81296665562036, 18.641141397779183, 0.0], [73.81297407920974, 18.64114670379759, 0.0], [73.81298092306272, 18.641152676255413, 0.0], [73.81298210124974, 18.64115392726577, 0.0], [73.81316247614772, 18.64115506599136, 0.0], [73.81316383171412, 18.64095992537292, 0.0]]]}, "properties": {"site_id": "SEG65", "name": "SEG65", "n_member_parcels": 3}}]}