{"type": "FeatureCollection", "features": [{"type": "Feature", "geometry": {"type": "Polygon", "coordinates": [[[73.80819860479521, 18.63931637183883, 0.0], [73.80800275285289, 18.639315130329067, 0.0], [73.80800172300982, 18.639317486523712, 0.0], [73.80799927143808, 18.63932436013176, 0.0], [73.80799730843664, 18.639331374866615, 0.0], [73.80799584282613, 18.63933849920845, 0.0], [73.807994881192, 18.6393457011455, 0.0], [73.80799442785523, 18.639352948316905, 0.0], [73.80799448485297, 18.639360208158497, 0.0], [73.8079950572259, 18.639367515673285, 0.0], [73.80800126318742, 18.639409933832127, 0.0], [73.80801018645303, 18.63945197849321, 0.0], [73.80802178395419, 18.639493425856536, 0.0], [73.80803645081537, 18.63953537519139, 0.0], [73.80803852909334, 18.639541268834535, 0.0], [73.8080754545595, 18.639645983115916, 0.0], [73.8080762282508, 18.63964839872403, 0.0], [73.8081087036269, 18.639760967477535, 0.0], [73.80810933451198, 18.63976342052487, 0.0], [73.80811028835032, 18.639767635436147, 0.0], [73.80819545343053, 18.639768175286992, 0.0], [73.80819702912416, 18.639542273565684, 0.0], [73.80819860479521, 18.63931637183883, 0.0]]]}, "properties": {"site_id": "SEG72", "name": "SEG72", "n_member_parcels": 2}}]}