{"type": "FeatureCollection", "features": [{"type": "Feature", "geometry": {"type": "Polygon", "coordinates": [[[73.81430658541771, 18.64703599703553, 0.0], [73.81430815368913, 18.646810094985923, 0.0], [73.81407117040912, 18.646808599907615, 0.0], [73.81407077925745, 18.64686493249436, 0.0], [73.81418221574371, 18.646990973911794, 0.0], [73.81418334794695, 18.646992390071198, 0.0], [73.81418450866988, 18.64699378509327, 0.0], [73.81418475711543, 18.64699415265858, 0.0], [73.81418503515594, 18.64699450043154, 0.0], [73.81418601629031, 18.64699601555778, 0.0], [73.81418702798051, 18.64699751231318, 0.0], [73.8141872374347, 18.64699790132176, 0.0], [73.81418747837652, 18.646998273398488, 0.0], [73.81418829899316, 18.64699987290008, 0.0], [73.81418915190748, 18.647001456974234, 0.0], [73.81418932035318, 18.647001863679755, 0.0], [73.81418952187589, 18.647002256476924, 0.0], [73.8141901740718, 18.647003924949775, 0.0], [73.81419085999622, 18.647005581087228, 0.0], [73.81419098581118, 18.647006001572855, 0.0], [73.81419114597402, 18.647006411307643, 0.0], [73.81419162346822, 18.6470081326835, 0.0], [73.81419213579684, 18.647009844934686, 0.0], [73.81419221776942, 18.647010275150926, 0.0], [73.81419233502993, 18.647010697877345, 0.0], [73.81419263322383, 18.64701245557841, 0.0], [73.8141929670227, 18.647014207453427, 0.0], [73.81419300436343, 18.64701464325708, 0.0], [73.81419307759232, 18.647015074904047, 0.0], [73.81419319361416, 18.647016852002682, 0.0], [73.81419334566857, 18.64701862663004, 0.0], [73.81419333801784, 18.64701906382405, 0.0], [73.81419336650987, 18.647019500234574, 0.0], [73.81419329924229, 18.647021279616347, 0.0], [73.81419326808788, 18.647023059905415, 0.0], [73.81419321551937, 18.647023494279388, 0.0], [73.81419319900013, 18.647023931250587, 0.0], [73.81419294909092, 18.64702569577909, 0.0], [73.8141927350277, 18.647027464584706, 0.0], [73.81419263804767, 18.64702789195536, 0.0], [73.81419257667626, 18.647028325278974, 0.0], [73.81419214653218, 18.647030057960816, 0.0], [73.81419175162166, 18.647031798248413, 0.0], [73.81419161116408, 18.64703221449996, 0.0], [73.81419150553155, 18.64703264000284, 0.0], [73.81419089929511, 18.647034324151342, 0.0], [73.81419058174573, 18.64703526522125, 0.0], [73.81430658541771, 18.64703599703553, 0.0]]]}, "properties": {"site_id": "SEG119", "name": "SEG119", "n_member_parcels": 1}}]}