{"type": "FeatureCollection", "features": [{"type": "Feature", "geometry": {"type": "MultiPolygon", "coordinates": [[[[73.81411664958833, 18.6402574386178, 0.0], [73.81435362378544, 18.640258933133243, 0.0], [73.81435381396484, 18.640231527065012, 0.0], [73.81435245057784, 18.64022955002477, 0.0], [73.81434589779447, 18.64021761310944, 0.0], [73.81434062047808, 18.6402051150371, 0.0], [73.81433667076611, 18.64019217928366, 0.0], [73.81433408767978, 18.640178933649008, 0.0], [73.8143328967386, 18.64016550899456, 0.0], [73.81433310970826, 18.640152037950344, 0.0], [73.81433472448435, 18.640138653604637, 0.0], [73.81433772511326, 18.640125488189163, 0.0], [73.81434208194972, 18.64011267177268, 0.0], [73.81434775194974, 18.640100330975933, 0.0], [73.81435467909586, 18.640088587720758, 0.0], [73.81435480706784, 18.640088413802932, 0.0], [73.81435519138276, 18.640033030917163, 0.0], [73.81442558560259, 18.640033474806785, 0.0], [73.8144320949565, 18.640030761566507, 0.0], [73.81443463104807, 18.640028850234124, 0.0], [73.81445390766545, 18.640011154641233, 0.0], [73.81446459085049, 18.640002281959855, 0.0], [73.81447614733761, 18.639994466914054, 0.0], [73.81448846236917, 18.639987787108375, 0.0], [73.81450141365508, 18.639982308874245, 0.0], [73.81451487258722, 18.639978086611286, 0.0], [73.81452870551654, 18.6399751622472, 0.0], [73.8145427750801, 18.63997356482134, 0.0], [73.81455694156516, 18.63997331019637, 0.0], [73.81457106429663, 18.639974400900766, 0.0], [73.81458500303381, 18.639976826103727, 0.0], [73.81459255122775, 18.639978896939233, 0.0], [73.81459861936305, 18.639980561722655, 0.0], [73.81461177807235, 18.639985570662354, 0.0], [73.81462434849378, 18.639991803183346, 0.0], [73.81463620580121, 18.63999919739585, 0.0], [73.8146472322498, 18.64000767987428, 0.0], [73.81465731834516, 18.640017166386436, 0.0], [73.81466636393073, 18.640027562729852, 0.0], [73.81467222749993, 18.640035029865444, 0.0], [73.81482913921812, 18.640036019013678, 0.0], [73.81482767447606, 18.640247183531596, 0.0], [73.81483741691083, 18.640261983324223, 0.0], [73.81506454651156, 18.640263414888445, 0.0], [73.81506596463224, 18.64005893089578, 0.0], [73.81505806517596, 18.64005542347363, 0.0], [73.81504993030946, 18.640050819888618, 0.0], [73.81504231731577, 18.640045466257494, 0.0], [73.8150353020222, 18.64003941590377, 0.0], [73.8150332989332, 18.64003730581026, 0.0], [73.81502895430273, 18.640032729090485, 0.0], [73.81502333738216, 18.640025472419996, 0.0], [73.81501850720632, 18.640017718170544, 0.0], [73.81501451188485, 18.640009543576358, 0.0], [73.815011391212, 18.64000103005843, 0.0], [73.81500917627028, 18.639992262413458, 0.0], [73.81500788912095, 18.63998332796933, 0.0], [73.81500754258414, 18.639974315715268, 0.0], [73.81500814011132, 18.639965315415473, 0.0], [73.81501318875706, 18.639922953166238, 0.0], [73.81501473282891, 18.639914017327712, 0.0], [73.81501720741578, 18.639905273699156, 0.0], [73.81502058766218, 18.639896810103707, 0.0], [73.81502483961596, 18.639888711551734, 0.0], [73.81502992056939, 18.63988105938701, 0.0], [73.81503577948807, 18.639873930469715, 0.0], [73.81504235752355, 18.639867396404345, 0.0], [73.81504444185785, 18.639865703363995, 0.0], [73.8148303870857, 18.63985611796442, 0.0], [73.81459347664575, 18.63984550880051, 0.0], [73.81441148022793, 18.639837358556246, 0.0], [73.81440993844527, 18.639837399755397, 0.0], [73.81440678255682, 18.63983738388414, 0.0], [73.81438254540355, 18.639836492170847, 0.0], [73.8143793976194, 18.639836276122598, 0.0], [73.81437305331079, 18.639835637682438, 0.0], [73.81437098603111, 18.63983554510317, 0.0], [73.81436635626157, 18.63983511996659, 0.0], [73.81436455778965, 18.639834782761234, 0.0], [73.81435657263847, 18.639833979199214, 0.0], [73.81435527645021, 18.639833848761118, 0.0], [73.81435215072709, 18.639833433493788, 0.0], [73.81432825249117, 18.63982948124664, 0.0], [73.81432513266586, 18.639828861637227, 0.0], [73.81427982235786, 18.639818336115365, 0.0], [73.81427672378256, 18.639817509150078, 0.0], [73.81423992852109, 18.639806391940326, 0.0], [73.81411978538677, 18.639805634218902, 0.0], [73.81411821749879, 18.640031536421127, 0.0], [73.81398427744, 18.640030691584606, 0.0], [73.81398175890345, 18.640033776293553, 0.0], [73.81397136111272, 18.640044972048923, 0.0], [73.81396067548349, 18.6400620556519, 0.0], [73.81395302849144, 18.64007303086639, 0.0], [73.81394429981744, 18.64008324647133, 0.0], [73.81393457193668, 18.64009260594162, 0.0], [73.81392393676578, 18.640101020841588, 0.0], [73.8139124947941, 18.64010841166059, 0.0], [73.81390035413442, 18.640114708564315, 0.0], [73.81388762950127, 18.64011985205461, 0.0], [73.81388060559927, 18.640121951217886, 0.0], [73.81387444112708, 18.64012379353171, 0.0], [73.81386091362613, 18.64012649575342, 0.0], [73.813847174817, 18.640127933187006, 0.0], [73.81383335451491, 18.640128092250475, 0.0], [73.8138195833051, 18.64012697144086, 0.0], [73.81380599130895, 18.64012458134851, 0.0], [73.81379270695447, 18.640120944556934, 0.0], [73.81377985576276, 18.640116095429427, 0.0], [73.81376755916209, 18.640110079784442, 0.0], [73.8137559333404, 18.64010295446256, 0.0], [73.81364662272864, 18.64002856137987, 0.0], [73.81364426979825, 18.640028546533514, 0.0], [73.81364270126151, 18.640254448691362, 0.0], [73.81387967541369, 18.64025594380384, 0.0], [73.81411664958833, 18.6402574386178, 0.0]]], [[[73.81121793840217, 18.64814604637324, 0.0], [73.81121636592307, 18.64837194813692, 0.0], [73.81121479342146, 18.64859784989504, 0.0], [73.81145177893771, 18.648599348712587, 0.0], [73.81145335112605, 18.648373446935004, 0.0], [73.81145492329183, 18.648147545151872, 0.0], [73.81169190820403, 18.64814904363185, 0.0], [73.81192889313874, 18.648150541813166, 0.0], [73.81193046465543, 18.647924639985586, 0.0], [73.81169348003401, 18.647923141823714, 0.0], [73.8114564954351, 18.647921643363187, 0.0], [73.81121951085873, 18.647920144604015, 0.0], [73.81121793840217, 18.64814604637324, 0.0]]]]}, "properties": {"site_id": "EMU_Seasonal_wetland_polygon", "name": "EMU_Seasonal_wetland_polygon", "n_member_parcels": 13}}]}