{"type": "FeatureCollection", "features": [{"type": "Feature", "geometry": {"type": "Polygon", "coordinates": [[[73.81218473105093, 18.64544121716516, 0.0], [73.81218349284379, 18.64561927041715, 0.0], [73.81218463160653, 18.645619328024893, 0.0], [73.81242036974798, 18.645635806804393, 0.0], [73.8124234703269, 18.64563602354187, 0.0], [73.81242602426467, 18.645636268500475, 0.0], [73.81244371098445, 18.64563842748386, 0.0], [73.8124468897408, 18.645638920661497, 0.0], [73.81246438182534, 18.645642219598603, 0.0], [73.81246751810976, 18.64564291741239, 0.0], [73.81248473479833, 18.645647341072156, 0.0], [73.81248781413078, 18.645648240300343, 0.0], [73.81250467593382, 18.645653768258803, 0.0], [73.81250768409637, 18.645654864749485, 0.0], [73.81252411316328, 18.645661471484015, 0.0], [73.81252703626816, 18.64566276017504, 0.0], [73.8125408011597, 18.64566937871706, 0.0], [73.81265712318525, 18.645670113514953, 0.0], [73.8126580640668, 18.645534762054805, 0.0], [73.8126451960074, 18.645520554376997, 0.0], [73.81254867582699, 18.6454435166041, 0.0], [73.81242171227147, 18.645442714515884, 0.0], [73.81242274049843, 18.645294825224404, 0.0], [73.8124144283021, 18.64523003707419, 0.0], [73.8123866583461, 18.645216581195168, 0.0], [73.81218630198418, 18.645215315251527, 0.0], [73.81218473105093, 18.64544121716516, 0.0]]]}, "properties": {"site_id": "SEG71", "name": "SEG71", "n_member_parcels": 3}}]}