{"type": "FeatureCollection", "features": [{"type": "Feature", "geometry": {"type": "Polygon", "coordinates": [[[73.81072026754741, 18.646335604345076, 0.0], [73.8106961840973, 18.646357755421295, 0.0], [73.8106166612235, 18.6463411934082, 0.0], [73.81057628912077, 18.646365522449667, 0.0], [73.81057806344516, 18.646366622188076, 0.0], [73.81058532792471, 18.64637216153626, 0.0], [73.81059198784119, 18.64637835296118, 0.0], [73.81059797905594, 18.646385136836106, 0.0], [73.81060324387028, 18.646392447828667, 0.0], [73.81060773158107, 18.64640021553006, 0.0], [73.81061139896916, 18.646408365133162, 0.0], [73.81061421071547, 18.646416818152844, 0.0], [73.81061613974124, 18.646425493181965, 0.0], [73.81061716746876, 18.646434306675243, 0.0], [73.81061728400032, 18.646443173753966, 0.0], [73.81061648821348, 18.646452009023264, 0.0], [73.81061478777202, 18.646460727394693, 0.0], [73.81061219905196, 18.64646924490551, 0.0], [73.81060874698397, 18.64647747952739, 0.0], [73.81060446481324, 18.646485351956375, 0.0], [73.81059939377938, 18.646492786376616, 0.0], [73.81059358271916, 18.646499711190515, 0.0], [73.81058708759622, 18.64650605970826, 0.0], [73.81057997096218, 18.646511770790084, 0.0], [73.81057230135411, 18.646516789435093, 0.0], [73.81056415263464, 18.646521067310932, 0.0], [73.8105556032804, 18.646524563219256, 0.0], [73.8105526685223, 18.646525450258185, 0.0], [73.81056501472547, 18.646560533686472, 0.0], [73.8105946380198, 18.646644712280196, 0.0], [73.8106568475855, 18.646728319965998, 0.0], [73.81064104290631, 18.646786926486477, 0.0], [73.8106128286678, 18.646891549711498, 0.0], [73.8106119853057, 18.647012654318512, 0.0], [73.81075183388074, 18.64701353921301, 0.0], [73.81075118404198, 18.647106864700273, 0.0], [73.8108417792006, 18.647222934712996, 0.0], [73.81084858490094, 18.647240063057524, 0.0], [73.81098724447924, 18.647240940263593, 0.0], [73.81098881715894, 18.647015038491627, 0.0], [73.81098931959798, 18.646942866807297, 0.0], [73.81090989721493, 18.64694020078148, 0.0], [73.81090040288548, 18.646939425240735, 0.0], [73.81089103820645, 18.646937744996254, 0.0], [73.81088189780712, 18.646935177026787, 0.0], [73.81087307405036, 18.646931747281428, 0.0], [73.81086465609947, 18.646927490417458, 0.0], [73.81085672901699, 18.64692244945012, 0.0], [73.81084937290534, 18.64691667531791, 0.0], [73.81084266209729, 18.646910226367932, 0.0], [73.81083666440483, 18.6469031677662, 0.0], [73.810831440434, 18.646895570839238, 0.0], [73.81082704297235, 18.646887512353242, 0.0], [73.81082351645574, 18.646879073738447, 0.0], [73.81082089651913, 18.64687034026622, 0.0], [73.81081920963656, 18.646861400187383, 0.0], [73.81081847285365, 18.646852343840564, 0.0], [73.81081869361539, 18.646843262739175, 0.0], [73.81082295357547, 18.646788077469292, 0.0], [73.8107534068512, 18.646787637454956, 0.0], [73.8107549797991, 18.64656173569135, 0.0], [73.81075655272448, 18.64633583392219, 0.0], [73.81072026754741, 18.646335604345076, 0.0]]]}, "properties": {"site_id": "SEG46", "name": "SEG46", "n_member_parcels": 5}}]}