{"type": "FeatureCollection", "features": [{"type": "Feature", "geometry": {"type": "Polygon", "coordinates": [[[73.81029989569794, 18.643847915187163, 0.0], [73.81029832239408, 18.644073816978434, 0.0], [73.81053530155505, 18.644075316601185, 0.0], [73.8105368745457, 18.643849414790445, 0.0], [73.81053710700436, 18.643816030443823, 0.0], [73.8104292988899, 18.64368057982129, 0.0], [73.81034953997862, 18.643622317604454, 0.0], [73.81030146897926, 18.643622013390335, 0.0], [73.81029989569794, 18.643847915187163, 0.0]]]}, "properties": {"site_id": "SEG79", "name": "SEG79", "n_member_parcels": 2}}]}