{"type": "FeatureCollection", "features": [{"type": "Feature", "geometry": {"type": "Polygon", "coordinates": [[[73.80801680768884, 18.645188922007446, 0.0], [73.80815763000784, 18.64518981493335, 0.0], [73.80815605374956, 18.6454157165159, 0.0], [73.80815514323645, 18.645546205297403, 0.0], [73.80839226733116, 18.645527198938623, 0.0], [73.8083930345868, 18.645417218942953, 0.0], [73.80863001544664, 18.645418721071398, 0.0], [73.80886699632904, 18.64542022290123, 0.0], [73.8090498874368, 18.645421381741208, 0.0], [73.80910404331799, 18.645412246129542, 0.0], [73.80928826664274, 18.645381169180688, 0.0], [73.80930141743109, 18.645422975202255, 0.0], [73.80934095816156, 18.645423225665088, 0.0], [73.80940189158345, 18.645423611619346, 0.0], [73.80947149161807, 18.645342475962103, 0.0], [73.80951425756552, 18.645291391047422, 0.0], [73.80955339263878, 18.64523892775736, 0.0], [73.80957950908338, 18.64519945727033, 0.0], [73.80957951349053, 18.645198824899566, 0.0], [73.80958108784684, 18.644972923194487, 0.0], [73.80958266218057, 18.644747021483855, 0.0], [73.80958379452822, 18.644584538509722, 0.0], [73.80957456402541, 18.644523652240842, 0.0], [73.80957403829471, 18.644521055185898, 0.0], [73.80956200003669, 18.644461587423766, 0.0], [73.80954597605002, 18.644400413115843, 0.0], [73.80952650762691, 18.64434015362083, 0.0], [73.80950896167451, 18.644294731378316, 0.0], [73.80934883139639, 18.644293717209354, 0.0], [73.80935002180105, 18.644122932557615, 0.0], [73.8092465871173, 18.64406715791008, 0.0], [73.80911342692747, 18.644066314385874, 0.0], [73.80911393648842, 18.64399322255588, 0.0], [73.80910068854779, 18.64398569461711, 0.0], [73.80909814965487, 18.64398414555024, 0.0], [73.80900622183346, 18.643924045228367, 0.0], [73.80900379137573, 18.64392234544665, 0.0], [73.80891605729437, 18.64385679618055, 0.0], [73.80891374510286, 18.64385495255962, 0.0], [73.80889500635503, 18.643839018905858, 0.0], [73.80887802308496, 18.643838911297255, 0.0], [73.80887711793069, 18.6439687225456, 0.0], [73.80889440964172, 18.643963660087028, 0.0], [73.80891564183649, 18.644065061310975, 0.0], [73.80896300793445, 18.644291273075147, 0.0], [73.80901037414019, 18.644517484829088, 0.0], [73.80911027711993, 18.64451811775694, 0.0], [73.8091087021823, 18.644744019434146, 0.0], [73.80887172221702, 18.644742517961404, 0.0], [73.8086347422743, 18.64474101619006, 0.0], [73.80839776235418, 18.64473951412013, 0.0], [73.80816078245662, 18.644738011751592, 0.0], [73.8079735721699, 18.644736824693535, 0.0], [73.8079280825172, 18.6447378272365, 0.0], [73.80797231793122, 18.644962728315097, 0.0], [73.80801680768884, 18.645188922007446, 0.0]]]}, "properties": {"site_id": "SEG07", "name": "SEG07", "n_member_parcels": 29}}]}