{"type": "FeatureCollection", "features": [{"type": "Feature", "geometry": {"type": "Polygon", "coordinates": [[[73.81412135325229, 18.639579732011132, 0.0], [73.81435832651, 18.63958122646835, 0.0], [73.81435925212266, 18.639447833576096, 0.0], [73.81435692974036, 18.639447521561987, 0.0], [73.81430714292863, 18.639444182821123, 0.0], [73.81425723308455, 18.63944416139861, 0.0], [73.8142074431407, 18.63944745739862, 0.0], [73.81415801544618, 18.63945405477796, 0.0], [73.81412217523372, 18.639461297456528, 0.0], [73.81412135325229, 18.639579732011132, 0.0]]]}, "properties": {"site_id": "SEG137", "name": "SEG137", "n_member_parcels": 1}}]}