{"type": "FeatureCollection", "features": [{"type": "Feature", "geometry": {"type": "Polygon", "coordinates": [[[73.81354060599946, 18.640027892413723, 0.0], [73.81350456520681, 18.64009474499238, 0.0], [73.81350404010955, 18.640095611572814, 0.0], [73.81350356473733, 18.640096503856423, 0.0], [73.81346150518421, 18.640166691412702, 0.0], [73.81346017448786, 18.640168778909885, 0.0], [73.81341419719618, 18.640236696987266, 0.0], [73.81341275009609, 18.64023871287644, 0.0], [73.81340576219807, 18.640247904048678, 0.0], [73.81340572713182, 18.64025295328036, 0.0], [73.81340415825947, 18.64047885541324, 0.0], [73.81340258936464, 18.640704757540565, 0.0], [73.81340133361573, 18.64088556805447, 0.0], [73.81340693878396, 18.640887901542165, 0.0], [73.81344071108813, 18.640899493055645, 0.0], [73.8134492581676, 18.640902884688735, 0.0], [73.81345741741157, 18.640907054955626, 0.0], [73.81346511099085, 18.640911964077112, 0.0], [73.81347226551817, 18.640917565226253, 0.0], [73.8134788127481, 18.64092380497499, 0.0], [73.81348469022807, 18.640930623803825, 0.0], [73.81348508816028, 18.64093119021934, 0.0], [73.81363799551643, 18.64093215513161, 0.0], [73.8136395641206, 18.640706252990405, 0.0], [73.8136411327023, 18.64048035084366, 0.0], [73.81387810716761, 18.640481845975554, 0.0], [73.81387967541369, 18.64025594380384, 0.0], [73.81364270126151, 18.640254448691362, 0.0], [73.81364426979825, 18.640028546533514, 0.0], [73.81354060599946, 18.640027892413723, 0.0]]]}, "properties": {"site_id": "SEG48", "name": "SEG48", "n_member_parcels": 5}}]}