{"type": "FeatureCollection", "features": [{"type": "Feature", "geometry": {"type": "Polygon", "coordinates": [[[73.8086410443951, 18.64383740960391, 0.0], [73.80840406572783, 18.643835907611983, 0.0], [73.80816708708313, 18.643834405321474, 0.0], [73.8081655109604, 18.64406030693733, 0.0], [73.80840037574188, 18.644061795846, 0.0], [73.80840249216337, 18.64406148740467, 0.0], [73.80863972274469, 18.64402691392499, 0.0], [73.80871664779752, 18.6440157029637, 0.0], [73.80887711793069, 18.6439687225456, 0.0], [73.80887802308496, 18.643838911297255, 0.0], [73.8086410443951, 18.64383740960391, 0.0]]]}, "properties": {"site_id": "SEG64", "name": "SEG64", "n_member_parcels": 3}}]}