{"type": "FeatureCollection", "features": [{"type": "Feature", "geometry": {"type": "Polygon", "coordinates": [[[73.81336806798912, 18.64567460293792, 0.0], [73.81313108636533, 18.645673106762207, 0.0], [73.81313033137356, 18.645781759386704, 0.0], [73.8131317482752, 18.645784263552382, 0.0], [73.81314042529138, 18.645787240117077, 0.0], [73.81315289719252, 18.645792874005004, 0.0], [73.81316473736679, 18.64579963394019, 0.0], [73.81317583426838, 18.64580745623764, 0.0], [73.81319944469215, 18.64582585399697, 0.0], [73.81321188618084, 18.645836788473012, 0.0], [73.81322513369298, 18.645849905003562, 0.0], [73.81324366570992, 18.645838088376408, 0.0], [73.8132461372444, 18.645836615238814, 0.0], [73.81329340459114, 18.6458103336326, 0.0], [73.81329596644672, 18.645809008102955, 0.0], [73.8133448391694, 18.645785545877313, 0.0], [73.81334748165663, 18.645784372969015, 0.0], [73.81336736183012, 18.645776248239052, 0.0], [73.81336806798912, 18.64567460293792, 0.0]]]}, "properties": {"site_id": "SEG121", "name": "SEG121", "n_member_parcels": 1}}]}