{"type": "FeatureCollection", "features": [{"type": "Feature", "geometry": {"type": "Polygon", "coordinates": [[[73.81096624010513, 18.639118516020993, 0.0], [73.81096511013959, 18.639121184301754, 0.0], [73.81094925594145, 18.63915543732644, 0.0], [73.81094795009247, 18.63915803162737, 0.0], [73.81092984079403, 18.63919125312069, 0.0], [73.81092976613873, 18.639191389507776, 0.0], [73.81092317043888, 18.63920338927349, 0.0], [73.81091785807338, 18.639214556379272, 0.0], [73.81091322035972, 18.63922599336074, 0.0], [73.81090927230315, 18.63923766321378, 0.0], [73.81090605676752, 18.63924941818231, 0.0], [73.81089180558871, 18.639318869795176, 0.0], [73.81088986983637, 18.63933341116603, 0.0], [73.81088247490796, 18.63938896183683, 0.0], [73.81087808363591, 18.6394594918846, 0.0], [73.81087865145082, 18.639530143977233, 0.0], [73.8108809348611, 18.639559266549373, 0.0], [73.81088420002608, 18.63960091039191, 0.0], [73.81090907374231, 18.639785356392718, 0.0], [73.8110391310123, 18.63978617885818, 0.0], [73.81124234921174, 18.63978746380386, 0.0], [73.81124233276338, 18.63978733368958, 0.0], [73.81124147616033, 18.639777779878685, 0.0], [73.81124097766684, 18.63976839634926, 0.0], [73.81124081740485, 18.639758808921595, 0.0], [73.8112410020175, 18.639749415015054, 0.0], [73.8112415388664, 18.639739840037088, 0.0], [73.81124187771394, 18.639735256043785, 0.0], [73.81125781723352, 18.63956164968946, 0.0], [73.81126613429944, 18.639471063614856, 0.0], [73.81127484785122, 18.63937500335935, 0.0], [73.81127681782228, 18.639335857899955, 0.0], [73.81127963740609, 18.639279829663742, 0.0], [73.8112800941149, 18.63921418146071, 0.0], [73.8112746830682, 18.639197948017504, 0.0], [73.81125757922005, 18.639156270157773, 0.0], [73.8112376614309, 18.639115743953642, 0.0], [73.81123415613845, 18.639109676264056, 0.0], [73.81104384675315, 18.639108472976194, 0.0], [73.81097028687783, 18.639108007820322, 0.0], [73.81096624010513, 18.639118516020993, 0.0]]]}, "properties": {"site_id": "SEG41", "name": "SEG41", "n_member_parcels": 6}}]}