{"type": "FeatureCollection", "features": [{"type": "Feature", "geometry": {"type": "Polygon", "coordinates": [[[73.81312009781594, 18.647254420507558, 0.0], [73.81335708163255, 18.647255916819248, 0.0], [73.81335760468629, 18.647180635030743, 0.0], [73.81330529095989, 18.64714554234504, 0.0], [73.81330278245682, 18.647143738189282, 0.0], [73.81325291776011, 18.647105337148805, 0.0], [73.81325235645991, 18.647104898073106, 0.0], [73.81322980901525, 18.647086983141264, 0.0], [73.81320754551368, 18.64707054028079, 0.0], [73.81320105773308, 18.64706622691358, 0.0], [73.8131945851345, 18.647062491702577, 0.0], [73.81318787292247, 18.647059162875184, 0.0], [73.81318094913799, 18.64705625433796, 0.0], [73.81317384270545, 18.647053778241457, 0.0], [73.81316658331292, 18.647051744929765, 0.0], [73.81315920128758, 18.647050162897457, 0.0], [73.81315172746795, 18.647049038753472, 0.0], [73.81314419307695, 18.647048377194047, 0.0], [73.81313662959026, 18.647048180982942, 0.0], [73.81312906860502, 18.647048450939828, 0.0], [73.81312152404135, 18.64704918766202, 0.0], [73.81312009781594, 18.647254420507558, 0.0]]]}, "properties": {"site_id": "SEG117", "name": "SEG117", "n_member_parcels": 1}}]}