{"type": "FeatureCollection", "features": [{"type": "Feature", "geometry": {"type": "Polygon", "coordinates": [[[73.8139162768575, 18.635123187364112, 0.0], [73.81391810177242, 18.635127352021467, 0.0], [73.81391948171937, 18.635131669470518, 0.0], [73.8139204029277, 18.635136096627093, 0.0], [73.81392085620458, 18.6351405893122, 0.0], [73.81392787383429, 18.63528618104391, 0.0], [73.81393876628952, 18.635512161923934, 0.0], [73.81414957098904, 18.635513491322545, 0.0], [73.81434647189896, 18.635514732826216, 0.0], [73.8143865586458, 18.63551209745753, 0.0], [73.8144126749099, 18.635510380526696, 0.0], [73.81462366357482, 18.635493797216874, 0.0], [73.81469385994608, 18.63548827986145, 0.0], [73.81486075879117, 18.63547689262091, 0.0], [73.81486204042254, 18.635292070379478, 0.0], [73.81501416884855, 18.63529302901463, 0.0], [73.81505610296033, 18.63520377797179, 0.0], [73.81509986003341, 18.63517063829102, 0.0], [73.81510057396304, 18.63506766117631, 0.0], [73.81528604537151, 18.635068829658028, 0.0], [73.8153268671225, 18.635052068061032, 0.0], [73.81533765718348, 18.635052399416434, 0.0], [73.81552149204317, 18.63505804476421, 0.0], [73.81553201889571, 18.635070379024803, 0.0], [73.81557450815743, 18.63507064662854, 0.0], [73.81557416776425, 18.63511976462095, 0.0], [73.81560181024611, 18.6351521531442, 0.0], [73.81568328405423, 18.63528727552358, 0.0], [73.81578588231658, 18.635297890060848, 0.0], [73.81580991006342, 18.635298041361512, 0.0], [73.81581147528827, 18.63507213890702, 0.0], [73.81581270004153, 18.634895373053357, 0.0], [73.81557564605016, 18.634906450072368, 0.0], [73.81533859204634, 18.634917526790783, 0.0], [73.81529059871296, 18.634919769317552, 0.0], [73.81510152287714, 18.63493078889131, 0.0], [73.81486444984203, 18.634944605529597, 0.0], [73.81473558380559, 18.634952115727256, 0.0], [73.81462737798579, 18.634958248999403, 0.0], [73.81462663985847, 18.635064674530344, 0.0], [73.81438967283987, 18.635063180759712, 0.0], [73.81415270584374, 18.63506168669065, 0.0], [73.81391573887008, 18.635060192323156, 0.0], [73.8139153134845, 18.635121488677143, 0.0], [73.8139162768575, 18.635123187364112, 0.0]]]}, "properties": {"site_id": "SEG16", "name": "SEG16", "n_member_parcels": 15}}]}