{"type": "FeatureCollection", "features": [{"type": "Feature", "geometry": {"type": "Polygon", "coordinates": [[[73.81039194440825, 18.640488189651016, 0.0], [73.81037966205163, 18.640481877290934, 0.0], [73.81036808788417, 18.640474447694174, 0.0], [73.81035733337151, 18.640465972411945, 0.0], [73.81035065419972, 18.640459559516245, 0.0], [73.81032994778653, 18.640459428497692, 0.0], [73.8103274743092, 18.64046229077229, 0.0], [73.81032343475275, 18.640467688358605, 0.0], [73.81032191958487, 18.64068528952663, 0.0], [73.81032140370682, 18.640759376779556, 0.0], [73.8103338680871, 18.6407873388226, 0.0], [73.8103598718172, 18.640857270874296, 0.0], [73.81037621186894, 18.640911544884617, 0.0], [73.81055732137308, 18.64091269074576, 0.0], [73.81055574867545, 18.64113859262865, 0.0], [73.81055417595528, 18.64136449450599, 0.0], [73.81072094954344, 18.6413655495356, 0.0], [73.81072262108134, 18.64136406355931, 0.0], [73.81074744368253, 18.641343462195085, 0.0], [73.81074995738575, 18.641341515802047, 0.0], [73.8107761978191, 18.641322578395528, 0.0], [73.81077884508422, 18.64132080017952, 0.0], [73.81079152102012, 18.641312889142615, 0.0], [73.81080638084207, 18.64130361514286, 0.0], [73.81080914931003, 18.641302013405724, 0.0], [73.81083785183785, 18.64128666096967, 0.0], [73.81084072858309, 18.641285243189625, 0.0], [73.81087046387889, 18.641271795028874, 0.0], [73.81087483164652, 18.641270068509783, 0.0], [73.81096456635099, 18.64123950285296, 0.0], [73.81096762349756, 18.641238571521296, 0.0], [73.81102913935855, 18.64122199731306, 0.0], [73.81102969892227, 18.64114159047232, 0.0], [73.81126667407948, 18.641143088946354, 0.0], [73.81126783196338, 18.640976671662905, 0.0], [73.81124989359343, 18.64094182005522, 0.0], [73.81123480123968, 18.640916975544144, 0.0], [73.81109703707261, 18.640690192563714, 0.0], [73.8110328430424, 18.64068978662313, 0.0], [73.81079586853402, 18.64068828788949, 0.0], [73.81055889404817, 18.640686788857323, 0.0], [73.81055986854734, 18.640546808410527, 0.0], [73.81040481666808, 18.640493323982795, 0.0], [73.81039194440825, 18.640488189651016, 0.0]]]}, "properties": {"site_id": "SEG25", "name": "SEG25", "n_member_parcels": 10}}]}