{"type": "FeatureCollection", "features": [{"type": "Feature", "geometry": {"type": "Polygon", "coordinates": [[[73.80888837086697, 18.642354824620433, 0.0], [73.80886870511705, 18.6423491355681, 0.0], [73.80885917867127, 18.64234705537841, 0.0], [73.80882489021515, 18.64234272115493, 0.0], [73.8088213347509, 18.642342420189156, 0.0], [73.8087516434279, 18.642341927855995, 0.0], [73.8086513445131, 18.642360453078698, 0.0], [73.80865049689899, 18.64248199955817, 0.0], [73.80864892153812, 18.642707901246332, 0.0], [73.80869226728625, 18.642708175927215, 0.0], [73.80869693271525, 18.64270121334017, 0.0], [73.80869869890358, 18.642698759571598, 0.0], [73.80870939757364, 18.64268489761352, 0.0], [73.8087113293783, 18.64268255999922, 0.0], [73.80872296209294, 18.64266939947157, 0.0], [73.80872505113344, 18.64266718815245, 0.0], [73.80873756742844, 18.642654786147, 0.0], [73.80873774708068, 18.642654609103648, 0.0], [73.80878696692243, 18.642606367851116, 0.0], [73.80883237192792, 18.642556672036868, 0.0], [73.80886754648473, 18.64251300894362, 0.0], [73.80888746719987, 18.642484434814463, 0.0], [73.80888747370969, 18.642483501134524, 0.0], [73.80888837086697, 18.642354824620433, 0.0]]]}, "properties": {"site_id": "SEG73", "name": "SEG73", "n_member_parcels": 2}}]}