{"type": "FeatureCollection", "features": [{"type": "Feature", "geometry": {"type": "Polygon", "coordinates": [[[73.8105321555061, 18.64452712020602, 0.0], [73.81053058244781, 18.644753022000113, 0.0], [73.81052900936699, 18.64497892378866, 0.0], [73.81064141311657, 18.644979635017148, 0.0], [73.810684306432, 18.644888067234596, 0.0], [73.81073771801412, 18.64475433257144, 0.0], [73.8107622395226, 18.6446929342768, 0.0], [73.81076881176891, 18.644575092646264, 0.0], [73.81076913531605, 18.644528619569126, 0.0], [73.81077054674357, 18.644325885899036, 0.0], [73.81075180473259, 18.64430259816181, 0.0], [73.8107132203408, 18.644254655406705, 0.0], [73.8106805252193, 18.644111378767498, 0.0], [73.81065312114207, 18.64407606206161, 0.0], [73.81053530155505, 18.644075316601185, 0.0], [73.81053372854184, 18.644301218406376, 0.0], [73.8105321555061, 18.64452712020602, 0.0]]]}, "properties": {"site_id": "SEG57", "name": "SEG57", "n_member_parcels": 4}}]}