{"type": "FeatureCollection", "features": [{"type": "Feature", "geometry": {"type": "Polygon", "coordinates": [[[73.81483227309285, 18.639584214487257, 0.0], [73.81483132801199, 18.639720466294538, 0.0], [73.81506823831215, 18.639731075148475, 0.0], [73.81506924641796, 18.639585708048948, 0.0], [73.81507081300852, 18.639359805758016, 0.0], [73.81483383999652, 18.639358312215723, 0.0], [73.81483227309285, 18.639584214487257, 0.0]]]}, "properties": {"site_id": "SEG85", "name": "SEG85", "n_member_parcels": 2}}]}