{"type": "FeatureCollection", "features": [{"type": "Feature", "geometry": {"type": "Polygon", "coordinates": [[[73.81009438447892, 18.639328378683924, 0.0], [73.8103313570409, 18.639329878196296, 0.0], [73.81033292987132, 18.63910397628848, 0.0], [73.81017042613345, 18.63910294804329, 0.0], [73.8101581843651, 18.639128362275, 0.0], [73.8101185988213, 18.639224368578294, 0.0], [73.81009462622254, 18.639293664746024, 0.0], [73.81009438447892, 18.639328378683924, 0.0]]]}, "properties": {"site_id": "SEG112", "name": "SEG112", "n_member_parcels": 1}}]}