{"type": "FeatureCollection", "features": [{"type": "Feature", "geometry": {"type": "Polygon", "coordinates": [[[73.80983695495054, 18.642263602663224, 0.0], [73.80973450928475, 18.642262954088757, 0.0], [73.80973354859094, 18.64227316841603, 0.0], [73.80973297180228, 18.642276660540325, 0.0], [73.80973173203233, 18.642282783276087, 0.0], [73.80973090396854, 18.642286229165205, 0.0], [73.80972922418303, 18.642292255813057, 0.0], [73.80972814878751, 18.642295639057156, 0.0], [73.80972603698402, 18.642301540922933, 0.0], [73.80972471937771, 18.642304845410724, 0.0], [73.80972218561428, 18.64231059438433, 0.0], [73.80972063207186, 18.642313804379302, 0.0], [73.80971768841432, 18.642319373084383, 0.0], [73.80971590633388, 18.642322473300307, 0.0], [73.80971256679945, 18.64232783521941, 0.0], [73.80971056466737, 18.64233081089269, 0.0], [73.8097068451606, 18.64233594048959, 0.0], [73.80970463251136, 18.642338777449684, 0.0], [73.80970055074263, 18.642343650299708, 0.0], [73.8096981381129, 18.642346335036734, 0.0], [73.80969371352131, 18.6423509279329, 0.0], [73.80969111240043, 18.64235344766172, 0.0], [73.80968636605927, 18.642357738729633, 0.0], [73.8096835888341, 18.642360081451145, 0.0], [73.80967854333967, 18.64236405026182, 0.0], [73.80967560323556, 18.642366204819577, 0.0], [73.80967028262056, 18.64236983246849, 0.0], [73.80966719363869, 18.64237178860229, 0.0], [73.8096616232384, 18.642375057815837, 0.0], [73.80965840008884, 18.642376806210372, 0.0], [73.80965743477162, 18.642377288599175, 0.0], [73.80965477951752, 18.642381229481284, 0.0], [73.80964612419287, 18.642391662992868, 0.0], [73.80963643774521, 18.642401237541655, 0.0], [73.80962581346037, 18.642409860919326, 0.0], [73.80961435365602, 18.642417450077932, 0.0], [73.80960216869653, 18.64242393192956, 0.0], [73.80959884110658, 18.64242531369174, 0.0], [73.80959840427718, 18.64248800407226, 0.0], [73.8098034002327, 18.642489301989475, 0.0], [73.8098060865162, 18.642488065522688, 0.0], [73.8098357762604, 18.642432794024717, 0.0], [73.80983695495054, 18.642263602663224, 0.0]]]}, "properties": {"site_id": "SEG89", "name": "SEG89", "n_member_parcels": 1}}]}