{"type": "FeatureCollection", "features": [{"type": "Feature", "geometry": {"type": "Polygon", "coordinates": [[[73.80819303101998, 18.640115461544102, 0.0], [73.80822435952864, 18.64022018191654, 0.0], [73.80823530390096, 18.640256765140748, 0.0], [73.80829133844041, 18.640407768098488, 0.0], [73.80837119579402, 18.640398528503038, 0.0], [73.8083993141355, 18.64039373224314, 0.0], [73.8084004759644, 18.640388012760763, 0.0], [73.80840313112046, 18.64037951388162, 0.0], [73.80840664735636, 18.640371304017883, 0.0], [73.80841099080878, 18.64036346223501, 0.0], [73.8084161196478, 18.640356064053577, 0.0], [73.80842198447986, 18.64034918072206, 0.0], [73.80842842830349, 18.64034297533116, 0.0], [73.80842927560947, 18.640221480691366, 0.0], [73.80858459938418, 18.640222464997326, 0.0], [73.80858421213703, 18.640221151945894, 0.0], [73.8085825974943, 18.640212578077463, 0.0], [73.8085818563737, 18.640203895840852, 0.0], [73.80858199566228, 18.640195185919154, 0.0], [73.80858301406548, 18.640186529252787, 0.0], [73.80858490211928, 18.64017800628723, 0.0], [73.80858764227806, 18.6401696962255, 0.0], [73.8085912090777, 18.640161676292056, 0.0], [73.80859556937224, 18.640154021015313, 0.0], [73.80860068264181, 18.640146801534865, 0.0], [73.80860650136931, 18.640140084940533, 0.0], [73.80861297148189, 18.640133933648908, 0.0], [73.80862003285345, 18.640128404823212, 0.0], [73.80862761986346, 18.640123549842194, 0.0], [73.80863566200664, 18.640119413822635, 0.0], [73.8086440845483, 18.640116035200094, 0.0], [73.80865280921873, 18.640113445371725, 0.0], [73.80866175494059, 18.640111668404494, 0.0], [73.80866702924804, 18.640111118196092, 0.0], [73.80866782437856, 18.639997080622056, 0.0], [73.80843085103514, 18.63999557896166, 0.0], [73.80843242643823, 18.639769677226397, 0.0], [73.80819545343053, 18.639768175286992, 0.0], [73.80819387771432, 18.63999407700275, 0.0], [73.80819303101998, 18.640115461544102, 0.0]]]}, "properties": {"site_id": "SEG52", "name": "SEG52", "n_member_parcels": 4}}]}