{"type": "FeatureCollection", "features": [{"type": "Feature", "geometry": {"type": "Polygon", "coordinates": [[[73.81241228807872, 18.646798125997766, 0.0], [73.81241071730116, 18.64702402789199, 0.0], [73.812647700737, 18.647025525080164, 0.0], [73.81264840698627, 18.64692393573997, 0.0], [73.81262890112141, 18.64690055367325, 0.0], [73.81262725924839, 18.646898464359722, 0.0], [73.8125987474239, 18.6468599095294, 0.0], [73.81259723487833, 18.64685773331185, 0.0], [73.81257110659541, 18.646817673149677, 0.0], [73.81256968600275, 18.646815342829363, 0.0], [73.81256043110191, 18.64679906194374, 0.0], [73.81241228807872, 18.646798125997766, 0.0]]]}, "properties": {"site_id": "SEG134", "name": "SEG134", "n_member_parcels": 1}}]}