{"type": "FeatureCollection", "features": [{"type": "Feature", "geometry": {"type": "Polygon", "coordinates": [[[73.81264455974089, 18.647477328890826, 0.0], [73.8126429892091, 18.647703230787833, 0.0], [73.81287997360727, 18.647704727735665, 0.0], [73.81311695802795, 18.647706224384855, 0.0], [73.81311852793318, 18.64748032244898, 0.0], [73.81312009781594, 18.647254420507558, 0.0], [73.81312152404135, 18.64704918766202, 0.0], [73.81312024670179, 18.64704931239345, 0.0], [73.8130413787238, 18.647057754328326, 0.0], [73.81303924645994, 18.647057936188286, 0.0], [73.81295982876311, 18.647062989389735, 0.0], [73.81295721315615, 18.647063086761804, 0.0], [73.8129362285648, 18.647063315149058, 0.0], [73.81293313490785, 18.64706325252859, 0.0], [73.81291217940287, 18.647062175208106, 0.0], [73.81290909662522, 18.647061920298665, 0.0], [73.81288825952178, 18.647059541862145, 0.0], [73.81288520076244, 18.647059095750162, 0.0], [73.81288446217503, 18.647058964378502, 0.0], [73.81286457087128, 18.647055426334834, 0.0], [73.81286154916741, 18.64705479092174, 0.0], [73.81284121441587, 18.647049846167224, 0.0], [73.81283824264625, 18.647049024161227, 0.0], [73.81281828970364, 18.647042825142744, 0.0], [73.8128153805342, 18.64704182004729, 0.0], [73.81279589444273, 18.647034393185887, 0.0], [73.81279306027307, 18.64703320928498, 0.0], [73.81277799313384, 18.647026348100002, 0.0], [73.812647700737, 18.647025525080164, 0.0], [73.81264613025022, 18.647251426988266, 0.0], [73.81264455974089, 18.647477328890826, 0.0]]]}, "properties": {"site_id": "SEG42", "name": "SEG42", "n_member_parcels": 6}}]}