{"type": "FeatureCollection", "features": [{"type": "Feature", "geometry": {"type": "Polygon", "coordinates": [[[73.81241935896288, 18.645781184305843, 0.0], [73.81240995361125, 18.645780036210002, 0.0], [73.81218248542116, 18.645764135543455, 0.0], [73.81217563869357, 18.645763656933635, 0.0], [73.81194554680376, 18.645756451740056, 0.0], [73.81193953810416, 18.64575626357735, 0.0], [73.81193931134003, 18.64575624582821, 0.0], [73.81193908381779, 18.645756247271997, 0.0], [73.81170862107973, 18.645746920044576, 0.0], [73.81147169579769, 18.645737330971812, 0.0], [73.81147064371089, 18.645888527015273, 0.0], [73.81127412992981, 18.64588728435672, 0.0], [73.81126389700333, 18.645915286270696, 0.0], [73.81125512990229, 18.645945700301066, 0.0], [73.81124851992985, 18.64597660587261, 0.0], [73.81124409678571, 18.646007864126958, 0.0], [73.81124364513636, 18.646014276942974, 0.0], [73.81146977215126, 18.646013778285425, 0.0], [73.81170676816627, 18.646013255367375, 0.0], [73.8119437641982, 18.646012732150357, 0.0], [73.81218076024705, 18.64601220863438, 0.0], [73.81241775631278, 18.646011684819424, 0.0], [73.81241857096393, 18.64589451836538, 0.0], [73.81241935896288, 18.645781184305843, 0.0]]]}, "properties": {"site_id": "SEG28", "name": "SEG28", "n_member_parcels": 9}}]}