{"type": "FeatureCollection", "features": [{"type": "Feature", "geometry": {"type": "MultiPolygon", "coordinates": [[[[73.80945978903115, 18.638468425685797, 0.0], [73.8094647831017, 18.638480593843752, 0.0], [73.80946852491998, 18.638493163865903, 0.0], [73.80949205048034, 18.638589690702517, 0.0], [73.80949452729861, 18.63860270479656, 0.0], [73.80949566175238, 18.638615887056226, 0.0], [73.80949544303897, 18.63862911195903, 0.0], [73.80949387324068, 18.638642253576435, 0.0], [73.80949284373888, 18.638646835491183, 0.0], [73.80962516066428, 18.638647673198882, 0.0], [73.80962673436639, 18.63842177133286, 0.0], [73.8094564946005, 18.63842069352841, 0.0], [73.80943344220705, 18.63843104294914, 0.0], [73.80943781288974, 18.638435438225812, 0.0], [73.80944624097535, 18.638445742481746, 0.0], [73.80945358911747, 18.63845677246817, 0.0], [73.80945978903115, 18.638468425685797, 0.0]]], [[[73.8097052746546, 18.638669168378208, 0.0], [73.8097108096751, 18.638669838806205, 0.0], [73.809716286181, 18.6386708561637, 0.0], [73.8097216802706, 18.6386722160105, 0.0], [73.8097269684019, 18.6386739124118, 0.0], [73.8097321274952, 18.6386759379637, 0.0], [73.8097371350343, 18.638678283825797, 0.0], [73.8097419691639, 18.63868093975981, 0.0], [73.809746608786, 18.6386838941742, 0.0], [73.8097510336514, 18.6386871341747, 0.0], [73.809755224448, 18.6386906456204, 0.0], [73.8097591628855, 18.6386944131861, 0.0], [73.8097628317748, 18.63869842042849, 0.0], [73.8097662151034, 18.638702649858292, 0.0], [73.809769298105, 18.638707083016502, 0.0], [73.8097720673241, 18.638711700555007, 0.0], [73.8097745106745, 18.6387164823209, 0.0], [73.8097766174974, 18.6387214074463, 0.0], [73.8097777037512, 18.638724532793603, 0.0], [73.8097785632584, 18.6387277216389, 0.0], [73.8097791919944, 18.638730959051397, 0.0], [73.80977958701551, 18.638734229873204, 0.0], [73.8097797464722, 18.6387375187898, 0.0], [73.8097796696177, 18.638740810402105, 0.0], [73.80977935681202, 18.6387440892982, 0.0], [73.8097788095196, 18.638747340125892, 0.0], [73.809778030303, 18.638750547664298, 0.0], [73.8097770228106, 18.638753696895296, 0.0], [73.8097757917596, 18.638756773073695, 0.0], [73.809774342914, 18.638759761796393, 0.0], [73.8097726830574, 18.6387626490698, 0.0], [73.8097708199616, 18.6387654213753, 0.0], [73.8097687623497, 18.6387680657325, 0.0], [73.8097665198559, 18.6387705697601, 0.0], [73.80976410297981, 18.638772921733995, 0.0], [73.809761523037, 18.6387751106593, 0.0], [73.80975420392862, 18.6387812899523, 0.0], [73.8097473112813, 18.638787899899697, 0.0], [73.8097408729256, 18.638794913812497, 0.0], [73.8097349148527, 18.6388023033396, 0.0], [73.8097257403079, 18.638815298466103, 0.0], [73.8097174321633, 18.638828812837, 0.0], [73.8097100226464, 18.6388427940301, 0.0], [73.8097035404987, 18.6388571878125, 0.0], [73.8096980108649, 18.63887193835059, 0.0], [73.80969737403544, 18.638874042175637, 0.0], [73.80986055883027, 18.638875075129775, 0.0], [73.80986213224182, 18.638649173249824, 0.0], [73.80962516066428, 18.638647673198882, 0.0], [73.80962500287967, 18.638670322692693, 0.0], [73.8096374631713, 18.638669952654098, 0.0], [73.809668570928, 18.6386687194302, 0.0], [73.8096997052768, 18.638668847805704, 0.0], [73.8097052746546, 18.638669168378208, 0.0]]], [[[73.80865852696563, 18.63909337474388, 0.0], [73.80867418608162, 18.639084655762126, 0.0], [73.8087526170463, 18.6390409854372, 0.0], [73.80891206882133, 18.6389555187634, 0.0], [73.80891267140302, 18.638869073057144, 0.0], [73.80872741698342, 18.638867899458315, 0.0], [73.80867547076863, 18.638900393591324, 0.0], [73.80852211449522, 18.63899632302136, 0.0], [73.80851972704374, 18.63899772198308, 0.0], [73.80843749562735, 18.639042769113225, 0.0], [73.80843715251203, 18.639091971987312, 0.0], [73.80865852696563, 18.63909337474388, 0.0]]], [[[73.80819702912416, 18.639542273565684, 0.0], [73.80819545343053, 18.639768175286992, 0.0], [73.80843242643823, 18.639769677226397, 0.0], [73.80843400181875, 18.639543775485585, 0.0], [73.80843557717668, 18.639317873739223, 0.0], [73.80843715251203, 18.639091971987312, 0.0], [73.80834870122983, 18.639091411435967, 0.0], [73.80827096662168, 18.639133995053538, 0.0], [73.80827092399083, 18.639134018379004, 0.0], [73.80819960484965, 18.639172993767925, 0.0], [73.80819860479521, 18.63931637183883, 0.0], [73.80819702912416, 18.639542273565684, 0.0]]], [[[73.8086287411094, 18.6397992994407, 0.0], [73.80861680045221, 18.639790041522005, 0.0], [73.80858847465753, 18.639770666099874, 0.0], [73.80843242643823, 18.639769677226397, 0.0], [73.80843085103514, 18.63999557896166, 0.0], [73.80866782437856, 18.639997080622056, 0.0], [73.80866890000702, 18.639842812733786, 0.0], [73.8086603040747, 18.6398313367845, 0.0], [73.8086505417933, 18.6398199934506, 0.0], [73.8086400050566, 18.6398092983511, 0.0], [73.8086287411094, 18.6397992994407, 0.0]]], [[[73.808910983077, 18.64013934406031, 0.0], [73.8089037818435, 18.64014431129344, 0.0], [73.80890322294515, 18.640224483752643, 0.0], [73.80914019664684, 18.640225984835507, 0.0], [73.80914177113311, 18.640000083047305, 0.0], [73.80906038256089, 18.63999956754037, 0.0], [73.8090015147726, 18.64005946315709, 0.0], [73.8089730383232, 18.6400878068783, 0.0], [73.8089428246034, 18.6401144660415, 0.0], [73.808910983077, 18.64013934406031, 0.0]]], [[[73.8095066973979, 18.640766689194297, 0.0], [73.809498930099, 18.6407570171648, 0.0], [73.809491873045, 18.6407468625537, 0.0], [73.80948555911601, 18.640736272672992, 0.0], [73.8094800177292, 18.640725296862602, 0.0], [73.8094752746993, 18.6407139862616, 0.0], [73.80946769102951, 18.640695621655397, 0.0], [73.8094600400549, 18.64067983392083, 0.0], [73.80937402195713, 18.640679289218593, 0.0], [73.80937250571021, 18.640896869006248, 0.0], [73.80937785169883, 18.64090034734659, 0.0], [73.80938398231348, 18.640905264054624, 0.0], [73.80960942240256, 18.640906691553923, 0.0], [73.80960989988871, 18.64083815953284, 0.0], [73.8095548149773, 18.6408063235175, 0.0], [73.8095440992689, 18.6407996882795, 0.0], [73.8095338833553, 18.640792371648093, 0.0], [73.8095242148343, 18.640784407712687, 0.0], [73.8095151387528, 18.6407758335787, 0.0], [73.8095066973979, 18.640766689194297, 0.0]]], [[[73.809807136931, 18.6409521513502, 0.0], [73.80972979763172, 18.640907453665935, 0.0], [73.80960942240256, 18.640906691553923, 0.0], [73.80960784845233, 18.641132593358904, 0.0], [73.80984482347428, 18.641134093624142, 0.0], [73.80984588974937, 18.640981025974508, 0.0], [73.8098422269857, 18.6409775428037, 0.0], [73.809831138512, 18.640968332751594, 0.0], [73.8098194240696, 18.640959856083104, 0.0], [73.809807136931, 18.6409521513502, 0.0]]], [[[73.8099912330895, 18.6411920046095, 0.0], [73.809981586681, 18.641186731616088, 0.0], [73.8099723319382, 18.6411808552476, 0.0], [73.80996351032812, 18.6411744018336, 0.0], [73.8099551613769, 18.6411674002894, 0.0], [73.80994732249292, 18.6411598819864, 0.0], [73.8099400287992, 18.64115188061109, 0.0], [73.80993331297582, 18.6411434320146, 0.0], [73.80992723354478, 18.641134615284088, 0.0], [73.80984482347428, 18.641134093624142, 0.0], [73.80984324981463, 18.64135999544306, 0.0], [73.8100802251723, 18.641361495429233, 0.0], [73.81031720055252, 18.64136299511688, 0.0], [73.81055417595528, 18.64136449450599, 0.0], [73.81055574867545, 18.64113859262865, 0.0], [73.81055732137308, 18.64091269074576, 0.0], [73.81037621186894, 18.640911544884617, 0.0], [73.81038134278391, 18.640928587378003, 0.0], [73.8103982006818, 18.6410010216519, 0.0], [73.8104003848276, 18.641014318314188, 0.0], [73.8104016607397, 18.6410277219312, 0.0], [73.81040202305711, 18.641041176188, 0.0], [73.81040147025742, 18.641054624556702, 0.0], [73.8104000046629, 18.6410680105343, 0.0], [73.810397632431, 18.6410812778798, 0.0], [73.8103943635285, 18.6410943708506, 0.0], [73.8103902116895, 18.641107234436898, 0.0], [73.8103851943575, 18.641119814592486, 0.0], [73.8103793326127, 18.64113205846199, 0.0], [73.81037629015297, 18.641137457200635, 0.0], [73.8103726510829, 18.64114391460299, 0.0], [73.8103651778403, 18.641155333202097, 0.0], [73.8103569442836, 18.64116626628399, 0.0], [73.8103479850041, 18.6411766678835, 0.0], [73.8103388343222, 18.6411859687853, 0.0], [73.8103290515087, 18.64119466537679, 0.0], [73.8103186803826, 18.6412027187046, 0.0], [73.81031831489565, 18.64120296566708, 0.0], [73.8103077673977, 18.6412100926962, 0.0], [73.8102963614352, 18.641216754322407, 0.0], [73.8102845135845, 18.641222673744405, 0.0], [73.8102722769141, 18.6412278244483, 0.0], [73.8102597062342, 18.641232183363, 0.0], [73.810246857851, 18.64123573096429, 0.0], [73.8102337893149, 18.6412384513618, 0.0], [73.810220559162, 18.641240332370394, 0.0], [73.8102072266526, 18.641241365564593, 0.0], [73.8101938515055, 18.6412415463168, 0.0], [73.8101804936315, 18.6412408738318, 0.0], [73.8101435595293, 18.641236641583493, 0.0], [73.8101070041403, 18.6412300686834, 0.0], [73.81008118488847, 18.641223699309272, 0.0], [73.8100709905132, 18.6412211844487, 0.0], [73.8100356792802, 18.641210028506098, 0.0], [73.8100012279419, 18.6411966506014, 0.0], [73.8099912330895, 18.6411920046095, 0.0]]], [[[73.80933746230748, 18.642543788713528, 0.0], [73.809323750365, 18.642541322892125, 0.0], [73.809310357992, 18.642537587750553, 0.0], [73.8092974141646, 18.64253261926035, 0.0], [73.80928504353919, 18.642526465270898, 0.0], [73.80927336525177, 18.642519185048624, 0.0], [73.8092624917708, 18.642510848706195, 0.0], [73.80925937969768, 18.64250794020508, 0.0], [73.80925000431061, 18.642507720778006, 0.0], [73.8092434921777, 18.642507354323342, 0.0], [73.80921729719337, 18.64250501577828, 0.0], [73.80921082692063, 18.642504223234692, 0.0], [73.80918486269131, 18.642500172798677, 0.0], [73.809178464922, 18.642498957919656, 0.0], [73.80915285441371, 18.64249321477556, 0.0], [73.80914655944736, 18.64249158331473, 0.0], [73.80912445009542, 18.642485066614096, 0.0], [73.8091242274829, 18.642485000999347, 0.0], [73.80905274587705, 18.64248454818584, 0.0], [73.80902131535147, 18.642537093410244, 0.0], [73.80901961632496, 18.64253972097232, 0.0], [73.8089841534677, 18.642590588692705, 0.0], [73.80898227020869, 18.64259309954055, 0.0], [73.80894324673912, 18.64264154042766, 0.0], [73.80894139672276, 18.642643695969713, 0.0], [73.8088924649833, 18.642697251846307, 0.0], [73.80889070060711, 18.642699079037964, 0.0], [73.80888593809728, 18.642703746865326, 0.0], [73.808885898662, 18.64270940284219, 0.0], [73.80888432359174, 18.642935304544302, 0.0], [73.8088827484989, 18.643161206240865, 0.0], [73.80878712493868, 18.6431606003479, 0.0], [73.80878685940276, 18.643162503454672, 0.0], [73.80878163806241, 18.643192647329304, 0.0], [73.80878106104424, 18.643195431470986, 0.0], [73.80877386473084, 18.643225203397147, 0.0], [73.80877310548753, 18.64322794751357, 0.0], [73.80876396259256, 18.643257230027945, 0.0], [73.80876302411963, 18.643259923292174, 0.0], [73.80875197071475, 18.643288600862714, 0.0], [73.8087508237978, 18.643291303715277, 0.0], [73.80872583777612, 18.643345122320426, 0.0], [73.8087193129216, 18.64335918671467, 0.0], [73.80871432765345, 18.643372222330544, 0.0], [73.808710266281, 18.643385546082943, 0.0], [73.80871015621453, 18.643386024280666, 0.0], [73.80870714691979, 18.6433990985424, 0.0], [73.80870498348371, 18.64341281925942, 0.0], [73.80870378562278, 18.6434266470339, 0.0], [73.80870355868026, 18.64344052018862, 0.0], [73.80870430366853, 18.643454376843557, 0.0], [73.80870601726495, 18.64346815519221, 0.0], [73.80870869452772, 18.64348180755275, 0.0], [73.808709098411, 18.643483309198935, 0.0], [73.80870960920647, 18.643484795727527, 0.0], [73.80871022106491, 18.643486247163686, 0.0], [73.80871093135752, 18.643487657271407, 0.0], [73.80871173703235, 18.64348901999194, 0.0], [73.80871266661957, 18.643490376142303, 0.0], [73.80873125561101, 18.64351408343441, 0.0], [73.80875135512551, 18.643536716011425, 0.0], [73.80877285630028, 18.643558146064272, 0.0], [73.8087956801248, 18.64357829484298, 0.0], [73.80882077578136, 18.643597895145096, 0.0], [73.80883997397571, 18.643612758548862, 0.0], [73.80887959824551, 18.643613009617344, 0.0], [73.8088793844875, 18.643643665918084, 0.0], [73.80892642105808, 18.64368412946915, 0.0], [73.80900612938707, 18.64375190586991, 0.0], [73.80908911720489, 18.643813909004397, 0.0], [73.80911506828713, 18.643830875233913, 0.0], [73.80912979991686, 18.643840506436607, 0.0], [73.80935198053237, 18.643841913788208, 0.0], [73.80958895928994, 18.64384341458582, 0.0], [73.80959053351087, 18.643617512847435, 0.0], [73.80948247223651, 18.643616828535333, 0.0], [73.8094612226043, 18.6437065691584, 0.0], [73.809381039739, 18.643784895681, 0.0], [73.80935230597453, 18.64379522218583, 0.0], [73.809301202763, 18.6438135879364, 0.0], [73.8092897858583, 18.64369380417959, 0.0], [73.8093115308848, 18.643650145081097, 0.0], [73.80928320391743, 18.64361556647987, 0.0], [73.80911657664474, 18.643614510992617, 0.0], [73.80911815146952, 18.643388609287655, 0.0], [73.80911972627173, 18.64316270757715, 0.0], [73.80922555701112, 18.64316337795506, 0.0], [73.8092328439467, 18.6430744479157, 0.0], [73.8093132910703, 18.6429581658356, 0.0], [73.80931494079267, 18.642938032399865, 0.0], [73.8093266818822, 18.6427947423598, 0.0], [73.80932485190122, 18.64271218346237, 0.0], [73.8093243516559, 18.642689615089797, 0.0], [73.80936059339797, 18.6426061682315, 0.0], [73.80936090448722, 18.6425615323551, 0.0], [73.80935903788563, 18.6425448890653, 0.0], [73.80935136176566, 18.642544961467465, 0.0], [73.80933746230748, 18.642543788713528, 0.0]]], [[[73.80982908586297, 18.643393111563558, 0.0], [73.80959210770925, 18.643391611103496, 0.0], [73.80959053351087, 18.643617512847435, 0.0], [73.80982751197779, 18.643619013326976, 0.0], [73.81006449046724, 18.643620513507944, 0.0], [73.81030146897926, 18.643622013390335, 0.0], [73.81030171018732, 18.64358737890777, 0.0], [73.8101672178081, 18.64348913480279, 0.0], [73.81006571540583, 18.64344466176964, 0.0], [73.8099778923953, 18.643406182267405, 0.0], [73.80995134777135, 18.643393885564983, 0.0], [73.80982908586297, 18.643393111563558, 0.0]]], [[[73.80985346627847, 18.647685587886052, 0.0], [73.80993491370477, 18.64791201523964, 0.0], [73.8100345883149, 18.64791264632839, 0.0], [73.81003301429189, 18.648138548000272, 0.0], [73.81003287561727, 18.648158450240732, 0.0], [73.81012691606986, 18.64836505413532, 0.0], [73.81026842533659, 18.64836594995798, 0.0], [73.81026685158176, 18.648591851638244, 0.0], [73.81026629829398, 18.64867127152459, 0.0], [73.81026733842423, 18.64867355664655, 0.0], [73.81035264123362, 18.648818306325758, 0.0], [73.81050226354381, 18.648819253344612, 0.0], [73.81050383700789, 18.648593351650437, 0.0], [73.81074082245654, 18.648594851363963, 0.0], [73.81074239558475, 18.648368949644766, 0.0], [73.81074396869043, 18.648143047920016, 0.0], [73.81074554177358, 18.647917146189716, 0.0], [73.81063372562147, 18.647916438646245, 0.0], [73.8106062269365, 18.648059424135695, 0.0], [73.8106096882376, 18.648142198210373, 0.0], [73.8106114783977, 18.6481850083595, 0.0], [73.81056672636531, 18.64836783799996, 0.0], [73.8105247777403, 18.64853921420399, 0.0], [73.81050413840522, 18.64855007976741, 0.0], [73.8104617541742, 18.648572392904203, 0.0], [73.8104355900769, 18.648367008055047, 0.0], [73.81042626791742, 18.64829383019209, 0.0], [73.81042081322431, 18.648197442601607, 0.0], [73.81036419301265, 18.648140644499765, 0.0], [73.81026999906886, 18.64814004827218, 0.0], [73.81027157277857, 18.647914146580817, 0.0], [73.81027314646575, 18.647688244883906, 0.0], [73.81034246406566, 18.647688683643892, 0.0], [73.8103448181842, 18.6476743191266, 0.0], [73.8104645965124, 18.64762836060409, 0.0], [73.810477417487, 18.647546687613794, 0.0], [73.81036779906096, 18.6474629323309, 0.0], [73.81027472013038, 18.647462343181445, 0.0], [73.81027513857822, 18.64740227387747, 0.0], [73.8102183122092, 18.647366940389798, 0.0], [73.8101083736075, 18.64731952781821, 0.0], [73.81003864844806, 18.647329926495306, 0.0], [73.809958129269, 18.647341934937796, 0.0], [73.80996466174909, 18.647234468664738, 0.0], [73.8099650484562, 18.6472281069133, 0.0], [73.81003948271112, 18.647210188431227, 0.0], [73.81027687473797, 18.64715304106592, 0.0], [73.8102841379459, 18.64715129258899, 0.0], [73.81051412486079, 18.647116248240742, 0.0], [73.8105148506251, 18.647012039635758, 0.0], [73.81051581864342, 18.64687304600144, 0.0], [73.8105008581421, 18.6468198080912, 0.0], [73.8104853393712, 18.64678594118127, 0.0], [73.8104356121309, 18.646677420382996, 0.0], [73.81043044528225, 18.646559682081534, 0.0], [73.81028101456342, 18.646558736316088, 0.0], [73.81027944098896, 18.646784638040753, 0.0], [73.81004245809169, 18.64678313788571, 0.0], [73.81004088418142, 18.647009039585352, 0.0], [73.80980712014059, 18.647007559496412, 0.0], [73.8098038739884, 18.647011414313997, 0.0], [73.80980232674735, 18.647233440786792, 0.0], [73.80980075247872, 18.647459342455853, 0.0], [73.80980030165045, 18.64752403402903, 0.0], [73.80980748563958, 18.647557759471443, 0.0], [73.80985346627847, 18.647685587886052, 0.0]]], [[[73.81009438447892, 18.639328378683924, 0.0], [73.8103313570409, 18.639329878196296, 0.0], [73.81033292987132, 18.63910397628848, 0.0], [73.81017042613345, 18.63910294804329, 0.0], [73.8101581843651, 18.639128362275, 0.0], [73.8101185988213, 18.639224368578294, 0.0], [73.81009462622254, 18.639293664746024, 0.0], [73.81009438447892, 18.639328378683924, 0.0]]], [[[73.8101357751632, 18.6398318345039, 0.0], [73.8101415363345, 18.6398350250141, 0.0], [73.8101470619053, 18.639838574077505, 0.0], [73.8101523273576, 18.6398424659464, 0.0], [73.8101573093277, 18.639846683351696, 0.0], [73.8101619857096, 18.6398512075802, 0.0], [73.8101663357534, 18.639856018557, 0.0], [73.810170340157, 18.639861094934894, 0.0], [73.8101739811523, 18.639866414189196, 0.0], [73.8101772425835, 18.6398719527173, 0.0], [73.8101801099788, 18.639877685943805, 0.0], [73.810182570616, 18.6398835884272, 0.0], [73.8101999970959, 18.6399256624176, 0.0], [73.8102201326575, 18.639966622745895, 0.0], [73.8102428994654, 18.6400063110375, 0.0], [73.81024339498966, 18.640007057155206, 0.0], [73.81032663841432, 18.640007583886433, 0.0], [73.8103282113124, 18.63978168199527, 0.0], [73.81009123812417, 18.639780182443946, 0.0], [73.81009104278147, 18.639808232434497, 0.0], [73.8100967578486, 18.639811965697596, 0.0], [73.8101129688165, 18.6398210408327, 0.0], [73.81012980395481, 18.6398290167038, 0.0], [73.8101357751632, 18.6398318345039, 0.0]]], [[[73.8104412166403, 18.6401918650726, 0.0], [73.81044907237636, 18.640195763093715, 0.0], [73.81045256634052, 18.64018899494114, 0.0], [73.81045992497842, 18.64017769332167, 0.0], [73.81046841022685, 18.640167133695552, 0.0], [73.81047794036816, 18.64015741775761, 0.0], [73.81048842362186, 18.640148639077484, 0.0], [73.81049975902859, 18.640140882198512, 0.0], [73.81051183742225, 18.640134221823555, 0.0], [73.81052454248155, 18.64012872209553, 0.0], [73.81053775184998, 18.64012443597975, 0.0], [73.8105513383144, 18.64012140475375, 0.0], [73.81056284013174, 18.6401199520145, 0.0], [73.8105636119382, 18.64000908315872, 0.0], [73.81032663841432, 18.640007583886433, 0.0], [73.81032593668608, 18.64010836606414, 0.0], [73.8103291742496, 18.640111601376404, 0.0], [73.8103550440192, 18.6401342624043, 0.0], [73.8103824210203, 18.6401552526708, 0.0], [73.8104111867367, 18.640174481307508, 0.0], [73.8104412166403, 18.6401918650726, 0.0]]], [[[73.81034953997862, 18.643622317604454, 0.0], [73.81030146897926, 18.643622013390335, 0.0], [73.81029989569794, 18.643847915187163, 0.0], [73.81029832239408, 18.644073816978434, 0.0], [73.81053530155505, 18.644075316601185, 0.0], [73.8105368745457, 18.643849414790445, 0.0], [73.81053710700436, 18.643816030443823, 0.0], [73.8104292988899, 18.64368057982129, 0.0], [73.81034953997862, 18.643622317604454, 0.0]]], [[[73.81065312114207, 18.64407606206161, 0.0], [73.81053530155505, 18.644075316601185, 0.0], [73.81053372854184, 18.644301218406376, 0.0], [73.8105321555061, 18.64452712020602, 0.0], [73.81053058244781, 18.644753022000113, 0.0], [73.81052900936699, 18.64497892378866, 0.0], [73.81064141311657, 18.644979635017148, 0.0], [73.810684306432, 18.644888067234596, 0.0], [73.81073771801412, 18.64475433257144, 0.0], [73.8107622395226, 18.6446929342768, 0.0], [73.81076881176891, 18.644575092646264, 0.0], [73.81076913531605, 18.644528619569126, 0.0], [73.81077054674357, 18.644325885899036, 0.0], [73.81075180473259, 18.64430259816181, 0.0], [73.8107132203408, 18.644254655406705, 0.0], [73.8106805252193, 18.644111378767498, 0.0], [73.81065312114207, 18.64407606206161, 0.0]]], [[[73.8104606058534, 18.645562583418304, 0.0], [73.81052538293645, 18.645499683875634, 0.0], [73.8105258631377, 18.645430727349087, 0.0], [73.81052743626361, 18.645204825571643, 0.0], [73.81052900936699, 18.64497892378866, 0.0], [73.81029202895313, 18.644977424088015, 0.0], [73.81029045553652, 18.64520332585153, 0.0], [73.81028888209735, 18.6454292276095, 0.0], [73.81028730863567, 18.645655129361916, 0.0], [73.81028573515142, 18.64588103110879, 0.0], [73.81028416164463, 18.646106932850103, 0.0], [73.8102825881153, 18.646332834585873, 0.0], [73.81042212849238, 18.6463337177475, 0.0], [73.8104216579912, 18.64631710286369, 0.0], [73.8104811945861, 18.646124773453497, 0.0], [73.81050488177586, 18.64610832974059, 0.0], [73.81052122334475, 18.646096985374374, 0.0], [73.8106812569034, 18.645985889436798, 0.0], [73.8107063290632, 18.64590429392649, 0.0], [73.81075961651281, 18.645895806783418, 0.0], [73.8107596985076, 18.64588403036723, 0.0], [73.81052271681824, 18.64588253088732, 0.0], [73.81052367498899, 18.645744941356927, 0.0], [73.8105221338512, 18.645743999814094, 0.0], [73.8103830176588, 18.645708081954105, 0.0], [73.81038094169885, 18.645655721963372, 0.0], [73.810380412329, 18.645642370162694, 0.0], [73.8104160317337, 18.645585659668384, 0.0], [73.8104606058534, 18.645562583418304, 0.0]]], [[[73.81058532792471, 18.64637216153626, 0.0], [73.81059198784119, 18.64637835296118, 0.0], [73.81059797905594, 18.646385136836106, 0.0], [73.81060324387028, 18.646392447828667, 0.0], [73.81060773158107, 18.64640021553006, 0.0], [73.81061139896916, 18.646408365133162, 0.0], [73.81061421071547, 18.646416818152844, 0.0], [73.81061613974124, 18.646425493181965, 0.0], [73.81061716746876, 18.646434306675243, 0.0], [73.81061728400032, 18.646443173753966, 0.0], [73.81061648821348, 18.646452009023264, 0.0], [73.81061478777202, 18.646460727394693, 0.0], [73.81061219905196, 18.64646924490551, 0.0], [73.81060874698397, 18.64647747952739, 0.0], [73.81060446481324, 18.646485351956375, 0.0], [73.81059939377938, 18.646492786376616, 0.0], [73.81059358271916, 18.646499711190515, 0.0], [73.81058708759622, 18.64650605970826, 0.0], [73.81057997096218, 18.646511770790084, 0.0], [73.81057230135411, 18.646516789435093, 0.0], [73.81056415263464, 18.646521067310932, 0.0], [73.8105556032804, 18.646524563219256, 0.0], [73.8105526685223, 18.646525450258185, 0.0], [73.81056501472547, 18.646560533686472, 0.0], [73.8105946380198, 18.646644712280196, 0.0], [73.8106568475855, 18.646728319965998, 0.0], [73.81064104290631, 18.646786926486477, 0.0], [73.8106128286678, 18.646891549711498, 0.0], [73.8106119853057, 18.647012654318512, 0.0], [73.81075183388074, 18.64701353921301, 0.0], [73.81075118404198, 18.647106864700273, 0.0], [73.8108417792006, 18.647222934712996, 0.0], [73.81084858490094, 18.647240063057524, 0.0], [73.81098724447924, 18.647240940263593, 0.0], [73.81098881715894, 18.647015038491627, 0.0], [73.81098931959798, 18.646942866807297, 0.0], [73.81090989721493, 18.64694020078148, 0.0], [73.81090040288548, 18.646939425240735, 0.0], [73.81089103820645, 18.646937744996254, 0.0], [73.81088189780712, 18.646935177026787, 0.0], [73.81087307405036, 18.646931747281428, 0.0], [73.81086465609947, 18.646927490417458, 0.0], [73.81085672901699, 18.64692244945012, 0.0], [73.81084937290534, 18.64691667531791, 0.0], [73.81084266209729, 18.646910226367932, 0.0], [73.81083666440483, 18.6469031677662, 0.0], [73.810831440434, 18.646895570839238, 0.0], [73.81082704297235, 18.646887512353242, 0.0], [73.81082351645574, 18.646879073738447, 0.0], [73.81082089651913, 18.64687034026622, 0.0], [73.81081920963656, 18.646861400187383, 0.0], [73.81081847285365, 18.646852343840564, 0.0], [73.81081869361539, 18.646843262739175, 0.0], [73.81082295357547, 18.646788077469292, 0.0], [73.8107534068512, 18.646787637454956, 0.0], [73.8107549797991, 18.64656173569135, 0.0], [73.81075655272448, 18.64633583392219, 0.0], [73.81072026754741, 18.646335604345076, 0.0], [73.8106961840973, 18.646357755421295, 0.0], [73.8106166612235, 18.6463411934082, 0.0], [73.81057628912077, 18.646365522449667, 0.0], [73.81057806344516, 18.646366622188076, 0.0], [73.81058532792471, 18.64637216153626, 0.0]]], [[[73.81126353049554, 18.641594892812254, 0.0], [73.8115005063016, 18.641596391026667, 0.0], [73.81173748213017, 18.64159788894253, 0.0], [73.81197445798125, 18.641599386559857, 0.0], [73.81197390061715, 18.641679538920318, 0.0], [73.8120220436082, 18.64168312292619, 0.0], [73.81209243423751, 18.641826043940902, 0.0], [73.81220986328177, 18.64182678588106, 0.0], [73.8122088843577, 18.641967586925855, 0.0], [73.8122228913221, 18.641981880125197, 0.0], [73.812230857679, 18.641999017509796, 0.0], [73.812239995002, 18.642015615409804, 0.0], [73.8122502633196, 18.6420316012169, 0.0], [73.8122616177129, 18.642046905000203, 0.0], [73.81226685577042, 18.642053057868107, 0.0], [73.81244526920861, 18.642054184937056, 0.0], [73.81244683949105, 18.641828282920738, 0.0], [73.8124470028811, 18.641804777320477, 0.0], [73.81244045260453, 18.64178934353309, 0.0], [73.81243943407009, 18.64178671141526, 0.0], [73.81241604515608, 18.641719955478248, 0.0], [73.81241519995366, 18.64171726817432, 0.0], [73.81239620238478, 18.6416492571558, 0.0], [73.81239553377301, 18.641646525027266, 0.0], [73.81238831299947, 18.641612240165813, 0.0], [73.81238519249767, 18.6416119088159, 0.0], [73.81236764632037, 18.641609460868416, 0.0], [73.81236443962003, 18.641608905526713, 0.0], [73.81234711140776, 18.641605313869476, 0.0], [73.8123439523256, 18.641604549761222, 0.0], [73.81233350557423, 18.641601655065397, 0.0], [73.81221143385486, 18.641600883878635, 0.0], [73.8122118734124, 18.641537659926723, 0.0], [73.81220969631785, 18.641536132151415, 0.0], [73.81218536377976, 18.641520888290465, 0.0], [73.81216021587005, 18.641506898553438, 0.0], [73.81213435351768, 18.641494217116872, 0.0], [73.81198997675664, 18.641432671810293, 0.0], [73.81197565350192, 18.641427462019063, 0.0], [73.81184234269047, 18.641378972868996, 0.0], [73.81182071507374, 18.641372503079374, 0.0], [73.81173905330708, 18.641371986973443, 0.0], [73.81150207779167, 18.64137048907703, 0.0], [73.81126510229878, 18.641368990882075, 0.0], [73.8110281268284, 18.64136749238859, 0.0], [73.8110271026268, 18.641514663222537, 0.0], [73.8110921338132, 18.641507896682295, 0.0], [73.8111099822834, 18.641583924152496, 0.0], [73.81113578155217, 18.64159408503076, 0.0], [73.81126353049554, 18.641594892812254, 0.0]]], [[[73.81195717699411, 18.644084308067455, 0.0], [73.81195661669125, 18.644164870315745, 0.0], [73.8119689822676, 18.644164514046768, 0.0], [73.81198284278737, 18.644165407585064, 0.0], [73.8119965456837, 18.64416758620217, 0.0], [73.81200996015613, 18.644171029102203, 0.0], [73.8120229581573, 18.644175703421105, 0.0], [73.81203541561523, 18.64418156454036, 0.0], [73.81204721361765, 18.644188556512873, 0.0], [73.81205823954707, 18.644196612597042, 0.0], [73.81206838815574, 18.644205655893806, 0.0], [73.8120867838365, 18.64422373213529, 0.0], [73.81212527048199, 18.64425286523643, 0.0], [73.81213582685815, 18.64426170077058, 0.0], [73.81214541710195, 18.644271486156935, 0.0], [73.81215909328131, 18.64428690149633, 0.0], [73.81216644644307, 18.644295936753913, 0.0], [73.81217297449528, 18.64430553069145, 0.0], [73.8121735935892, 18.64430663440801, 0.0], [73.81218585585005, 18.6443116650188, 0.0], [73.8121925854921, 18.6443117075415, 0.0], [73.81219340616734, 18.64419368548101, 0.0], [73.81217682446179, 18.64417173774823, 0.0], [73.81217319926132, 18.644166573844675, 0.0], [73.81215494573412, 18.644138532588133, 0.0], [73.81215170137804, 18.644133143408173, 0.0], [73.81213551254355, 18.644103972669757, 0.0], [73.8121326643723, 18.644098383695756, 0.0], [73.81212660753994, 18.64408537877265, 0.0], [73.81211861677399, 18.64406822140237, 0.0], [73.81211617825366, 18.644062459059413, 0.0], [73.81210433831077, 18.644031447825796, 0.0], [73.81210232097128, 18.64402553936005, 0.0], [73.81209274466455, 18.643993825814952, 0.0], [73.81209115804411, 18.643987799163398, 0.0], [73.81208389065107, 18.643955533256317, 0.0], [73.81208368895926, 18.64395435984888, 0.0], [73.8120834674916, 18.643953487749545, 0.0], [73.81208304236931, 18.643950598101977, 0.0], [73.81208238646545, 18.64394678216822, 0.0], [73.81208230639685, 18.64394559553873, 0.0], [73.81208217551521, 18.64394470590814, 0.0], [73.81208204941646, 18.643941787048757, 0.0], [73.81208178934004, 18.643937932674678, 0.0], [73.81208183162128, 18.64393674565438, 0.0], [73.81208179273929, 18.64393584563724, 0.0], [73.81208196784992, 18.643932921117916, 0.0], [73.81208210502533, 18.64392907000113, 0.0], [73.81208226877389, 18.643927895391606, 0.0], [73.81208232285007, 18.64392699226611, 0.0], [73.81208279983845, 18.643924085932223, 0.0], [73.81208333048097, 18.64392027949999, 0.0], [73.81208361322872, 18.643919129870394, 0.0], [73.81208376074215, 18.64391823105752, 0.0], [73.81208453867728, 18.643915367071003, 0.0], [73.81208545390501, 18.643911645828545, 0.0], [73.81208585165311, 18.64391053331945, 0.0], [73.81208609256768, 18.64390964638668, 0.0], [73.81208716880246, 18.6439068492271, 0.0], [73.8120884548476, 18.643903252133736, 0.0], [73.81208896215084, 18.643902188272197, 0.0], [73.81208929586982, 18.643901320928617, 0.0], [73.81209066589527, 18.643898615363376, 0.0], [73.81209230440791, 18.64389517925138, 0.0], [73.8120929144861, 18.643894174781906, 0.0], [73.8120933397989, 18.64389333486199, 0.0], [73.81209499707751, 18.64389074587786, 0.0], [73.81209696551248, 18.643887504927704, 0.0], [73.81209767038541, 18.643886569662705, 0.0], [73.8120981854096, 18.64388576509695, 0.0], [73.81210012119763, 18.643883317787157, 0.0], [73.81210239327227, 18.64388030307056, 0.0], [73.8121031839142, 18.64387944576371, 0.0], [73.81210378603598, 18.643878684534396, 0.0], [73.8121059892052, 18.64387640393762, 0.0], [73.81210853541495, 18.643873643037733, 0.0], [73.81210940192454, 18.643872871282497, 0.0], [73.81211008774089, 18.643872161363955, 0.0], [73.81211254461203, 18.643870072253357, 0.0], [73.8121153327883, 18.64386758896888, 0.0], [73.81211626456854, 18.6438669091241, 0.0], [73.8121170298355, 18.643866258407247, 0.0], [73.81211972403528, 18.643864385030522, 0.0], [73.81212271992993, 18.643862199167966, 0.0], [73.81212370587367, 18.643861616310943, 0.0], [73.81212454546367, 18.643861032512916, 0.0], [73.81212732742662, 18.64385947145387, 0.0], [73.81212745781738, 18.64385939828693, 0.0], [73.81213062569769, 18.643857525541634, 0.0], [73.8121316543734, 18.643857043448886, 0.0], [73.8121325622458, 18.64385653400913, 0.0], [73.81213567071676, 18.643855161174432, 0.0], [73.81213897395475, 18.643853613099388, 0.0], [73.81214003378798, 18.6438532342541, 0.0], [73.81214100297602, 18.643852806218852, 0.0], [73.81214428266183, 18.64385171546233, 0.0], [73.81214768430294, 18.643850499520173, 0.0], [73.81214876374855, 18.643850225144305, 0.0], [73.81214978636554, 18.64384988504273, 0.0], [73.8121532095594, 18.64384909509819, 0.0], [73.81215667285697, 18.643848214789404, 0.0], [73.81215776055879, 18.64384804489839, 0.0], [73.81215882782567, 18.643847798613237, 0.0], [73.81219585808547, 18.643841067609888, 0.0], [73.81219729788667, 18.643634001700697, 0.0], [73.81219886863984, 18.643408099742665, 0.0], [73.81206607085464, 18.6434072606258, 0.0], [73.8119962540235, 18.643520639024995, 0.0], [73.81196042642041, 18.64361708639946, 0.0], [73.81196031919441, 18.643632504206924, 0.0], [73.81195874810552, 18.643858406139966, 0.0], [73.81195717699411, 18.644084308067455, 0.0]]], [[[73.8114988548356, 18.6448074501374, 0.0], [73.8114780787839, 18.644819996941095, 0.0], [73.8114234951282, 18.644852960374195, 0.0], [73.8112984199841, 18.644890126779302, 0.0], [73.8112748759427, 18.644862239893197, 0.0], [73.81124061860133, 18.644887456669856, 0.0], [73.8112399507438, 18.64498342109898, 0.0], [73.81112928124634, 18.644982721196754, 0.0], [73.8111143955327, 18.645090428612992, 0.0], [73.8110666762023, 18.64520823701004, 0.0], [73.8110141792018, 18.64533784019051, 0.0], [73.81103493226016, 18.645433947993748, 0.0], [73.81118948430979, 18.64543492550022, 0.0], [73.8111927986457, 18.64536411968295, 0.0], [73.81119367550231, 18.645355246623563, 0.0], [73.8111954650341, 18.64534649906046, 0.0], [73.81119814983312, 18.645337962086273, 0.0], [73.81120170378264, 18.645329718745124, 0.0], [73.81120609231122, 18.645321849224796, 0.0], [73.811211272729, 18.645314430076667, 0.0], [73.81121719464294, 18.645307533471062, 0.0], [73.81122380044711, 18.645301226495278, 0.0], [73.81123102588296, 18.64529557050088, 0.0], [73.81123780838749, 18.645291252263043, 0.0], [73.81123837858013, 18.645209322940364, 0.0], [73.81147535939735, 18.64521082146606, 0.0], [73.81171234023712, 18.645212319693155, 0.0], [73.81194932109939, 18.64521381762164, 0.0], [73.81218630198418, 18.645215315251527, 0.0], [73.81218682666832, 18.645139864380244, 0.0], [73.8121578185351, 18.6451320625494, 0.0], [73.8120601118351, 18.645087648211096, 0.0], [73.81202538190126, 18.64498838649467, 0.0], [73.81195089232337, 18.64498791572191, 0.0], [73.81195246352483, 18.644762013816617, 0.0], [73.811715483289, 18.644760515927025, 0.0], [73.81170179679079, 18.644760429409153, 0.0], [73.8115869015136, 18.64480946669341, 0.0], [73.8114988548356, 18.6448074501374, 0.0]]], [[[73.81125512990229, 18.645945700301066, 0.0], [73.81124851992985, 18.64597660587261, 0.0], [73.81124409678571, 18.646007864126958, 0.0], [73.81124364513636, 18.646014276942974, 0.0], [73.81146977215126, 18.646013778285425, 0.0], [73.81170676816627, 18.646013255367375, 0.0], [73.8119437641982, 18.646012732150357, 0.0], [73.81218076024705, 18.64601220863438, 0.0], [73.81241775631278, 18.646011684819424, 0.0], [73.81241857096393, 18.64589451836538, 0.0], [73.81241935896288, 18.645781184305843, 0.0], [73.81240995361125, 18.645780036210002, 0.0], [73.81218248542116, 18.645764135543455, 0.0], [73.81217563869357, 18.645763656933635, 0.0], [73.81194554680376, 18.645756451740056, 0.0], [73.81193953810416, 18.64575626357735, 0.0], [73.81193931134003, 18.64575624582821, 0.0], [73.81193908381779, 18.645756247271997, 0.0], [73.81170862107973, 18.645746920044576, 0.0], [73.81147169579769, 18.645737330971812, 0.0], [73.81147064371089, 18.645888527015273, 0.0], [73.81127412992981, 18.64588728435672, 0.0], [73.81126389700333, 18.645915286270696, 0.0], [73.81125512990229, 18.645945700301066, 0.0]]], [[[73.81194146464178, 18.646343327037084, 0.0], [73.8121784470928, 18.64634482476419, 0.0], [73.81234927516921, 18.6463459042109, 0.0], [73.81235202590976, 18.646333936969416, 0.0], [73.8123594151762, 18.646288966607887, 0.0], [73.81236394654641, 18.64624365336438, 0.0], [73.81236560353418, 18.64619816212054, 0.0], [73.8123643801126, 18.646152658405413, 0.0], [73.81236390012144, 18.646147348357264, 0.0], [73.81217981760447, 18.646147755188515, 0.0], [73.81194282136752, 18.646148278696074, 0.0], [73.81170582514751, 18.64614880190466, 0.0], [73.81170448221327, 18.64634182901135, 0.0], [73.81194146464178, 18.646343327037084, 0.0]]], [[[73.81122108329275, 18.647694242829246, 0.0], [73.81122265570426, 18.64746834104891, 0.0], [73.81098567177698, 18.64746684203001, 0.0], [73.81098558987986, 18.647478605581963, 0.0], [73.8110021813377, 18.64750132958999, 0.0], [73.81098503544092, 18.64755824394194, 0.0], [73.8109840990522, 18.64769274379088, 0.0], [73.81122108329275, 18.647694242829246, 0.0]]], [[[73.81098252630488, 18.647918645546188, 0.0], [73.8109840990522, 18.64769274379088, 0.0], [73.81089958062012, 18.6476922090992, 0.0], [73.8108227851543, 18.6477512966631, 0.0], [73.8107462446534, 18.64781620847362, 0.0], [73.81074554177358, 18.647917146189716, 0.0], [73.81098252630488, 18.647918645546188, 0.0]]], [[[73.8124760250387, 18.64220386171929, 0.0], [73.8124945906257, 18.642222448075497, 0.0], [73.8125118756875, 18.642242124705696, 0.0], [73.81252780992651, 18.64226281158659, 0.0], [73.81253974953205, 18.642280693653444, 0.0], [73.81268067576181, 18.64228158372783, 0.0], [73.81268121692887, 18.642203716973597, 0.0], [73.81265343147591, 18.642155718862906, 0.0], [73.81258586367588, 18.642055072977662, 0.0], [73.81244526920861, 18.642054184937056, 0.0], [73.81244441361255, 18.64217727026758, 0.0], [73.8124562544317, 18.642186441226606, 0.0], [73.8124760250387, 18.64220386171929, 0.0]]], [[[73.81267863960623, 18.64257455602555, 0.0], [73.8126815519784, 18.6425838715907, 0.0], [73.8126978143404, 18.642653082450103, 0.0], [73.8127090107621, 18.642723200559097, 0.0], [73.81270990407498, 18.642733592196425, 0.0], [73.8127150874992, 18.642793889380297, 0.0], [73.8127160153795, 18.64286480963651, 0.0], [73.812711789943, 18.6429356209395, 0.0], [73.81267618046861, 18.642928381833656, 0.0], [73.81267596565151, 18.642959289785143, 0.0], [73.81243898785384, 18.64295779294683, 0.0], [73.81226762759215, 18.64295671038675, 0.0], [73.81220088880721, 18.64311755934323, 0.0], [73.8122004393705, 18.643182197779087, 0.0], [73.81219886863984, 18.643408099742665, 0.0], [73.8124358470414, 18.643409596918424, 0.0], [73.81243741745888, 18.643183694935402, 0.0], [73.81267439556974, 18.643185191793155, 0.0], [73.81288882848258, 18.643186545988097, 0.0], [73.81287098949642, 18.643143857283754, 0.0], [73.81287025282577, 18.6431419735744, 0.0], [73.81286406973555, 18.64312501988898, 0.0], [73.81286313538564, 18.643122154529827, 0.0], [73.81285814641818, 18.643104847007383, 0.0], [73.81285741364408, 18.64310192884796, 0.0], [73.81285364080318, 18.643084343824988, 0.0], [73.81285311283673, 18.643081385735847, 0.0], [73.81285057276241, 18.6430636007727, 0.0], [73.81285025193219, 18.643060615800508, 0.0], [73.81284895582736, 18.643042709339454, 0.0], [73.8128488435484, 18.64303971065051, 0.0], [73.81284879712898, 18.64302176166948, 0.0], [73.81284889389634, 18.64301876248889, 0.0], [73.81285009736675, 18.643000850153467, 0.0], [73.81285040275357, 18.642997863710047, 0.0], [73.8128528508052, 18.64298006702422, 0.0], [73.81285336346457, 18.64297710648915, 0.0], [73.81285685115786, 18.642960432123036, 0.0], [73.81285704529986, 18.642959503946507, 0.0], [73.8128577629704, 18.642956582378392, 0.0], [73.81286266234964, 18.642939251616603, 0.0], [73.8128626793644, 18.642939191594074, 0.0], [73.8128726820478, 18.642904001526183, 0.0], [73.81288001429569, 18.642869685986902, 0.0], [73.81288504115787, 18.642834995243557, 0.0], [73.81288774226302, 18.64280006989087, 0.0], [73.81288810666533, 18.642765051473866, 0.0], [73.81288639392677, 18.642734706733325, 0.0], [73.81288613288963, 18.642730081914795, 0.0], [73.81288182893654, 18.642695302937984, 0.0], [73.81287521225046, 18.64266085549507, 0.0], [73.81286631358414, 18.642626894213024, 0.0], [73.81282662123823, 18.642508417341617, 0.0], [73.81267910574753, 18.64250748575248, 0.0], [73.81267863960623, 18.64257455602555, 0.0]]], [[[73.812719154224, 18.6445750085617, 0.0], [73.8127553198539, 18.644659910988196, 0.0], [73.81278864352466, 18.64476729670322, 0.0], [73.81290038469321, 18.644768002389014, 0.0], [73.81290195461926, 18.64454210040042, 0.0], [73.81290352452281, 18.644316198406287, 0.0], [73.8126665448234, 18.644314701749945, 0.0], [73.81266497460663, 18.644540603724653, 0.0], [73.81266493884347, 18.64454574881637, 0.0], [73.81266514723477, 18.644547482606885, 0.0], [73.81266536339176, 18.644560848818692, 0.0], [73.8126647882097, 18.644567419828284, 0.0], [73.81266473784991, 18.644574664861526, 0.0], [73.812719154224, 18.6445750085617, 0.0]]], [[[73.81294232806363, 18.645446002944468, 0.0], [73.8129428210365, 18.645446519519485, 0.0], [73.8130517246116, 18.6456428333484, 0.0], [73.81306863068582, 18.645672712400582, 0.0], [73.81313108636533, 18.645673106762207, 0.0], [73.81313265606812, 18.64544720477639, 0.0], [73.81313422574843, 18.645221302785018, 0.0], [73.81313579540624, 18.644995400788094, 0.0], [73.81289881474466, 18.64499390437206, 0.0], [73.81276392750534, 18.644993052492232, 0.0], [73.8127588683206, 18.6450307471377, 0.0], [73.8127638981803, 18.645188447723303, 0.0], [73.81276368608141, 18.645218962850794, 0.0], [73.81289724477361, 18.64521980634955, 0.0], [73.81289601005143, 18.64539746733685, 0.0], [73.81294232806363, 18.645446002944468, 0.0]]], [[[73.81218349284379, 18.64561927041715, 0.0], [73.81218463160653, 18.645619328024893, 0.0], [73.81242036974798, 18.645635806804393, 0.0], [73.8124234703269, 18.64563602354187, 0.0], [73.81242602426467, 18.645636268500475, 0.0], [73.81244371098445, 18.64563842748386, 0.0], [73.8124468897408, 18.645638920661497, 0.0], [73.81246438182534, 18.645642219598603, 0.0], [73.81246751810976, 18.64564291741239, 0.0], [73.81248473479833, 18.645647341072156, 0.0], [73.81248781413078, 18.645648240300343, 0.0], [73.81250467593382, 18.645653768258803, 0.0], [73.81250768409637, 18.645654864749485, 0.0], [73.81252411316328, 18.645661471484015, 0.0], [73.81252703626816, 18.64566276017504, 0.0], [73.8125408011597, 18.64566937871706, 0.0], [73.81265712318525, 18.645670113514953, 0.0], [73.8126580640668, 18.645534762054805, 0.0], [73.8126451960074, 18.645520554376997, 0.0], [73.81254867582699, 18.6454435166041, 0.0], [73.81242171227147, 18.645442714515884, 0.0], [73.81242274049843, 18.645294825224404, 0.0], [73.8124144283021, 18.64523003707419, 0.0], [73.8123866583461, 18.645216581195168, 0.0], [73.81218630198418, 18.645215315251527, 0.0], [73.81218473105093, 18.64544121716516, 0.0], [73.81218349284379, 18.64561927041715, 0.0]]], [[[73.81382526581574, 18.645650254359705, 0.0], [73.81382556936944, 18.6456500438246, 0.0], [73.81382627394751, 18.645649480164035, 0.0], [73.81382693594769, 18.64564887140528, 0.0], [73.81382755219936, 18.64564822046387, 0.0], [73.8138281197513, 18.64564753045724, 0.0], [73.81382863588709, 18.645646804687978, 0.0], [73.81382909813527, 18.64564604663122, 0.0], [73.81382950428207, 18.645645259917377, 0.0], [73.81382985238277, 18.645644448313554, 0.0], [73.81383014077088, 18.645643615705254, 0.0], [73.81383036806565, 18.64564276607866, 0.0], [73.81383053317865, 18.645641903502376, 0.0], [73.8138306353191, 18.645641032107484, 0.0], [73.81383067399818, 18.6456401560649, 0.0], [73.8138306490306, 18.64563927956971, 0.0], [73.81383056053592, 18.645638406819053, 0.0], [73.81383040893792, 18.645637541991736, 0.0], [73.81383019496234, 18.645636689228205, 0.0], [73.81383017937566, 18.645636641866343, 0.0], [73.813724036758, 18.64546518879386, 0.0], [73.81371453851408, 18.645450877895488, 0.0], [73.8136066187117, 18.64545019679035, 0.0], [73.81360504963538, 18.645676098815013, 0.0], [73.81369360303948, 18.645676657705714, 0.0], [73.8137009004125, 18.645674588405235, 0.0], [73.81370349931345, 18.645673927347797, 0.0], [73.8137660128076, 18.645659824790418, 0.0], [73.81376909098391, 18.645659232282846, 0.0], [73.81382526581574, 18.645650254359705, 0.0]]], [[[73.81317583426838, 18.64580745623764, 0.0], [73.81319944469215, 18.64582585399697, 0.0], [73.81321188618084, 18.645836788473012, 0.0], [73.81322513369298, 18.645849905003562, 0.0], [73.81324366570992, 18.645838088376408, 0.0], [73.8132461372444, 18.645836615238814, 0.0], [73.81329340459114, 18.6458103336326, 0.0], [73.81329596644672, 18.645809008102955, 0.0], [73.8133448391694, 18.645785545877313, 0.0], [73.81334748165663, 18.645784372969015, 0.0], [73.81336736183012, 18.645776248239052, 0.0], [73.81336806798912, 18.64567460293792, 0.0], [73.81313108636533, 18.645673106762207, 0.0], [73.81313033137356, 18.645781759386704, 0.0], [73.8131317482752, 18.645784263552382, 0.0], [73.81314042529138, 18.645787240117077, 0.0], [73.81315289719252, 18.645792874005004, 0.0], [73.81316473736679, 18.64579963394019, 0.0], [73.81317583426838, 18.64580745623764, 0.0]]], [[[73.8126726031209, 18.64578949948138, 0.0], [73.81269073711583, 18.645816544508104, 0.0], [73.81269229815904, 18.6458190468131, 0.0], [73.81270856730102, 18.64584714897384, 0.0], [73.81270995604376, 18.645849741919747, 0.0], [73.81272429278125, 18.64587878453314, 0.0], [73.81272550345695, 18.645881457353216, 0.0], [73.81273172049494, 18.64589649656863, 0.0], [73.81285099268175, 18.645897249888193, 0.0], [73.8128358834272, 18.645848775598896, 0.0], [73.8127847482113, 18.645714142176796, 0.0], [73.81276104485318, 18.645670769919793, 0.0], [73.81265712318525, 18.645670113514953, 0.0], [73.81265644030233, 18.645768349592647, 0.0], [73.81267087625857, 18.645787098206462, 0.0], [73.8126726031209, 18.64578949948138, 0.0]]], [[[73.81383889371057, 18.64612939846502, 0.0], [73.8138404625186, 18.645903496432037, 0.0], [73.8136034805366, 18.64590200083413, 0.0], [73.8136024956595, 18.646043791222333, 0.0], [73.8136611946041, 18.6460934093209, 0.0], [73.8137621781269, 18.646107185700096, 0.0], [73.81375804524397, 18.6461288882564, 0.0], [73.81383889371057, 18.64612939846502, 0.0]]], [[[73.81383732488005, 18.64635530049246, 0.0], [73.81371491628207, 18.646354527988702, 0.0], [73.8136971078952, 18.6464352517812, 0.0], [73.8137240654368, 18.6465230157316, 0.0], [73.81373926074677, 18.646580593545504, 0.0], [73.81383575602707, 18.64658120251434, 0.0], [73.81383732488005, 18.64635530049246, 0.0]]], [[[73.8129535689375, 18.646945661624557, 0.0], [73.81302933028668, 18.64694084106979, 0.0], [73.81310608712721, 18.646932625108466, 0.0], [73.81310654602895, 18.64693257814359, 0.0], [73.81311895063088, 18.646931366837823, 0.0], [73.81312200670271, 18.646931163282087, 0.0], [73.81312234430398, 18.646931151228316, 0.0], [73.8131344674834, 18.64693071837972, 0.0], [73.81313753096615, 18.646930703441544, 0.0], [73.81314999586965, 18.646931026801074, 0.0], [73.81315305396589, 18.646931200542816, 0.0], [73.81316547091897, 18.64693229081346, 0.0], [73.81316851085322, 18.646932652509324, 0.0], [73.81318082798295, 18.646934505136375, 0.0], [73.81318383705546, 18.64693505327533, 0.0], [73.81319600290587, 18.646937660519303, 0.0], [73.81319896854575, 18.646938392811386, 0.0], [73.81321093229288, 18.646941743780197, 0.0], [73.81321384211142, 18.646942657166335, 0.0], [73.81322555377562, 18.6469467378611, 0.0], [73.81322839561693, 18.64694782852565, 0.0], [73.81323980627157, 18.64695262189898, 0.0], [73.81324256826244, 18.646953885285114, 0.0], [73.8132536302386, 18.646959371312143, 0.0], [73.81325630084156, 18.646960802142353, 0.0], [73.81326696792661, 18.6469669579047, 0.0], [73.81326953598472, 18.64696855020148, 0.0], [73.81327976361595, 18.64697534998295, 0.0], [73.81328167868651, 18.646976692487147, 0.0], [73.81330635227063, 18.6469949153359, 0.0], [73.81330767006452, 18.64699592496258, 0.0], [73.81333136728264, 18.647014753444598, 0.0], [73.81335112287768, 18.647029967324432, 0.0], [73.81335865117953, 18.647030014852845, 0.0], [73.81336004840361, 18.646828912270635, 0.0], [73.8133006373699, 18.646848819645506, 0.0], [73.8132823614941, 18.646834105304, 0.0], [73.81325592503326, 18.646803454412023, 0.0], [73.81312323751395, 18.64680261660807, 0.0], [73.81288625434638, 18.6468011200366, 0.0], [73.81288529359622, 18.646939346179852, 0.0], [73.81288960699848, 18.646940395059705, 0.0], [73.81290536829381, 18.64694319850315, 0.0], [73.81292128789941, 18.646945015635286, 0.0], [73.8129372979639, 18.64694583871097, 0.0], [73.8129535689375, 18.646945661624557, 0.0]]], [[[73.81418475711543, 18.64699415265858, 0.0], [73.81418503515594, 18.64699450043154, 0.0], [73.81418601629031, 18.64699601555778, 0.0], [73.81418702798051, 18.64699751231318, 0.0], [73.8141872374347, 18.64699790132176, 0.0], [73.81418747837652, 18.646998273398488, 0.0], [73.81418829899316, 18.64699987290008, 0.0], [73.81418915190748, 18.647001456974234, 0.0], [73.81418932035318, 18.647001863679755, 0.0], [73.81418952187589, 18.647002256476924, 0.0], [73.8141901740718, 18.647003924949775, 0.0], [73.81419085999622, 18.647005581087228, 0.0], [73.81419098581118, 18.647006001572855, 0.0], [73.81419114597402, 18.647006411307643, 0.0], [73.81419162346822, 18.6470081326835, 0.0], [73.81419213579684, 18.647009844934686, 0.0], [73.81419221776942, 18.647010275150926, 0.0], [73.81419233502993, 18.647010697877345, 0.0], [73.81419263322383, 18.64701245557841, 0.0], [73.8141929670227, 18.647014207453427, 0.0], [73.81419300436343, 18.64701464325708, 0.0], [73.81419307759232, 18.647015074904047, 0.0], [73.81419319361416, 18.647016852002682, 0.0], [73.81419334566857, 18.64701862663004, 0.0], [73.81419333801784, 18.64701906382405, 0.0], [73.81419336650987, 18.647019500234574, 0.0], [73.81419329924229, 18.647021279616347, 0.0], [73.81419326808788, 18.647023059905415, 0.0], [73.81419321551937, 18.647023494279388, 0.0], [73.81419319900013, 18.647023931250587, 0.0], [73.81419294909092, 18.64702569577909, 0.0], [73.8141927350277, 18.647027464584706, 0.0], [73.81419263804767, 18.64702789195536, 0.0], [73.81419257667626, 18.647028325278974, 0.0], [73.81419214653218, 18.647030057960816, 0.0], [73.81419175162166, 18.647031798248413, 0.0], [73.81419161116408, 18.64703221449996, 0.0], [73.81419150553155, 18.64703264000284, 0.0], [73.81419089929511, 18.647034324151342, 0.0], [73.81419058174573, 18.64703526522125, 0.0], [73.81430658541771, 18.64703599703553, 0.0], [73.81430815368913, 18.646810094985923, 0.0], [73.81407117040912, 18.646808599907615, 0.0], [73.81407077925745, 18.64686493249436, 0.0], [73.81418221574371, 18.646990973911794, 0.0], [73.81418334794695, 18.646992390071198, 0.0], [73.81418450866988, 18.64699378509327, 0.0], [73.81418475711543, 18.64699415265858, 0.0]]], [[[73.81320754551368, 18.64707054028079, 0.0], [73.81320105773308, 18.64706622691358, 0.0], [73.8131945851345, 18.647062491702577, 0.0], [73.81318787292247, 18.647059162875184, 0.0], [73.81318094913799, 18.64705625433796, 0.0], [73.81317384270545, 18.647053778241457, 0.0], [73.81316658331292, 18.647051744929765, 0.0], [73.81315920128758, 18.647050162897457, 0.0], [73.81315172746795, 18.647049038753472, 0.0], [73.81314419307695, 18.647048377194047, 0.0], [73.81313662959026, 18.647048180982942, 0.0], [73.81312906860502, 18.647048450939828, 0.0], [73.81312152404135, 18.64704918766202, 0.0], [73.81312009781594, 18.647254420507558, 0.0], [73.81335708163255, 18.647255916819248, 0.0], [73.81335760468629, 18.647180635030743, 0.0], [73.81330529095989, 18.64714554234504, 0.0], [73.81330278245682, 18.647143738189282, 0.0], [73.81325291776011, 18.647105337148805, 0.0], [73.81325235645991, 18.647104898073106, 0.0], [73.81322980901525, 18.647086983141264, 0.0], [73.81320754551368, 18.64707054028079, 0.0]]], [[[73.81377307533631, 18.647303149573016, 0.0], [73.81376992465297, 18.647303867275603, 0.0], [73.81375200984141, 18.647307335890243, 0.0], [73.81374881508978, 18.647307846772694, 0.0], [73.81373069357194, 18.647310140837128, 0.0], [73.81372746967318, 18.64731044251335, 0.0], [73.81370922609526, 18.647311551311674, 0.0], [73.81370598810973, 18.6473116423724, 0.0], [73.81368770768817, 18.647311560725605, 0.0], [73.81368447073967, 18.647311440745536, 0.0], [73.81366623886305, 18.647310169034935, 0.0], [73.81366301807213, 18.647309838574525, 0.0], [73.81364491990196, 18.647307382740433, 0.0], [73.8136417303121, 18.647306843343163, 0.0], [73.8136238503858, 18.6473032148567, 0.0], [73.81362070689693, 18.647302469042316, 0.0], [73.81360312873207, 18.647297684852482, 0.0], [73.81360004602668, 18.647296736104543, 0.0], [73.81359380722449, 18.647294588974045, 0.0], [73.81359249621545, 18.647483314812558, 0.0], [73.81382948039032, 18.64748481054638, 0.0], [73.81383087620146, 18.647283836835676, 0.0], [73.81383086045807, 18.647283843894225, 0.0], [73.81381406203933, 18.64729071740629, 0.0], [73.81381104337065, 18.647291837741218, 0.0], [73.81379379165732, 18.64729760143991, 0.0], [73.81379069976082, 18.647298522609884, 0.0], [73.81377307533631, 18.647303149573016, 0.0]]]]}, "properties": {"site_id": "EMU_Water_margin", "name": "EMU_Water_margin", "n_member_parcels": 134}}]}