{"type": "FeatureCollection", "features": [{"type": "Feature", "geometry": {"type": "Polygon", "coordinates": [[[73.81169190820403, 18.64814904363185, 0.0], [73.81192889313874, 18.648150541813166, 0.0], [73.81193046465543, 18.647924639985586, 0.0], [73.81169348003401, 18.647923141823714, 0.0], [73.8114564954351, 18.647921643363187, 0.0], [73.81121951085873, 18.647920144604015, 0.0], [73.81121793840217, 18.64814604637324, 0.0], [73.81121636592307, 18.64837194813692, 0.0], [73.81121479342146, 18.64859784989504, 0.0], [73.81145177893771, 18.648599348712587, 0.0], [73.81145335112605, 18.648373446935004, 0.0], [73.81145492329183, 18.648147545151872, 0.0], [73.81169190820403, 18.64814904363185, 0.0]]]}, "properties": {"site_id": "SEG49", "name": "SEG49", "n_member_parcels": 5}}]}