{"type": "FeatureCollection", "features": [{"type": "Feature", "geometry": {"type": "Polygon", "coordinates": [[[73.80774163209192, 18.643605795878074, 0.0], [73.80777301392953, 18.643831906492544, 0.0], [73.8078043958321, 18.644058017101116, 0.0], [73.80792853202507, 18.644058804328736, 0.0], [73.80793010846104, 18.643832902732395, 0.0], [73.80816708708313, 18.643834405321474, 0.0], [73.80816866318331, 18.64360850370007, 0.0], [73.8079316848744, 18.643607001130494, 0.0], [73.80774163209192, 18.643605795878074, 0.0]]]}, "properties": {"site_id": "SEG63", "name": "SEG63", "n_member_parcels": 3}}]}