{"type": "FeatureCollection", "features": [{"type": "Feature", "geometry": {"type": "MultiPolygon", "coordinates": [[[[73.80891374510286, 18.64385495255962, 0.0], [73.80889500635503, 18.643839018905858, 0.0], [73.80887802308496, 18.643838911297255, 0.0], [73.80887711793069, 18.6439687225456, 0.0], [73.80889440964172, 18.643963660087028, 0.0], [73.80891564183649, 18.644065061310975, 0.0], [73.80896300793445, 18.644291273075147, 0.0], [73.80901037414019, 18.644517484829088, 0.0], [73.80911027711993, 18.64451811775694, 0.0], [73.8091087021823, 18.644744019434146, 0.0], [73.80887172221702, 18.644742517961404, 0.0], [73.8086347422743, 18.64474101619006, 0.0], [73.80839776235418, 18.64473951412013, 0.0], [73.80816078245662, 18.644738011751592, 0.0], [73.8079735721699, 18.644736824693535, 0.0], [73.8079280825172, 18.6447378272365, 0.0], [73.80797231793122, 18.644962728315097, 0.0], [73.80801680768884, 18.645188922007446, 0.0], [73.80815763000784, 18.64518981493335, 0.0], [73.80815605374956, 18.6454157165159, 0.0], [73.80815514323645, 18.645546205297403, 0.0], [73.80839226733116, 18.645527198938623, 0.0], [73.8083930345868, 18.645417218942953, 0.0], [73.80863001544664, 18.645418721071398, 0.0], [73.80886699632904, 18.64542022290123, 0.0], [73.8090498874368, 18.645421381741208, 0.0], [73.80910404331799, 18.645412246129542, 0.0], [73.80928826664274, 18.645381169180688, 0.0], [73.80930141743109, 18.645422975202255, 0.0], [73.80934095816156, 18.645423225665088, 0.0], [73.80940189158345, 18.645423611619346, 0.0], [73.80947149161807, 18.645342475962103, 0.0], [73.80951425756552, 18.645291391047422, 0.0], [73.80955339263878, 18.64523892775736, 0.0], [73.80957950908338, 18.64519945727033, 0.0], [73.80957951349053, 18.645198824899566, 0.0], [73.80958108784684, 18.644972923194487, 0.0], [73.80958266218057, 18.644747021483855, 0.0], [73.80958379452822, 18.644584538509722, 0.0], [73.80957456402541, 18.644523652240842, 0.0], [73.80957403829471, 18.644521055185898, 0.0], [73.80956200003669, 18.644461587423766, 0.0], [73.80954597605002, 18.644400413115843, 0.0], [73.80952650762691, 18.64434015362083, 0.0], [73.80950896167451, 18.644294731378316, 0.0], [73.80934883139639, 18.644293717209354, 0.0], [73.80935002180105, 18.644122932557615, 0.0], [73.8092465871173, 18.64406715791008, 0.0], [73.80911342692747, 18.644066314385874, 0.0], [73.80911393648842, 18.64399322255588, 0.0], [73.80910068854779, 18.64398569461711, 0.0], [73.80909814965487, 18.64398414555024, 0.0], [73.80900622183346, 18.643924045228367, 0.0], [73.80900379137573, 18.64392234544665, 0.0], [73.80891605729437, 18.64385679618055, 0.0], [73.80891374510286, 18.64385495255962, 0.0]]], [[[73.80946805638008, 18.644032423836034, 0.0], [73.80949008445202, 18.64404753903723, 0.0], [73.80949258711362, 18.64404938013537, 0.0], [73.80951350919878, 18.644065861476786, 0.0], [73.8095158775477, 18.644067857509945, 0.0], [73.80951700172275, 18.644068870603743, 0.0], [73.80958738504643, 18.644069316318653, 0.0], [73.8095868610469, 18.64414450879671, 0.0], [73.80959292396203, 18.64415271949492, 0.0], [73.80959465636307, 18.644155240191083, 0.0], [73.80960876479645, 18.644177342859173, 0.0], [73.80961031707399, 18.644179968032766, 0.0], [73.80962284850595, 18.644202918050244, 0.0], [73.80962421375484, 18.64420563602368, 0.0], [73.8096351124377, 18.644229331296376, 0.0], [73.8096361819228, 18.644231861599508, 0.0], [73.80966080896057, 18.644295614941385, 0.0], [73.80966083667265, 18.644295693137263, 0.0], [73.8096616290043, 18.644297928879833, 0.0], [73.8096826060155, 18.64436285766104, 0.0], [73.80968329368862, 18.644365210460705, 0.0], [73.80970055936879, 18.644431124942987, 0.0], [73.80970111266161, 18.644433509728447, 0.0], [73.80971461655142, 18.64450021729294, 0.0], [73.80971498780542, 18.644502315748586, 0.0], [73.80971796693493, 18.644521966586627, 0.0], [73.8098212162115, 18.644522620325148, 0.0], [73.80981964221355, 18.64474852206081, 0.0], [73.80981806819305, 18.644974423790927, 0.0], [73.80981649414998, 18.64520032551549, 0.0], [73.80974028159162, 18.64519984295267, 0.0], [73.80972833140702, 18.645224553813208, 0.0], [73.80972686771263, 18.64522732588432, 0.0], [73.80971256351161, 18.64525224642317, 0.0], [73.80971107259403, 18.64525466270151, 0.0], [73.80967224328231, 18.645313346553714, 0.0], [73.80967078145541, 18.645315425884505, 0.0], [73.80962860243255, 18.645371969849784, 0.0], [73.80962702204798, 18.645373968818742, 0.0], [73.8095844952366, 18.645424768118488, 0.0], [73.80958162277034, 18.645428199347073, 0.0], [73.80958132518383, 18.645428551197014, 0.0], [73.80957788439234, 18.64543257801309, 0.0], [73.80957636471025, 18.645650628293076, 0.0], [73.80939008237178, 18.64564944847333, 0.0], [73.80938972512642, 18.645649702990017, 0.0], [73.80938574437917, 18.645651996477643, 0.0], [73.80938154697348, 18.645653906982098, 0.0], [73.80937717333276, 18.645655416104155, 0.0], [73.80937472269754, 18.645656010424165, 0.0], [73.80944383020795, 18.645875700555056, 0.0], [73.80957479028628, 18.645876529981507, 0.0], [73.80957321583973, 18.646102431664385, 0.0], [73.8095721968996, 18.646248627528816, 0.0], [73.80960064836393, 18.646328517047415, 0.0], [73.80968128544524, 18.64655493936147, 0.0], [73.8098070494179, 18.646555735746322, 0.0], [73.80980547521693, 18.64678163743203, 0.0], [73.80980400571475, 18.64699251166064, 0.0], [73.80980715787223, 18.647007514689957, 0.0], [73.80980712014059, 18.647007559496412, 0.0], [73.81004088418142, 18.647009039585352, 0.0], [73.81004245809169, 18.64678313788571, 0.0], [73.81027944098896, 18.646784638040753, 0.0], [73.81028101456342, 18.646558736316088, 0.0], [73.8102825881153, 18.646332834585873, 0.0], [73.81028416164463, 18.646106932850103, 0.0], [73.81028573515142, 18.64588103110879, 0.0], [73.81028730863567, 18.645655129361916, 0.0], [73.81028888209735, 18.6454292276095, 0.0], [73.81029045553652, 18.64520332585153, 0.0], [73.81029202895313, 18.644977424088015, 0.0], [73.81052900936699, 18.64497892378866, 0.0], [73.81053058244781, 18.644753022000113, 0.0], [73.8105321555061, 18.64452712020602, 0.0], [73.81053372854184, 18.644301218406376, 0.0], [73.81053530155505, 18.644075316601185, 0.0], [73.81029832239408, 18.644073816978434, 0.0], [73.81029989569794, 18.643847915187163, 0.0], [73.81030146897926, 18.643622013390335, 0.0], [73.81006449046724, 18.643620513507944, 0.0], [73.80982751197779, 18.643619013326976, 0.0], [73.80959053351087, 18.643617512847435, 0.0], [73.80958895928994, 18.64384341458582, 0.0], [73.80935198053237, 18.643841913788208, 0.0], [73.80935110316034, 18.643967790788352, 0.0], [73.80944066649538, 18.644016085604257, 0.0], [73.80944239447336, 18.644017064042707, 0.0], [73.80946543053898, 18.644030745863102, 0.0], [73.80946805638008, 18.644032423836034, 0.0]]], [[[73.80988534586096, 18.638208418821133, 0.0], [73.80986713762114, 18.638213193816963, 0.0], [73.8098651642273, 18.638213848106137, 0.0], [73.8098493009985, 18.638219107642726, 0.0], [73.80983191427727, 18.638226134342794, 0.0], [73.80981505376796, 18.638234243076937, 0.0], [73.8097987934709, 18.63824339825622, 0.0], [73.80978202862742, 18.638254326350626, 0.0], [73.80973707358686, 18.63828401928622, 0.0], [73.80973493405816, 18.63828535251349, 0.0], [73.80968824081107, 18.63831276486539, 0.0], [73.80968602899495, 18.63831398619585, 0.0], [73.80963785338315, 18.63833895895211, 0.0], [73.80963557571293, 18.638340064833358, 0.0], [73.80962727733252, 18.638343828850477, 0.0], [73.80962673436639, 18.63842177133286, 0.0], [73.80962516066428, 18.638647673198882, 0.0], [73.80986213224182, 18.638649173249824, 0.0], [73.81001301498885, 18.638650128195277, 0.0], [73.8100293112189, 18.638635919155902, 0.0], [73.8100467010215, 18.6386224980948, 0.0], [73.810064907443, 18.6386101001666, 0.0], [73.8100838643364, 18.6385987704038, 0.0], [73.8100936665749, 18.63859371747789, 0.0], [73.81009951814974, 18.638591176553746, 0.0], [73.8101038076435, 18.638589313930492, 0.0], [73.8101142402718, 18.63858558028759, 0.0], [73.8101249158301, 18.63858253395309, 0.0], [73.8101357845564, 18.6385801891267, 0.0], [73.8101467957882, 18.638578556738302, 0.0], [73.810157898199, 18.638577644397188, 0.0], [73.8101690400371, 18.6385774563559, 0.0], [73.810180169367, 18.638577993490895, 0.0], [73.8101912343117, 18.63857925329859, 0.0], [73.8102021832982, 18.6385812299136, 0.0], [73.8102991111699, 18.638599311417195, 0.0], [73.81033640933236, 18.638604218019665, 0.0], [73.8103969502861, 18.638612182213297, 0.0], [73.8104143344131, 18.638614544202998, 0.0], [73.81041482546146, 18.638614642303637, 0.0], [73.81041863627262, 18.63860719539923, 0.0], [73.81042595378449, 18.63859586957789, 0.0], [73.81043440058241, 18.638585282030178, 0.0], [73.81044389531904, 18.638575534719802, 0.0], [73.81045434655486, 18.638566721518547, 0.0], [73.81046565363881, 18.638558927302213, 0.0], [73.81047770767762, 18.638552227133236, 0.0], [73.81049039258447, 18.63854668553777, 0.0], [73.810503586197, 18.63854235588432, 0.0], [73.81051716145377, 18.63853927986972, 0.0], [73.81053098761794, 18.638537487117638, 0.0], [73.81054493153627, 18.638536994893226, 0.0], [73.81057385695387, 18.638537327843878, 0.0], [73.81057461955945, 18.638427769667757, 0.0], [73.81057511668595, 18.638356350593035, 0.0], [73.81055728481299, 18.638340399597933, 0.0], [73.81053795817212, 18.638325266093904, 0.0], [73.8105176273967, 18.638311379596093, 0.0], [73.8104963808721, 18.638298800473997, 0.0], [73.81047431096513, 18.63828758341362, 0.0], [73.81045151362186, 18.6382777771797, 0.0], [73.81042808795088, 18.63826942440341, 0.0], [73.81040403781765, 18.63826253332474, 0.0], [73.81033888957192, 18.63824796918455, 0.0], [73.81029474368039, 18.63823810018711, 0.0], [73.81018405995351, 18.63821965928142, 0.0], [73.81010216838165, 18.638210586119172, 0.0], [73.81007244979492, 18.638207293444598, 0.0], [73.80996038565745, 18.638201049191913, 0.0], [73.80994139507885, 18.63820111086654, 0.0], [73.80992255624754, 18.638202364058756, 0.0], [73.8099038458017, 18.638204803612624, 0.0], [73.80988534586096, 18.638208418821133, 0.0]]], [[[73.81044321169774, 18.638893838378692, 0.0], [73.81043162408294, 18.638886428005794, 0.0], [73.81042168879875, 18.638878625982475, 0.0], [73.81033450267921, 18.638878074375132, 0.0], [73.81033292987132, 18.63910397628848, 0.0], [73.8103313570409, 18.639329878196296, 0.0], [73.81009438447892, 18.639328378683924, 0.0], [73.81009281131281, 18.639554280566713, 0.0], [73.81009123812417, 18.639780182443946, 0.0], [73.8103282113124, 18.63978168199527, 0.0], [73.81032663841432, 18.640007583886433, 0.0], [73.8105636119382, 18.64000908315872, 0.0], [73.81056284013174, 18.6401199520145, 0.0], [73.81056517103, 18.640119657609862, 0.0], [73.81057911678052, 18.640119211373992, 0.0], [73.81059304126104, 18.640120070343656, 0.0], [73.81060681037154, 18.64012222624655, 0.0], [73.81062029150823, 18.64012565832021, 0.0], [73.81063335484068, 18.640130333511976, 0.0], [73.81078888554619, 18.64019446228548, 0.0], [73.81079928020512, 18.64019812050246, 0.0], [73.81080055784048, 18.6400145539799, 0.0], [73.81079993905774, 18.640010578043928, 0.0], [73.81077123598345, 18.639826148712377, 0.0], [73.81077110968175, 18.63982527904373, 0.0], [73.81076560352135, 18.63978444900112, 0.0], [73.81074290240241, 18.63961611236096, 0.0], [73.81074264738713, 18.63961371907338, 0.0], [73.81073830725012, 18.639558364475263, 0.0], [73.81073665005867, 18.63953722846256, 0.0], [73.81073651961299, 18.639534206963948, 0.0], [73.8107359032418, 18.63945750524229, 0.0], [73.81073598511374, 18.639454482193077, 0.0], [73.81074075245374, 18.639377912970332, 0.0], [73.81074104627622, 18.639374901913428, 0.0], [73.81074669012412, 18.639332505616014, 0.0], [73.81075117596289, 18.639298808205275, 0.0], [73.81075168041939, 18.639295822629407, 0.0], [73.81076712706664, 18.639220545320757, 0.0], [73.81076777919147, 18.639217818257283, 0.0], [73.81077238562463, 18.63920097865183, 0.0], [73.81077313980417, 18.639198511286242, 0.0], [73.81077874317702, 18.639181948600772, 0.0], [73.81077964330144, 18.639179526105004, 0.0], [73.81078622548392, 18.63916329392792, 0.0], [73.81078726864102, 18.63916092413942, 0.0], [73.81079480833651, 18.639145074989404, 0.0], [73.81079599115093, 18.639142765576057, 0.0], [73.81080442651671, 18.63912741886255, 0.0], [73.81080676196834, 18.639123134485068, 0.0], [73.81080687443668, 18.639106974378787, 0.0], [73.81080789156427, 18.638960826809075, 0.0], [73.81077573565153, 18.638959379232944, 0.0], [73.81076628485022, 18.638958652080973, 0.0], [73.81067663439491, 18.638948876894407, 0.0], [73.81066725544457, 18.638947550913052, 0.0], [73.81057848774421, 18.63893210161956, 0.0], [73.81057111961587, 18.638930575639275, 0.0], [73.81056922235214, 18.63893018270537, 0.0], [73.81048173214222, 18.63890912800613, 0.0], [73.81046838695329, 18.638905243296794, 0.0], [73.81045550545309, 18.63890013034075, 0.0], [73.81044321169774, 18.638893838378692, 0.0]]], [[[73.81035065419972, 18.640459559516245, 0.0], [73.81032994778653, 18.640459428497692, 0.0], [73.8103274743092, 18.64046229077229, 0.0], [73.81032343475275, 18.640467688358605, 0.0], [73.81032191958487, 18.64068528952663, 0.0], [73.81032140370682, 18.640759376779556, 0.0], [73.8103338680871, 18.6407873388226, 0.0], [73.8103598718172, 18.640857270874296, 0.0], [73.81037621186894, 18.640911544884617, 0.0], [73.81055732137308, 18.64091269074576, 0.0], [73.81055574867545, 18.64113859262865, 0.0], [73.81055417595528, 18.64136449450599, 0.0], [73.81072094954344, 18.6413655495356, 0.0], [73.81072262108134, 18.64136406355931, 0.0], [73.81074744368253, 18.641343462195085, 0.0], [73.81074995738575, 18.641341515802047, 0.0], [73.8107761978191, 18.641322578395528, 0.0], [73.81077884508422, 18.64132080017952, 0.0], [73.81079152102012, 18.641312889142615, 0.0], [73.81080638084207, 18.64130361514286, 0.0], [73.81080914931003, 18.641302013405724, 0.0], [73.81083785183785, 18.64128666096967, 0.0], [73.81084072858309, 18.641285243189625, 0.0], [73.81087046387889, 18.641271795028874, 0.0], [73.81087483164652, 18.641270068509783, 0.0], [73.81096456635099, 18.64123950285296, 0.0], [73.81096762349756, 18.641238571521296, 0.0], [73.81102913935855, 18.64122199731306, 0.0], [73.81102969892227, 18.64114159047232, 0.0], [73.81126667407948, 18.641143088946354, 0.0], [73.81126783196338, 18.640976671662905, 0.0], [73.81124989359343, 18.64094182005522, 0.0], [73.81123480123968, 18.640916975544144, 0.0], [73.81109703707261, 18.640690192563714, 0.0], [73.8110328430424, 18.64068978662313, 0.0], [73.81079586853402, 18.64068828788949, 0.0], [73.81055889404817, 18.640686788857323, 0.0], [73.81055986854734, 18.640546808410527, 0.0], [73.81040481666808, 18.640493323982795, 0.0], [73.81039194440825, 18.640488189651016, 0.0], [73.81037966205163, 18.640481877290934, 0.0], [73.81036808788417, 18.640474447694174, 0.0], [73.81035733337151, 18.640465972411945, 0.0], [73.81035065419972, 18.640459559516245, 0.0]]], [[[73.81092317043888, 18.63920338927349, 0.0], [73.81091785807338, 18.639214556379272, 0.0], [73.81091322035972, 18.63922599336074, 0.0], [73.81090927230315, 18.63923766321378, 0.0], [73.81090605676752, 18.63924941818231, 0.0], [73.81089180558871, 18.639318869795176, 0.0], [73.81088986983637, 18.63933341116603, 0.0], [73.81088247490796, 18.63938896183683, 0.0], [73.81087808363591, 18.6394594918846, 0.0], [73.81087865145082, 18.639530143977233, 0.0], [73.8108809348611, 18.639559266549373, 0.0], [73.81088420002608, 18.63960091039191, 0.0], [73.81090907374231, 18.639785356392718, 0.0], [73.8110391310123, 18.63978617885818, 0.0], [73.81124234921174, 18.63978746380386, 0.0], [73.81124233276338, 18.63978733368958, 0.0], [73.81124147616033, 18.639777779878685, 0.0], [73.81124097766684, 18.63976839634926, 0.0], [73.81124081740485, 18.639758808921595, 0.0], [73.8112410020175, 18.639749415015054, 0.0], [73.8112415388664, 18.639739840037088, 0.0], [73.81124187771394, 18.639735256043785, 0.0], [73.81125781723352, 18.63956164968946, 0.0], [73.81126613429944, 18.639471063614856, 0.0], [73.81127484785122, 18.63937500335935, 0.0], [73.81127681782228, 18.639335857899955, 0.0], [73.81127963740609, 18.639279829663742, 0.0], [73.8112800941149, 18.63921418146071, 0.0], [73.8112746830682, 18.639197948017504, 0.0], [73.81125757922005, 18.639156270157773, 0.0], [73.8112376614309, 18.639115743953642, 0.0], [73.81123415613845, 18.639109676264056, 0.0], [73.81104384675315, 18.639108472976194, 0.0], [73.81097028687783, 18.639108007820322, 0.0], [73.81096624010513, 18.639118516020993, 0.0], [73.81096511013959, 18.639121184301754, 0.0], [73.81094925594145, 18.63915543732644, 0.0], [73.81094795009247, 18.63915803162737, 0.0], [73.81092984079403, 18.63919125312069, 0.0], [73.81092976613873, 18.639191389507776, 0.0], [73.81092317043888, 18.63920338927349, 0.0]]], [[[73.81103755905362, 18.64001208080774, 0.0], [73.8110359870724, 18.640237982751753, 0.0], [73.81127296097704, 18.640239481147955, 0.0], [73.81127453264511, 18.64001357918448, 0.0], [73.81103755905362, 18.64001208080774, 0.0]]], [[[73.81286784955212, 18.643368746266557, 0.0], [73.81287051627308, 18.643367537406395, 0.0], [73.8128959590382, 18.643356917142842, 0.0], [73.8128986995517, 18.643355868926985, 0.0], [73.8129102259787, 18.643351852859062, 0.0], [73.81291100590758, 18.64323961654928, 0.0], [73.81288882848258, 18.643186545988097, 0.0], [73.81267439556974, 18.643185191793155, 0.0], [73.81243741745888, 18.643183694935402, 0.0], [73.8124358470414, 18.643409596918424, 0.0], [73.81219886863984, 18.643408099742665, 0.0], [73.81219729788667, 18.643634001700697, 0.0], [73.81219585808547, 18.643841067609888, 0.0], [73.81243314735184, 18.643797935268584, 0.0], [73.81243427660144, 18.6436354988959, 0.0], [73.81255156607386, 18.643636239802294, 0.0], [73.81255284162064, 18.643625489021392, 0.0], [73.81255327131706, 18.643622667705106, 0.0], [73.81255583164582, 18.643608922452927, 0.0], [73.8125564471445, 18.64360613258708, 0.0], [73.81255991175983, 18.643592568623912, 0.0], [73.81256071061047, 18.643589821314738, 0.0], [73.81256506571813, 18.643576492644947, 0.0], [73.81256606045419, 18.643573759691527, 0.0], [73.8125680162798, 18.643568895013846, 0.0], [73.81256921078807, 18.64356619026051, 0.0], [73.81257149378163, 18.64356145687957, 0.0], [73.81257286996842, 18.64355883175401, 0.0], [73.81257547049812, 18.643554249639333, 0.0], [73.812577022558, 18.643551715215384, 0.0], [73.81257992965246, 18.64354730369854, 0.0], [73.81258165103667, 18.64354487066981, 0.0], [73.81258485243102, 18.64354064836238, 0.0], [73.81258673587912, 18.64353832699106, 0.0], [73.81259021806733, 18.643534311706535, 0.0], [73.8125922556307, 18.643532111789384, 0.0], [73.81259600392151, 18.643528320467766, 0.0], [73.81259818700556, 18.643526251283987, 0.0], [73.81260218558538, 18.643522699920457, 0.0], [73.81260450497957, 18.64352077020018, 0.0], [73.81260873697899, 18.643517473777422, 0.0], [73.81261118289798, 18.643515691661943, 0.0], [73.81261563046243, 18.64351266408736, 0.0], [73.81261819258647, 18.643511037095642, 0.0], [73.81262283695233, 18.64350829114201, 0.0], [73.81262550447394, 18.643506826137028, 0.0], [73.8126303260471, 18.64350437338944, 0.0], [73.8126305540417, 18.64350425816699, 0.0], [73.8126723236869, 18.643483287543805, 0.0], [73.81267282546548, 18.64341109379561, 0.0], [73.8127898920248, 18.643411833137765, 0.0], [73.81280204522501, 18.643404050883426, 0.0], [73.8128043243457, 18.643402679458262, 0.0], [73.81284067816314, 18.64338215828224, 0.0], [73.81284314992595, 18.643380856217387, 0.0], [73.81286784955212, 18.643368746266557, 0.0]]], [[[73.81285215212493, 18.644156947924383, 0.0], [73.81284179792438, 18.6441514473775, 0.0], [73.81283108049819, 18.644146620259047, 0.0], [73.81282004797816, 18.644142488247493, 0.0], [73.81281853664994, 18.644142030979452, 0.0], [73.81281279958327, 18.644146092830066, 0.0], [73.81280482374946, 18.64415065702189, 0.0], [73.8127964170146, 18.6441544540104, 0.0], [73.81266730362739, 18.644205533927984, 0.0], [73.8126665448234, 18.644314701749945, 0.0], [73.81290352452281, 18.644316198406287, 0.0], [73.81290432117038, 18.64420156319764, 0.0], [73.81288901491993, 18.644185128163013, 0.0], [73.81288057976943, 18.64417722866499, 0.0], [73.81287158668744, 18.644169867578913, 0.0], [73.81286209659943, 18.644163097196937, 0.0], [73.81285215212493, 18.644156947924383, 0.0]]], [[[73.81290038469321, 18.644768002389014, 0.0], [73.81289881474466, 18.64499390437206, 0.0], [73.81313579540624, 18.644995400788094, 0.0], [73.81313422574843, 18.645221302785018, 0.0], [73.81313265606812, 18.64544720477639, 0.0], [73.81313108636533, 18.645673106762207, 0.0], [73.81336806798912, 18.64567460293792, 0.0], [73.81360504963538, 18.645676098815013, 0.0], [73.8136066187117, 18.64545019679035, 0.0], [73.81360773172291, 18.645289953103475, 0.0], [73.813563968702, 18.645224015669452, 0.0], [73.81337120674573, 18.645222798921882, 0.0], [73.8133727760903, 18.644996896905532, 0.0], [73.81337318926468, 18.644937421267663, 0.0], [73.81331508570099, 18.644839098364844, 0.0], [73.81327206472432, 18.64477034920463, 0.0], [73.81313736504156, 18.64476949878562, 0.0], [73.81313883841331, 18.64455744808918, 0.0], [73.81313013598141, 18.644543541224955, 0.0], [73.81298820760358, 18.644316733153783, 0.0], [73.81290352452281, 18.644316198406287, 0.0], [73.81290195461926, 18.64454210040042, 0.0], [73.81290038469321, 18.644768002389014, 0.0]]], [[[73.8138404625186, 18.645903496432037, 0.0], [73.81383889371057, 18.64612939846502, 0.0], [73.81383732488005, 18.64635530049246, 0.0], [73.81383575602707, 18.64658120251434, 0.0], [73.81388167125121, 18.646581492261806, 0.0], [73.81393087663517, 18.64653362926053, 0.0], [73.81397693439246, 18.646482237795656, 0.0], [73.81404813901275, 18.646393646693934, 0.0], [73.81407429262659, 18.646358939516805, 0.0], [73.81407430751105, 18.646356795830567, 0.0], [73.81407590042886, 18.646356805880718, 0.0], [73.81409059266862, 18.64633730852163, 0.0], [73.81409121746243, 18.646336498560743, 0.0], [73.81409682729767, 18.64632939318058, 0.0], [73.81409885314399, 18.64632700118482, 0.0], [73.81410495687682, 18.646320275898283, 0.0], [73.81410714867305, 18.646318020761548, 0.0], [73.81411371804481, 18.646311706704502, 0.0], [73.81411606564491, 18.646309598865955, 0.0], [73.81412307024145, 18.646303725270784, 0.0], [73.81412556277529, 18.64630177449041, 0.0], [73.8141329701674, 18.646296368549795, 0.0], [73.81413559609645, 18.646294583858133, 0.0], [73.81414337199024, 18.646289670599945, 0.0], [73.81414611915731, 18.64628806025963, 0.0], [73.81415422755283, 18.646283662430847, 0.0], [73.81415708323881, 18.646282233897633, 0.0], [73.81416548659656, 18.64627837185886, 0.0], [73.81416843758007, 18.64627713174655, 0.0], [73.81417709699515, 18.646273823377637, 0.0], [73.8141801296154, 18.646272777427, 0.0], [73.81418900499743, 18.646270038044875, 0.0], [73.81419210521253, 18.64626919109894, 0.0], [73.81420115547127, 18.646267033385868, 0.0], [73.81420430893046, 18.646266389365138, 0.0], [73.81421349216599, 18.64626482331091, 0.0], [73.81421668426766, 18.64626438519748, 0.0], [73.81422595796442, 18.64626341805229, 0.0], [73.81422876405495, 18.646263205563827, 0.0], [73.81428751260765, 18.646260427131974, 0.0], [73.81428991665258, 18.646260371658183, 0.0], [73.81431196974843, 18.64626039621645, 0.0], [73.81434873742573, 18.64626043715509, 0.0], [73.8143511413284, 18.646260497982553, 0.0], [73.81440969987294, 18.646263398174717, 0.0], [73.81445166066752, 18.646265166260715, 0.0], [73.81449226623401, 18.646264313252825, 0.0], [73.81453272363068, 18.646260901247732, 0.0], [73.81454897589859, 18.646258489221687, 0.0], [73.8145498407312, 18.646133883525245, 0.0], [73.81478682311635, 18.646135377948077, 0.0], [73.81492319541242, 18.6461362377832, 0.0], [73.81498607923616, 18.646108798222127, 0.0], [73.81498667157707, 18.64610854441647, 0.0], [73.81500762487163, 18.646099730350834, 0.0], [73.81501064008748, 18.64609857798297, 0.0], [73.8150241034007, 18.64609393638787, 0.0], [73.81503217752268, 18.64609115276303, 0.0], [73.81503526846237, 18.64609019998013, 0.0], [73.81505728886765, 18.64608419848524, 0.0], [73.81506044101182, 18.646083449762852, 0.0], [73.81508284094797, 18.646078900184598, 0.0], [73.81508603949005, 18.646078359039755, 0.0], [73.81510871373504, 18.646075282749614, 0.0], [73.81511194364947, 18.64607495172439, 0.0], [73.81513478864828, 18.646073362967417, 0.0], [73.81517086387449, 18.646070856269, 0.0], [73.81520506877501, 18.646066221803192, 0.0], [73.81523886121468, 18.646059368836728, 0.0], [73.81526137840224, 18.646053242089707, 0.0], [73.81526235488255, 18.645912463748473, 0.0], [73.81526321605348, 18.645788308417497, 0.0], [73.81518955608979, 18.645686092870278, 0.0], [73.81502693998503, 18.645685067806713, 0.0], [73.81479477329607, 18.645683604081707, 0.0], [73.81478993863605, 18.645686393730028, 0.0], [73.81458233907422, 18.64580618059272, 0.0], [73.81458007351615, 18.64580740801583, 0.0], [73.81456466515776, 18.64581522970618, 0.0], [73.81456187022631, 18.64581653802921, 0.0], [73.81455201384982, 18.6458207746953, 0.0], [73.81455140859948, 18.645907981434032, 0.0], [73.81431442655004, 18.645906486731985, 0.0], [73.81407744452308, 18.645904991731317, 0.0], [73.81407822887074, 18.645792025047356, 0.0], [73.81404089536827, 18.645787796910547, 0.0], [73.81398060165505, 18.645785008499, 0.0], [73.81392025071818, 18.645786233982378, 0.0], [73.81386013626768, 18.645791467396528, 0.0], [73.81384122019386, 18.645794393084508, 0.0], [73.8138404625186, 18.645903496432037, 0.0]]], [[[73.81406708592662, 18.647396825893217, 0.0], [73.81406803321728, 18.647260403962463, 0.0], [73.81387722806645, 18.64725919996719, 0.0], [73.81385276045374, 18.647273149772168, 0.0], [73.81385005845586, 18.647274578408947, 0.0], [73.8138337917976, 18.647282529627823, 0.0], [73.81383087620146, 18.647283836835676, 0.0], [73.81382948039032, 18.64748481054638, 0.0], [73.81392628534401, 18.647485421448245, 0.0], [73.81406708592662, 18.647396825893217, 0.0]]], [[[73.81425580096641, 18.645228381009343, 0.0], [73.81422430227649, 18.645249418710865, 0.0], [73.81422295445043, 18.64525022793897, 0.0], [73.81422166422217, 18.645251118400164, 0.0], [73.81421902083784, 18.64525258966043, 0.0], [73.81421643078018, 18.645254144718116, 0.0], [73.81421500623595, 18.645254824115682, 0.0], [73.81421363065941, 18.64525558973682, 0.0], [73.81421084872234, 18.645256806928444, 0.0], [73.81420811123877, 18.64525811249654, 0.0], [73.8142066236955, 18.645258655520593, 0.0], [73.81420517601826, 18.64525928892831, 0.0], [73.81419440350588, 18.645263404975854, 0.0], [73.81418828983372, 18.645265512005793, 0.0], [73.81417724670622, 18.64526891455019, 0.0], [73.81417099591218, 18.645270617187794, 0.0], [73.81415973410738, 18.645273290226136, 0.0], [73.81415337559264, 18.64527458046288, 0.0], [73.81414194807716, 18.645276511423457, 0.0], [73.81413551174509, 18.645277383191573, 0.0], [73.81412397226462, 18.64527856299265, 0.0], [73.81411748838741, 18.64527901219188, 0.0], [73.81410589121435, 18.64527943528465, 0.0], [73.8140993902867, 18.645279459802346, 0.0], [73.8140877899648, 18.645279124196936, 0.0], [73.81408179253043, 18.64527875414932, 0.0], [73.81408058144521, 18.645453187609874, 0.0], [73.81407924045267, 18.64564632945835, 0.0], [73.81412924264094, 18.64565247959539, 0.0], [73.81413219314634, 18.645652933061037, 0.0], [73.81419221389619, 18.645664018777772, 0.0], [73.814192656636, 18.64566410263796, 0.0], [73.81427626569301, 18.645680334047967, 0.0], [73.81431599470909, 18.645680584654627, 0.0], [73.81450494324064, 18.645681776408114, 0.0], [73.81450604314836, 18.64568121806598, 0.0], [73.81455317022994, 18.645654157768284, 0.0], [73.81471085806483, 18.645563613503292, 0.0], [73.81479114010477, 18.64551324407795, 0.0], [73.81479152571403, 18.645457671599583, 0.0], [73.81479309320166, 18.645231769472318, 0.0], [73.81479375185145, 18.64513684565704, 0.0], [73.8146989303572, 18.64500526373052, 0.0], [73.81459088234395, 18.645004582396076, 0.0], [73.81455752377067, 18.64502686241924, 0.0], [73.81431942872216, 18.645185884550674, 0.0], [73.81431913095979, 18.64522878048326, 0.0], [73.81425580096641, 18.645228381009343, 0.0]]], [[[73.81530839841625, 18.646162595296573, 0.0], [73.8152701858438, 18.64617299263277, 0.0], [73.81526703915804, 18.646173738865812, 0.0], [73.81526053344255, 18.646175058198278, 0.0], [73.81522817024127, 18.64618162131929, 0.0], [73.81522497739451, 18.646182160716897, 0.0], [73.81518563405416, 18.646187491395104, 0.0], [73.81518240998989, 18.646187821432754, 0.0], [73.81514277786268, 18.64619057528231, 0.0], [73.8151235021232, 18.64619191581185, 0.0], [73.81510597554534, 18.646194293698127, 0.0], [73.81508866100093, 18.646197810396107, 0.0], [73.81507163982408, 18.646202449386397, 0.0], [73.81505499197044, 18.646208188877694, 0.0], [73.8150376058476, 18.646215502399397, 0.0], [73.81502321644342, 18.64622178126779, 0.0], [73.81502223825974, 18.646362774196756, 0.0], [73.81478525553887, 18.646361280053146, 0.0], [73.81464262615916, 18.646360380650417, 0.0], [73.81464190541732, 18.64636055617197, 0.0], [73.8145973747309, 18.646370077917766, 0.0], [73.81459429220811, 18.646370635584503, 0.0], [73.8145491982247, 18.646377328056783, 0.0], [73.8145481502393, 18.646377449879093, 0.0], [73.81454608375074, 18.646377690096553, 0.0], [73.8145006240727, 18.646381523969183, 0.0], [73.81449749129473, 18.6463816887956, 0.0], [73.81445186512654, 18.64638264726849, 0.0], [73.81444872777274, 18.64638261415928, 0.0], [73.81440313504898, 18.646380693032604, 0.0], [73.81440276890805, 18.646380676252075, 0.0], [73.81434666933177, 18.646377897849685, 0.0], [73.81431115432702, 18.646377858309158, 0.0], [73.81429169689096, 18.646377836643435, 0.0], [73.8142369970142, 18.646380423604494, 0.0], [73.8142326504526, 18.64638087690306, 0.0], [73.81422854844237, 18.6463815764352, 0.0], [73.81422450583108, 18.646382540252134, 0.0], [73.8142205413348, 18.646383763891738, 0.0], [73.81421667330724, 18.646385241689135, 0.0], [73.81421291965687, 18.646386966802293, 0.0], [73.81420929776243, 18.64638893124424, 0.0], [73.81420582439124, 18.646391125920793, 0.0], [73.81420251562386, 18.64639354067121, 0.0], [73.81419938677958, 18.646396164315558, 0.0], [73.8141964523441, 18.646398984706956, 0.0], [73.81419372590267, 18.646401988788277, 0.0], [73.8141905669869, 18.64640598985253, 0.0], [73.81414760369564, 18.64646300436523, 0.0], [73.81414673240175, 18.64646412376278, 0.0], [73.81407365593175, 18.646555043845204, 0.0], [73.814072925009, 18.646555904784453, 0.0], [73.81407273897133, 18.64658269787187, 0.0], [73.81430972193806, 18.64658419293076, 0.0], [73.81430815368913, 18.646810094985923, 0.0], [73.81430658541771, 18.64703599703553, 0.0], [73.81419058174573, 18.64703526522125, 0.0], [73.8141903273405, 18.647036019160993, 0.0], [73.81419014475804, 18.647036420284692, 0.0], [73.81418999588168, 18.647036833869013, 0.0], [73.81418921939125, 18.647038453264916, 0.0], [73.81418847590078, 18.64704008667274, 0.0], [73.81418825295181, 18.647040468805542, 0.0], [73.81418806226537, 18.647040866488265, 0.0], [73.81418712299896, 18.647042405535903, 0.0], [73.81418621513286, 18.64704396161127, 0.0], [73.8141859539645, 18.647044321073025, 0.0], [73.81418572330439, 18.647044699024246, 0.0], [73.81418463030766, 18.647046142901722, 0.0], [73.81418356680913, 18.647047606658806, 0.0], [73.81418326993658, 18.647047939987704, 0.0], [73.81418300152419, 18.647048294567533, 0.0], [73.8141817653233, 18.647049629369516, 0.0], [73.81418055643442, 18.64705098671152, 0.0], [73.81418022671672, 18.647051290697426, 0.0], [73.81417992313699, 18.647051618491062, 0.0], [73.8141785556372, 18.647052831362675, 0.0], [73.81417721300025, 18.647054069217635, 0.0], [73.81415582572671, 18.64707193684937, 0.0], [73.81415546633818, 18.647072208565426, 0.0], [73.81415513051375, 18.647072506416805, 0.0], [73.8141536448855, 18.64707358567644, 0.0], [73.8141521814315, 18.6470746921222, 0.0], [73.81415179583418, 18.64707492895085, 0.0], [73.81415143100016, 18.64707519399064, 0.0], [73.81414984155035, 18.647076129245466, 0.0], [73.81414827137249, 18.647077093627377, 0.0], [73.81414786327991, 18.64707729328782, 0.0], [73.81414747294987, 18.64707752296355, 0.0], [73.8141457949857, 18.647078305206577, 0.0], [73.81414413320577, 18.64707911823707, 0.0], [73.81414370654811, 18.647079278806448, 0.0], [73.8141432944811, 18.647079470906224, 0.0], [73.81414154416225, 18.64708009260403, 0.0], [73.8141398067841, 18.647080746453163, 0.0], [73.81413936567033, 18.64708086638512, 0.0], [73.81413893583476, 18.64708101905892, 0.0], [73.8141371300179, 18.647081474224173, 0.0], [73.81413533377336, 18.64708196259505, 0.0], [73.8141348824516, 18.647082040734574, 0.0], [73.8141344389871, 18.647082152512045, 0.0], [73.81413259506323, 18.647082436761263, 0.0], [73.8141307572511, 18.6470827549506, 0.0], [73.81413030006784, 18.64708279054518, 0.0], [73.8141298472452, 18.647082860349837, 0.0], [73.81412798297232, 18.647082970945547, 0.0], [73.8141261212918, 18.647083115889007, 0.0], [73.81412566264999, 18.64708310859582, 0.0], [73.81412520483009, 18.647083135755427, 0.0], [73.81412333816213, 18.647083071632547, 0.0], [73.81412147054228, 18.647083041934213, 0.0], [73.81412101485887, 18.64708299182352, 0.0], [73.8141205564508, 18.647082976076497, 0.0], [73.81411870536483, 18.64708273785256, 0.0], [73.81411684979184, 18.647082533798475, 0.0], [73.81411640145534, 18.647082441352858, 0.0], [73.81411594687383, 18.647082382850858, 0.0], [73.81411412919682, 18.647081972820096, 0.0], [73.81411230354088, 18.6470815963754, 0.0], [73.814111866869, 18.647081462485165, 0.0], [73.81411142049194, 18.647081361791606, 0.0], [73.81410965372912, 18.647080783902823, 0.0], [73.8141078755723, 18.6470802386929, 0.0], [73.81410745477046, 18.647080064647493, 0.0], [73.81410702089664, 18.647079922732104, 0.0], [73.8141053220629, 18.64707918255068, 0.0], [73.8141036085299, 18.647078473826216, 0.0], [73.8141032076506, 18.64707826130177, 0.0], [73.81410279045855, 18.647078079531287, 0.0], [73.81410117591464, 18.647077184185616, 0.0], [73.81409954350765, 18.64707631877198, 0.0], [73.81409916641162, 18.647076069815235, 0.0], [73.81409876991908, 18.647075849940205, 0.0], [73.81409725521395, 18.64707480805295, 0.0], [73.81409571965395, 18.647073794284577, 0.0], [73.8140953699728, 18.647073511293122, 0.0], [73.81409499799824, 18.647073255431046, 0.0], [73.81409359771934, 18.64707207703617, 0.0], [73.8140921737946, 18.647070924676207, 0.0], [73.81409185489598, 18.6470706103754, 0.0], [73.81409151102169, 18.64707032099039, 0.0], [73.81409023865443, 18.647069017436454, 0.0], [73.81408894007818, 18.647067737582777, 0.0], [73.81408865503326, 18.64706739499951, 0.0], [73.81408834257095, 18.647067074878503, 0.0], [73.81406952344828, 18.647045789311225, 0.0], [73.81406803321728, 18.647260403962463, 0.0], [73.81427666238899, 18.647261720207016, 0.0], [73.81430514683747, 18.64724321483603, 0.0], [73.81434500752357, 18.647217318698473, 0.0], [73.81446010127901, 18.64713418610124, 0.0], [73.81454328350354, 18.647078628933667, 0.0], [73.81454356903345, 18.64703749183461, 0.0], [73.81460430191392, 18.647037874865546, 0.0], [73.81472373895708, 18.6469581029976, 0.0], [73.81478138880607, 18.64691849738884, 0.0], [73.81478212031652, 18.646813084246627, 0.0], [73.81493275054997, 18.646814034006375, 0.0], [73.81501952686901, 18.646753580619507, 0.0], [73.81502067097307, 18.64658867631567, 0.0], [73.81525765402965, 18.64659017018005, 0.0], [73.81525990890808, 18.646590184392636, 0.0], [73.81531462335981, 18.646553232981976, 0.0], [73.81545870332556, 18.646457894877727, 0.0], [73.81549572946429, 18.64643415354829, 0.0], [73.81549620376886, 18.646365761588097, 0.0], [73.81549777040655, 18.646139859424846, 0.0], [73.81537260764526, 18.646139070652787, 0.0], [73.81535160940582, 18.646147743068283, 0.0], [73.81534886159253, 18.646148782165074, 0.0], [73.81531148421324, 18.64616164572076, 0.0], [73.81530839841625, 18.646162595296573, 0.0]]]]}, "properties": {"site_id": "EMU_Narmada_valley", "name": "EMU_Narmada_valley", "n_member_parcels": 165}}]}