{"type": "FeatureCollection", "features": [{"type": "Feature", "geometry": {"type": "Polygon", "coordinates": [[[73.8127588683206, 18.6450307471377, 0.0], [73.8127638981803, 18.645188447723303, 0.0], [73.81276368608141, 18.645218962850794, 0.0], [73.81289724477361, 18.64521980634955, 0.0], [73.81289601005143, 18.64539746733685, 0.0], [73.81294232806363, 18.645446002944468, 0.0], [73.8129428210365, 18.645446519519485, 0.0], [73.8130517246116, 18.6456428333484, 0.0], [73.81306863068582, 18.645672712400582, 0.0], [73.81313108636533, 18.645673106762207, 0.0], [73.81313265606812, 18.64544720477639, 0.0], [73.81313422574843, 18.645221302785018, 0.0], [73.81313579540624, 18.644995400788094, 0.0], [73.81289881474466, 18.64499390437206, 0.0], [73.81276392750534, 18.644993052492232, 0.0], [73.8127588683206, 18.6450307471377, 0.0]]]}, "properties": {"site_id": "SEG60", "name": "SEG60", "n_member_parcels": 4}}]}