{"type": "FeatureCollection", "features": [{"type": "Feature", "geometry": {"type": "Polygon", "coordinates": [[[73.81221558363166, 18.6410039887729, 0.0], [73.81220966669777, 18.64100667600476, 0.0], [73.81220721761022, 18.64100770840104, 0.0], [73.81217995418324, 18.641018333831585, 0.0], [73.81217723287973, 18.641019302730232, 0.0], [73.81215799581896, 18.64102551851463, 0.0], [73.81215499802265, 18.641026382989565, 0.0], [73.81213537232054, 18.64103137406536, 0.0], [73.8121323211769, 18.64103204791592, 0.0], [73.8121123925324, 18.641035792488793, 0.0], [73.81210930136466, 18.64103627277255, 0.0], [73.8120891567996, 18.641038754491202, 0.0], [73.81208603910602, 18.64103903911088, 0.0], [73.81206576658464, 18.641040247138605, 0.0], [73.81206263597886, 18.641040334851407, 0.0], [73.8120423240248, 18.6410402639131, 0.0], [73.81203919417729, 18.641040154336018, 0.0], [73.8120189314858, 18.641038804741463, 0.0], [73.81201581606368, 18.641038498353, 0.0], [73.8119956911152, 18.641035875995524, 0.0], [73.81199260372239, 18.64103537413358, 0.0], [73.81197839921188, 18.641032601898175, 0.0], [73.81197759968626, 18.641147582577243, 0.0], [73.81197665963649, 18.64128277111422, 0.0], [73.81204313877751, 18.641306951549407, 0.0], [73.8120455906623, 18.64130791917014, 0.0], [73.81219478264367, 18.641371517107952, 0.0], [73.81219711419942, 18.64137258471046, 0.0], [73.81220185933905, 18.641374911458698, 0.0], [73.81221300440546, 18.641374981870662, 0.0], [73.81221457493353, 18.641149079857133, 0.0], [73.81221558363166, 18.6410039887729, 0.0]]]}, "properties": {"site_id": "SEG82", "name": "SEG82", "n_member_parcels": 2}}]}