{"type": "FeatureCollection", "features": [{"type": "Feature", "geometry": {"type": "Polygon", "coordinates": [[[73.81222713834788, 18.63934186354918, 0.0], [73.81246411111258, 18.639343360375026, 0.0], [73.81246428497158, 18.63931834473739, 0.0], [73.81245679070479, 18.63930040731856, 0.0], [73.81245568335741, 18.63929746457256, 0.0], [73.81244556553834, 18.639267335158085, 0.0], [73.81244467431831, 18.639264326456967, 0.0], [73.81243676640554, 18.639233602170727, 0.0], [73.81243609557981, 18.639230541920135, 0.0], [73.81243043543535, 18.639199369870905, 0.0], [73.81242998821573, 18.639196272723122, 0.0], [73.81242660293934, 18.639164802163567, 0.0], [73.81242638146706, 18.639161682948497, 0.0], [73.81242528726587, 18.639130064560504, 0.0], [73.81242529260116, 18.639126938212417, 0.0], [73.81242566267314, 18.639117205541606, 0.0], [73.81229050068465, 18.639116351815893, 0.0], [73.81228103636641, 18.639127990181876, 0.0], [73.81225252801686, 18.639168507237642, 0.0], [73.81222806168567, 18.639209035484477, 0.0], [73.81222713834788, 18.63934186354918, 0.0]]]}, "properties": {"site_id": "SEG130", "name": "SEG130", "n_member_parcels": 1}}]}