{"type": "FeatureCollection", "features": [{"type": "Feature", "geometry": {"type": "Polygon", "coordinates": [[[73.80653926952397, 18.6393816205602, 0.0], [73.80657803901398, 18.63953200450543, 0.0], [73.80663637536301, 18.639758286374676, 0.0], [73.80677361585869, 18.639759157381864, 0.0], [73.80701058873082, 18.639760661112327, 0.0], [73.80700901144897, 18.6399865627305, 0.0], [73.80724598465684, 18.639988066181978, 0.0], [73.80748295788732, 18.63998956933494, 0.0], [73.80748138120913, 18.640215470986607, 0.0], [73.80771835477533, 18.640216973860568, 0.0], [73.80795532836413, 18.640218476436022, 0.0], [73.80795690441605, 18.639992574745325, 0.0], [73.80771993114038, 18.639991072189392, 0.0], [73.80772150748287, 18.639765170512653, 0.0], [73.80748453454291, 18.639763667677723, 0.0], [73.80724756162557, 18.63976216454428, 0.0], [73.80724913857169, 18.639536262901032, 0.0], [73.80701216599007, 18.639534759488605, 0.0], [73.80677519343105, 18.63953325577767, 0.0], [73.80677677098082, 18.639307354167933, 0.0], [73.80653979875753, 18.639305850178026, 0.0], [73.80653926952397, 18.6393816205602, 0.0]]]}, "properties": {"site_id": "SEG26", "name": "SEG26", "n_member_parcels": 9}}]}