{"type": "FeatureCollection", "features": [{"type": "Feature", "geometry": {"type": "MultiPolygon", "coordinates": [[[[73.80907103734017, 18.635029575085003, 0.0], [73.80893938162946, 18.635036776182623, 0.0], [73.80884515649522, 18.63504192990409, 0.0], [73.80870227253955, 18.635055733525565, 0.0], [73.80846513586431, 18.63507864239401, 0.0], [73.808348261098, 18.63508993310581, 0.0], [73.80822795364325, 18.63510807609464, 0.0], [73.80799072713076, 18.635143850845342, 0.0], [73.80798999628891, 18.635248637958806, 0.0], [73.80775302958797, 18.635247135812634, 0.0], [73.80754379804893, 18.635245809233115, 0.0], [73.8075849588741, 18.635471981988736, 0.0], [73.80758865705494, 18.63549230293036, 0.0], [73.80768129903679, 18.635698504591854, 0.0], [73.8077498777841, 18.63569893938251, 0.0], [73.80774928578234, 18.635783799977798, 0.0], [73.80786318090553, 18.635925569447167, 0.0], [73.80798526948834, 18.63592634336384, 0.0], [73.80798422400314, 18.636076235944405, 0.0], [73.80802168014924, 18.63612285882795, 0.0], [73.80805232087569, 18.636152680149852, 0.0], [73.80822066181868, 18.6361537470802, 0.0], [73.80821953436255, 18.636315421695542, 0.0], [73.8082297474507, 18.636325361631506, 0.0], [73.80827175738825, 18.636379982681447, 0.0], [73.80845605477512, 18.63638115053157, 0.0], [73.80869302310903, 18.636382651879952, 0.0], [73.80892999146552, 18.636384152929878, 0.0], [73.80892939563657, 18.63646964339885, 0.0], [73.80909875022408, 18.636474570451234, 0.0], [73.80910990292644, 18.636611204201294, 0.0], [73.80916538571935, 18.636611555558346, 0.0], [73.80916381157155, 18.636837457429785, 0.0], [73.8091622374012, 18.637063359295674, 0.0], [73.80916134384525, 18.63719158790941, 0.0], [73.80917291919214, 18.637289338770252, 0.0], [73.80919969106827, 18.637515420134054, 0.0], [73.80938937483221, 18.63751662123988, 0.0], [73.80939609644547, 18.6375112832807, 0.0], [73.80945511546582, 18.637464413387768, 0.0], [73.80945563050928, 18.637464010180214, 0.0], [73.80947804856275, 18.637446710104104, 0.0], [73.80948047799593, 18.637444955505057, 0.0], [73.80950401614268, 18.637429064832673, 0.0], [73.80950655885535, 18.6374274627214, 0.0], [73.80953111975039, 18.6374130471705, 0.0], [73.80953376522669, 18.6374116041728, 0.0], [73.80955924729595, 18.637398723360224, 0.0], [73.8095619845952, 18.637397445443753, 0.0], [73.80958828245453, 18.63738615263954, 0.0], [73.80959110025658, 18.63738504508917, 0.0], [73.80961810514835, 18.637375386996002, 0.0], [73.80962099179963, 18.637374454392216, 0.0], [73.80963405632755, 18.63737067544502, 0.0], [73.8096346025386, 18.637292261919516, 0.0], [73.80963617610539, 18.637066360020196, 0.0], [73.8096377496496, 18.63684045811533, 0.0], [73.80963932317127, 18.636614556204915, 0.0], [73.80975406020661, 18.63661528246148, 0.0], [73.80977165037365, 18.636473188120146, 0.0], [73.80978570519964, 18.636389570868232, 0.0], [73.80982290149709, 18.63616827614086, 0.0], [73.80983193616316, 18.63616395157402, 0.0], [73.809879599252, 18.636141136971677, 0.0], [73.81001896975597, 18.636074425228646, 0.0], [73.8101173194062, 18.636034624263754, 0.0], [73.81011797926472, 18.63593984977626, 0.0], [73.81035494713043, 18.635941348996532, 0.0], [73.81039272917903, 18.63594158800393, 0.0], [73.81043306310207, 18.63593268927398, 0.0], [73.81053454025268, 18.63591468719104, 0.0], [73.81059219197536, 18.6359030530313, 0.0], [73.81082950348569, 18.63585516318981, 0.0], [73.81083045479569, 18.635718444511767, 0.0], [73.81106742241597, 18.63571994281724, 0.0], [73.8113043900588, 18.635721440824266, 0.0], [73.81154135772411, 18.635722938532858, 0.0], [73.81177832541196, 18.635724435943008, 0.0], [73.81194748885083, 18.635725504712212, 0.0], [73.8120153129336, 18.63572308300205, 0.0], [73.81208839735105, 18.63572047344013, 0.0], [73.81225230123606, 18.635721619512154, 0.0], [73.81237423659584, 18.635722472033233, 0.0], [73.81248945435172, 18.635696438233975, 0.0], [73.8126214947046, 18.635666603220283, 0.0], [73.81272667165389, 18.635662009755904, 0.0], [73.81291527360519, 18.63565377266636, 0.0], [73.81296375152014, 18.63564735725192, 0.0], [73.8131517776872, 18.63562247433789, 0.0], [73.81320093961426, 18.635617115897965, 0.0], [73.81320170072493, 18.63550751190666, 0.0], [73.81343866825725, 18.635509007208288, 0.0], [73.81367563581203, 18.63551050221149, 0.0], [73.8136772038767, 18.635284599937133, 0.0], [73.81367877191889, 18.635058697657232, 0.0], [73.81346720990717, 18.635057362980355, 0.0], [73.81344177672962, 18.635061273306068, 0.0], [73.81320454616164, 18.63509774709346, 0.0], [73.81303694796236, 18.635123514833577, 0.0], [73.81296733764408, 18.635131033740702, 0.0], [73.81273018233661, 18.635156649696338, 0.0], [73.81272933504461, 18.635278618211427, 0.0], [73.81249236789282, 18.635277122033916, 0.0], [73.81249302697618, 18.6351822653488, 0.0], [73.81239357271632, 18.635193007521977, 0.0], [73.81234390479621, 18.635104290538173, 0.0], [73.81233890008485, 18.635050240816405, 0.0], [73.81225697068392, 18.63504972339464, 0.0], [73.81225854058181, 18.63482382122577, 0.0], [73.8122600581609, 18.6346054444448, 0.0], [73.81202283706874, 18.63464062227486, 0.0], [73.81178561589685, 18.634675799800025, 0.0], [73.8116200372983, 18.634700353261053, 0.0], [73.811548389787, 18.634711675695407, 0.0], [73.81154764120717, 18.634819330123996, 0.0], [73.81131067479399, 18.63481783249322, 0.0], [73.81107370840334, 18.63481633456402, 0.0], [73.81085456286587, 18.63481494901956, 0.0], [73.81083672450423, 18.634817355976615, 0.0], [73.81067393154441, 18.634839321794285, 0.0], [73.81059953448568, 18.63484799792364, 0.0], [73.81036773783053, 18.634875029680405, 0.0], [73.8103623640154, 18.63487582149446, 0.0], [73.8101251438462, 18.6349107749473, 0.0], [73.81012427035084, 18.635036241856717, 0.0], [73.80988730375982, 18.63503474241591, 0.0], [73.80965033719137, 18.635033242676677, 0.0], [73.80941337064546, 18.635031742639015, 0.0], [73.80917640412211, 18.635030242302918, 0.0], [73.80907103734017, 18.635029575085003, 0.0]]], [[[73.80953599901535, 18.63755301826727, 0.0], [73.80953494874817, 18.637553877728575, 0.0], [73.80945006661452, 18.637621311881137, 0.0], [73.80944808952725, 18.637622799513526, 0.0], [73.80939505634215, 18.63766056735639, 0.0], [73.80939448503477, 18.63774256543001, 0.0], [73.80939291108724, 18.637968467293195, 0.0], [73.80939275840315, 18.637990381205835, 0.0], [73.80942833332729, 18.638151440191155, 0.0], [73.8094286700597, 18.638153122163104, 0.0], [73.8094361318456, 18.638194652778132, 0.0], [73.80961636699732, 18.638195793867254, 0.0], [73.80962835760985, 18.638188754502966, 0.0], [73.80965820709874, 18.63817123066939, 0.0], [73.80970013021451, 18.63814354033353, 0.0], [73.80970037078262, 18.63814338248111, 0.0], [73.80972114473023, 18.638129841069073, 0.0], [73.80972379392118, 18.63812823431868, 0.0], [73.80974546283103, 18.638116033879818, 0.0], [73.8097482178087, 18.638114597873116, 0.0], [73.80977068657603, 18.63810379195492, 0.0], [73.80977353524933, 18.638102532994296, 0.0], [73.80979670525922, 18.63809316902377, 0.0], [73.80979963512497, 18.63809209263495, 0.0], [73.80982340468472, 18.638084211710286, 0.0], [73.80982640288427, 18.638083322617373, 0.0], [73.80985066766956, 18.638076959328043, 0.0], [73.80985372104321, 18.638076261433426, 0.0], [73.80986613938563, 18.638073834673484, 0.0], [73.80986685234119, 18.63797146757666, 0.0], [73.810103823002, 18.63797296727067, 0.0], [73.81034079368534, 18.6379744666662, 0.0], [73.81057776439125, 18.637975965763253, 0.0], [73.81081473511968, 18.637977464561825, 0.0], [73.81081316302814, 18.638203366536313, 0.0], [73.8110501340922, 18.638204865055876, 0.0], [73.81128710517878, 18.63820636327694, 0.0], [73.81152407628791, 18.638207861199525, 0.0], [73.81152417343678, 18.638193893118753, 0.0], [73.81152386052507, 18.638193813729625, 0.0], [73.81152124905113, 18.638192881541407, 0.0], [73.81151860113708, 18.638192047989747, 0.0], [73.81151689577682, 18.63819132760239, 0.0], [73.81151514893338, 18.638190704051436, 0.0], [73.81151264588205, 18.638189532339137, 0.0], [73.81151009642426, 18.638188455383506, 0.0], [73.81150847334602, 18.638187579118306, 0.0], [73.81150679902764, 18.63818679534706, 0.0], [73.81150442850469, 18.638185395394913, 0.0], [73.81150200205585, 18.638184085406994, 0.0], [73.81150047689077, 18.638183061702847, 0.0], [73.81149889122209, 18.638182125259505, 0.0], [73.81149667605698, 18.638180510549844, 0.0], [73.81149439598514, 18.638178980145536, 0.0], [73.81149298342143, 18.638177818861326, 0.0], [73.81149150167329, 18.638176738764315, 0.0], [73.81148946319924, 18.638174924847686, 0.0], [73.81148735146276, 18.63817318876568, 0.0], [73.81148606510416, 18.63817190108519, 0.0], [73.81148470154663, 18.638170687736473, 0.0], [73.81148285939527, 18.638168692081905, 0.0], [73.81148093633135, 18.638166767041625, 0.0], [73.81147978856622, 18.63816536536596, 0.0], [73.81147855633108, 18.63816403045075, 0.0], [73.81147692824334, 18.638161872277504, 0.0], [73.81147521237209, 18.63815977681815, 0.0], [73.811474214254, 18.6381582746462, 0.0], [73.81147312520838, 18.63815683102048, 0.0], [73.81147172686363, 18.638154531112978, 0.0], [73.81147023470982, 18.638152285414986, 0.0], [73.8114693958512, 18.638150697213522, 0.0], [73.81146846048317, 18.63814915878022, 0.0], [73.81146730534819, 18.638146739287826, 0.0], [73.81146605128208, 18.638144364978515, 0.0], [73.8114653797616, 18.638142706042792, 0.0], [73.8114646070792, 18.63814108761785, 0.0], [73.81146370627857, 18.63813857184163, 0.0], [73.81146270237744, 18.63813609178692, 0.0], [73.81146220466215, 18.638134378093394, 0.0], [73.81146160210679, 18.638132695263142, 0.0], [73.81146096431567, 18.638130107431387, 0.0], [73.81146022024762, 18.638127545515573, 0.0], [73.81145990113077, 18.63812579356807, 0.0], [73.81145947450534, 18.63812406253909, 0.0], [73.81145910586596, 18.638121427574056, 0.0], [73.81145862879673, 18.638118808469788, 0.0], [73.81145849135159, 18.638117035140514, 0.0], [73.81145824476468, 18.638115272583555, 0.0], [73.8114581488272, 18.63811261586141, 0.0], [73.8114579433512, 18.6381099647921, 0.0], [73.81145461908866, 18.637981510224574, 0.0], [73.81144877177753, 18.637755561301372, 0.0], [73.8114434175722, 18.637548666824326, 0.0], [73.81129171793668, 18.63754325875598, 0.0], [73.81105479611229, 18.637534812284844, 0.0], [73.81081787432966, 18.63752636551644, 0.0], [73.81079383812158, 18.637525508557502, 0.0], [73.81058090913288, 18.637524161836556, 0.0], [73.81034393905317, 18.637522662778444, 0.0], [73.81010696899598, 18.63752116342186, 0.0], [73.80986999896136, 18.637519663766803, 0.0], [73.80963302894926, 18.637518163813276, 0.0], [73.80958551841465, 18.63751786304902, 0.0], [73.80957807205107, 18.63752195587643, 0.0], [73.80956374988158, 18.637531097427576, 0.0], [73.80955010168653, 18.637541132338505, 0.0], [73.80953599901535, 18.63755301826727, 0.0]]], [[[73.81277865997932, 18.638380164927494, 0.0], [73.81286666829284, 18.6383680901837, 0.0], [73.8129449626852, 18.638352262135662, 0.0], [73.81294590341534, 18.638216842466875, 0.0], [73.813182874682, 18.638218338300064, 0.0], [73.81330186361491, 18.63821908928102, 0.0], [73.81331336989817, 18.6382153454004, 0.0], [73.81332666178636, 18.63821234098002, 0.0], [73.81334019477221, 18.638210566378955, 0.0], [73.81335384394265, 18.638210037977228, 0.0], [73.81336748331225, 18.638210760652175, 0.0], [73.81338098698599, 18.638212727733308, 0.0], [73.81339423032135, 18.638215921063978, 0.0], [73.81340542616445, 18.638219742839368, 0.0], [73.81341984597114, 18.638219833834775, 0.0], [73.81341980275762, 18.638226057003173, 0.0], [73.81343119465416, 18.63823250894166, 0.0], [73.81344221498938, 18.63824020402082, 0.0], [73.81345240983505, 18.638248871736085, 0.0], [73.8134616850899, 18.638258432082075, 0.0], [73.81346995514056, 18.6382687968142, 0.0], [73.81347714365207, 18.638279870263148, 0.0], [73.81350011964426, 18.638319387739124, 0.0], [73.81350638999086, 18.638331574382082, 0.0], [73.81351135031048, 18.63834429776087, 0.0], [73.81351495085885, 18.638357430280507, 0.0], [73.81351715552793, 18.638370840242995, 0.0], [73.8135179422081, 18.63838439316799, 0.0], [73.81351730300989, 18.638397953141432, 0.0], [73.81351524434308, 18.638411384178518, 0.0], [73.8135117868525, 18.638424551587473, 0.0], [73.81350696521095, 18.63843732332027, 0.0], [73.8135024833587, 18.638446267379468, 0.0], [73.81350082777142, 18.63844957129681, 0.0], [73.81349343608244, 18.63846117268945, 0.0], [73.81348486427062, 18.638472011154697, 0.0], [73.81347519829738, 18.638481978000016, 0.0], [73.81346453509691, 18.63849097327379, 0.0], [73.81345298160402, 18.638498906767726, 0.0], [73.81344065368181, 18.638505698921485, 0.0], [73.81341778325387, 18.638516882471592, 0.0], [73.81341670860868, 18.638671638194854, 0.0], [73.81317973669333, 18.638670142621297, 0.0], [73.81317816766528, 18.638896044773592, 0.0], [73.81317659861473, 18.639121946920334, 0.0], [73.8134135711563, 18.639123442532743, 0.0], [73.81365054372034, 18.639124937846635, 0.0], [73.81388751630689, 18.639126432862042, 0.0], [73.8141244889159, 18.639127927578944, 0.0], [73.81436146154738, 18.639129421997342, 0.0], [73.81436019543455, 18.639311888829983, 0.0], [73.81437020500502, 18.63931256007807, 0.0], [73.81437349341923, 18.639312890832855, 0.0], [73.81442946544, 18.639320410716216, 0.0], [73.8144327216592, 18.63932095923789, 0.0], [73.8144880074482, 18.63933218112707, 0.0], [73.81449121562346, 18.639332944745842, 0.0], [73.81454554608116, 18.639347814019622, 0.0], [73.81454861193109, 18.639348761774567, 0.0], [73.81456149363483, 18.639353210788926, 0.0], [73.81456440822329, 18.63935432283313, 0.0], [73.81456996352672, 18.639356648760703, 0.0], [73.814596867007, 18.639356818374928, 0.0], [73.81483383999652, 18.639358312215723, 0.0], [73.81507081300852, 18.639359805758016, 0.0], [73.81506924641796, 18.639585708048948, 0.0], [73.81512077763044, 18.639586032792995, 0.0], [73.81512166890542, 18.639583108974072, 0.0], [73.81512521908921, 18.639574710216227, 0.0], [73.81512963319881, 18.639566692332785, 0.0], [73.81513486691016, 18.639559135834702, 0.0], [73.81514086766931, 18.6395521165999, 0.0], [73.81514757522001, 18.63954570511147, 0.0], [73.81515492220893, 18.639539965749787, 0.0], [73.81516283486185, 18.639534956146207, 0.0], [73.81517123372453, 18.6395307266042, 0.0], [73.81518003446048, 18.63952731959436, 0.0], [73.81518914869788, 18.63952476932789, 0.0], [73.81519848491692, 18.63952310141304, 0.0], [73.8152079493688, 18.639522332598066, 0.0], [73.81521744701705, 18.63952247060296, 0.0], [73.81530662998836, 18.639528035679223, 0.0], [73.81553623250106, 18.63954236283192, 0.0], [73.81554350882985, 18.639543153219872, 0.0], [73.81554528830581, 18.639543346514603, 0.0], [73.81555420314525, 18.639545154746546, 0.0], [73.81556289459951, 18.639547770810236, 0.0], [73.81557128231401, 18.639551170519532, 0.0], [73.81557928874224, 18.63955532244329, 0.0], [73.81558683986282, 18.63956018819599, 0.0], [73.81558795577382, 18.639561067233373, 0.0], [73.81559529754466, 18.639555331919585, 0.0], [73.81560321018668, 18.639550322296486, 0.0], [73.81561160904062, 18.639546092733994, 0.0], [73.81562040977008, 18.639542685702885, 0.0], [73.8156295240033, 18.639540135414574, 0.0], [73.8156388602205, 18.639538467477564, 0.0], [73.81564832467289, 18.639537698640293, 0.0], [73.81565782232401, 18.639537836623, 0.0], [73.81578047630877, 18.639545490013074, 0.0], [73.81597660792924, 18.639557728109562, 0.0], [73.81598566373839, 18.63955871177118, 0.0], [73.81599457858431, 18.63956051998247, 0.0], [73.81600327004712, 18.63956313602609, 0.0], [73.81601165777211, 18.6395665357161, 0.0], [73.81601729391814, 18.639569458456283, 0.0], [73.81601966421273, 18.639570687621525, 0.0], [73.81602721534745, 18.63957555335704, 0.0], [73.81603424136416, 18.639581087937703, 0.0], [73.81604067730557, 18.639587240194984, 0.0], [73.81604465296355, 18.639591852557707, 0.0], [73.81604646366972, 18.63959395324976, 0.0], [73.81605154696021, 18.63960116503819, 0.0], [73.81605588018063, 18.639608808885498, 0.0], [73.81605942326921, 18.63961681412243, 0.0], [73.81606214346905, 18.63962510673857, 0.0], [73.81606401563116, 18.63963361006659, 0.0], [73.81606502244672, 18.63964224549108, 0.0], [73.81606515460739, 18.639650933175346, 0.0], [73.81606241461137, 18.639728655497887, 0.0], [73.81606163505309, 18.639737573988086, 0.0], [73.81605993389323, 18.639746375230406, 0.0], [73.81605732781775, 18.639754972896935, 0.0], [73.81605384238843, 18.639763282656542, 0.0], [73.81604951179239, 18.639771223002032, 0.0], [73.8160469923495, 18.639774900628222, 0.0], [73.81625279052821, 18.639784114963835, 0.0], [73.81647897584185, 18.639794241845543, 0.0], [73.81648371551319, 18.639594616751673, 0.0], [73.81648907848484, 18.639368738252838, 0.0], [73.81649412347763, 18.639156251184463, 0.0], [73.8164942162412, 18.639142858330377, 0.0], [73.81649578090817, 18.638916955912055, 0.0], [73.8164973455527, 18.638691053488184, 0.0], [73.81649891017481, 18.638465151058767, 0.0], [73.8165004747745, 18.638239248623798, 0.0], [73.81650203935176, 18.638013346183286, 0.0], [73.81650360390658, 18.637787443737224, 0.0], [73.81626663295168, 18.63778595212158, 0.0], [73.81602966201922, 18.637784460207456, 0.0], [73.81579269110918, 18.637782967994852, 0.0], [73.81555572022158, 18.637781475483767, 0.0], [73.81531874935642, 18.637779982674207, 0.0], [73.81508177851371, 18.637778489566166, 0.0], [73.81484480769345, 18.63777699615965, 0.0], [73.81484559894189, 18.637662908282326, 0.0], [73.8146086762437, 18.6376545033948, 0.0], [73.81437175358708, 18.63764609820998, 0.0], [73.8141348309721, 18.637637692727868, 0.0], [73.81413432875904, 18.637710062196206, 0.0], [73.81413587549768, 18.637712291937078, 0.0], [73.8141402902363, 18.637720294153468, 0.0], [73.81414384402206, 18.63772867687844, 0.0], [73.81414650127658, 18.637737356189582, 0.0], [73.81414823539704, 18.637746245195228, 0.0], [73.81414902902239, 18.637755254904388, 0.0], [73.81414887420722, 18.637764295117652, 0.0], [73.81414829478193, 18.637772604958293, 0.0], [73.81413254936174, 18.63799841779942, 0.0], [73.81413230316954, 18.638001948556415, 0.0], [73.81413075997348, 18.63822431864799, 0.0], [73.81412919224279, 18.638450220889055, 0.0], [73.81407214652083, 18.638449861110114, 0.0], [73.81407079822363, 18.638453175325708, 0.0], [73.81406648624578, 18.638461260038177, 0.0], [73.8140613458376, 18.63846889197238, 0.0], [73.81405542878383, 18.638475994243635, 0.0], [73.81404879469319, 18.638482495303155, 0.0], [73.81404151039797, 18.638488329658788, 0.0], [73.81403364928066, 18.638493438534784, 0.0], [73.81402529053469, 18.638497770463953, 0.0], [73.8140165183667, 18.638501281806082, 0.0], [73.8140074211482, 18.63850393718768, 0.0], [73.81399809052526, 18.63850570985819, 0.0], [73.81398862049532, 18.638506581959632, 0.0], [73.81389178942055, 18.63851084020304, 0.0], [73.81376591561168, 18.63851637555467, 0.0], [73.81375655650079, 18.638516346198372, 0.0], [73.81374724604588, 18.638515437153167, 0.0], [73.81373807501089, 18.638513657280996, 0.0], [73.8137291328006, 18.63851102393313, 0.0], [73.81372050658908, 18.63850756278103, 0.0], [73.81371228046977, 18.638503307566104, 0.0], [73.81370453463585, 18.638498299770767, 0.0], [73.81369734459827, 18.638492588214014, 0.0], [73.81369078044983, 18.638486228575534, 0.0], [73.81368490618163, 18.63847928285289, 0.0], [73.81367977905951, 18.638471818757157, 0.0], [73.81367544906561, 18.63846390905278, 0.0], [73.81367195841116, 18.638455630848295, 0.0], [73.81366941929285, 18.638447320676676, 0.0], [73.8136552489259, 18.638447231273233, 0.0], [73.81365681728278, 18.638221329070998, 0.0], [73.81365838561717, 18.637995426863217, 0.0], [73.81365995392912, 18.63776952464989, 0.0], [73.81366098586693, 18.637620880871776, 0.0], [73.81352333076974, 18.63761599669378, 0.0], [73.8134240598369, 18.63761298429213, 0.0], [73.81318712893734, 18.637605794351956, 0.0], [73.81295019807604, 18.637598604114277, 0.0], [73.81274050965945, 18.637592240365084, 0.0], [73.812713954814, 18.63776355396192, 0.0], [73.81271198284978, 18.637776275701896, 0.0], [73.81271050175796, 18.637989444205115, 0.0], [73.8127100157279, 18.63805939622727, 0.0], [73.81271311735328, 18.638062472383783, 0.0], [73.81271646616, 18.63806558538971, 0.0], [73.81271794947547, 18.638067264826876, 0.0], [73.81271954541296, 18.638068847659206, 0.0], [73.81272244060513, 18.638072349766553, 0.0], [73.81272545320797, 18.63807576069075, 0.0], [73.81272675670157, 18.638077570640068, 0.0], [73.81272818220778, 18.638079294973007, 0.0], [73.81273070337298, 18.638083050739823, 0.0], [73.81273335075898, 18.638086726733277, 0.0], [73.81273446187733, 18.63808864976402, 0.0], [73.81273570322382, 18.638090498991296, 0.0], [73.81273782608181, 18.63809447224754, 0.0], [73.81274008275508, 18.638098377908474, 0.0], [73.81274099079748, 18.638100395500768, 0.0], [73.81274203602942, 18.638102351813366, 0.0], [73.81274374013587, 18.638106504294473, 0.0], [73.81274558436336, 18.63811060200926, 0.0], [73.81274628058483, 18.638112694732634, 0.0], [73.81274711963599, 18.6381147392902, 0.0], [73.81274838857934, 18.638119031005502, 0.0], [73.81274980260005, 18.638123281310957, 0.0], [73.81275028029553, 18.638125429011346, 0.0], [73.81275090508538, 18.638127542123666, 0.0], [73.81275172664492, 18.63813193174165, 0.0], [73.81275269684097, 18.63813629370502, 0.0], [73.81275295140998, 18.63813847569891, 0.0], [73.81275335592139, 18.638140637015596, 0.0], [73.81275372218492, 18.638145082261833, 0.0], [73.8127542392127, 18.63814951387505, 0.0], [73.81275426820353, 18.63815170914864, 0.0], [73.81275444854076, 18.638153897855016, 0.0], [73.8127543559809, 18.638158355919373, 0.0], [73.81275441486103, 18.63816281450357, 0.0], [73.81275421799442, 18.638165001915176, 0.0], [73.81275417242071, 18.63816719693282, 0.0], [73.81275362192874, 18.638171624881696, 0.0], [73.81275322209407, 18.638176067498257, 0.0], [73.81275280126593, 18.6381782259819, 0.0], [73.81275253022008, 18.63818040617158, 0.0], [73.81274630804695, 18.638215582329785, 0.0], [73.81274555683768, 18.638219829181846, 0.0], [73.81274373305604, 18.638228431081604, 0.0], [73.81273409816762, 18.638267341283527, 0.0], [73.81273169429208, 18.638275812647503, 0.0], [73.81271943828449, 18.638314046931058, 0.0], [73.81271646439173, 18.63832235224696, 0.0], [73.81270804104248, 18.638343600221106, 0.0], [73.81270775078845, 18.638385374216174, 0.0], [73.81277865997932, 18.638380164927494, 0.0]]], [[[73.81288464565435, 18.63900179756215, 0.0], [73.81287623812482, 18.638991519618273, 0.0], [73.81283004430172, 18.638929074985487, 0.0], [73.81280014859512, 18.638893658379374, 0.0], [73.81270422327583, 18.638893052692143, 0.0], [73.81270265359906, 18.63911895480003, 0.0], [73.81293962609564, 18.63912045100943, 0.0], [73.81294018885937, 18.639039444330116, 0.0], [73.8129397733407, 18.63903930806538, 0.0], [73.81292733167206, 18.63903390414259, 0.0], [73.81291549198157, 18.639027386055957, 0.0], [73.81290436374101, 18.639019814072892, 0.0], [73.81289404984396, 18.639011258205258, 0.0], [73.81288464565435, 18.63900179756215, 0.0]]], [[[73.81125457670774, 18.639842975506706, 0.0], [73.81125166904405, 18.639833796229105, 0.0], [73.81124914865798, 18.639824713069203, 0.0], [73.81124691504597, 18.639815363824887, 0.0], [73.8112450607961, 18.639806136043003, 0.0], [73.81124351196776, 18.63979666175399, 0.0], [73.81124234921174, 18.63978746380386, 0.0], [73.8110391310123, 18.63978617885818, 0.0], [73.81103755905362, 18.64001208080774, 0.0], [73.81127453264511, 18.64001357918448, 0.0], [73.8112753964663, 18.639889417425742, 0.0], [73.81127377637091, 18.639886598805667, 0.0], [73.81126934273296, 18.6398782075503, 0.0], [73.81126513205008, 18.639869499494157, 0.0], [73.8112613188646, 18.639860835606044, 0.0], [73.81125775112007, 18.63985187040081, 0.0], [73.81125457670774, 18.639842975506706, 0.0]]], [[[73.81158072865934, 18.64004245388986, 0.0], [73.81157270719787, 18.640040623053395, 0.0], [73.81156801361864, 18.64003957510272, 0.0], [73.81156777170776, 18.64003949656582, 0.0], [73.81156751618401, 18.64003943824449, 0.0], [73.8115114448479, 18.640023905959357, 0.0], [73.81147882770367, 18.64001487069614, 0.0], [73.81127453264511, 18.64001357918448, 0.0], [73.81127296097704, 18.640239481147955, 0.0], [73.8115099349042, 18.64024097924563, 0.0], [73.81150905168958, 18.64036795099933, 0.0], [73.81152971106393, 18.640371746731425, 0.0], [73.81153648786787, 18.64037315607241, 0.0], [73.81159989285491, 18.64038789524895, 0.0], [73.81165337311859, 18.640398690506604, 0.0], [73.81170506048892, 18.640405827965044, 0.0], [73.81174575144233, 18.640408900575846, 0.0], [73.81175712425816, 18.64040975934589, 0.0], [73.81180934581826, 18.640410468141756, 0.0], [73.8118615058987, 18.640407951376282, 0.0], [73.81191338548739, 18.64040221961675, 0.0], [73.81196883006731, 18.640392591308, 0.0], [73.81198286705823, 18.640390060432285, 0.0], [73.81204665200212, 18.6403785599642, 0.0], [73.8120549560396, 18.640377303916505, 0.0], [73.81213398697228, 18.640367623761072, 0.0], [73.81214235437066, 18.640366837797078, 0.0], [73.81222004850584, 18.640361745435, 0.0], [73.81222085682077, 18.640245471747548, 0.0], [73.81222155448849, 18.64014511363794, 0.0], [73.81215585021911, 18.6400333516261, 0.0], [73.81212929792746, 18.64003955920068, 0.0], [73.81212693981348, 18.64003999481379, 0.0], [73.81212453444374, 18.640040590482332, 0.0], [73.81211991023214, 18.64004129338435, 0.0], [73.81211559915941, 18.640042089766215, 0.0], [73.81211335505742, 18.640042289801688, 0.0], [73.81211105474917, 18.64004263945929, 0.0], [73.81198519050966, 18.640055903862184, 0.0], [73.81192145772992, 18.640062620409317, 0.0], [73.81191971710885, 18.640062722170676, 0.0], [73.81191800002681, 18.640062944091575, 0.0], [73.81191284479945, 18.640063123944067, 0.0], [73.81190759685268, 18.640063430752758, 0.0], [73.81190582061086, 18.640063368999545, 0.0], [73.81190405575578, 18.64006343057066, 0.0], [73.81185260073391, 18.640062817075492, 0.0], [73.81184709073014, 18.640062649494627, 0.0], [73.81179569933198, 18.640060135025784, 0.0], [73.81179122719196, 18.640059848778204, 0.0], [73.81174820262218, 18.640056444768415, 0.0], [73.8115954319636, 18.64004435780798, 0.0], [73.81159481895243, 18.640044280282932, 0.0], [73.81159418274223, 18.64004425368175, 0.0], [73.8115868119239, 18.64004326766601, 0.0], [73.81158159955348, 18.64004260847816, 0.0], [73.8115811740101, 18.640042513465733, 0.0], [73.81158072865934, 18.64004245388986, 0.0]]], [[[73.81132285039503, 18.640786626103633, 0.0], [73.81139603632805, 18.640917994934163, 0.0], [73.81150522070425, 18.640918685161115, 0.0], [73.81150607897933, 18.640795303067797, 0.0], [73.81148093211532, 18.640779869208572, 0.0], [73.811440552143, 18.640758556712363, 0.0], [73.81139877830041, 18.640739844109927, 0.0], [73.81135579453999, 18.640723813802328, 0.0], [73.81131179014135, 18.640710536379128, 0.0], [73.81126975191282, 18.640700722354893, 0.0], [73.81126974840505, 18.640701226520278, 0.0], [73.81132175031279, 18.640784759599388, 0.0], [73.81132285039503, 18.640786626103633, 0.0]]], [[[73.81197839921188, 18.641032601898175, 0.0], [73.81197270439587, 18.64103149046423, 0.0], [73.81196965851355, 18.641030795320177, 0.0], [73.8119500717025, 18.641025667297427, 0.0], [73.81194708063163, 18.64102478190688, 0.0], [73.81192816081554, 18.64101852092488, 0.0], [73.81186405141575, 18.64099812497708, 0.0], [73.81186108253178, 18.640997074117216, 0.0], [73.81179828166823, 18.6409725395064, 0.0], [73.81179539303051, 18.64097130198985, 0.0], [73.8117420135491, 18.64094635804478, 0.0], [73.81173445114784, 18.640942824173493, 0.0], [73.81173165565345, 18.640941405525467, 0.0], [73.81169243430725, 18.640919868515073, 0.0], [73.81150522070425, 18.640918685161115, 0.0], [73.81150377559511, 18.641126425915925, 0.0], [73.8115127920052, 18.64114464491702, 0.0], [73.81174062446146, 18.641146084998812, 0.0], [73.81197759968626, 18.641147582577243, 0.0], [73.81197839921188, 18.641032601898175, 0.0]]], [[[73.81268299120065, 18.641948420120723, 0.0], [73.81269875790382, 18.641971822290575, 0.0], [73.81269879914323, 18.641971883609976, 0.0], [73.81275536636694, 18.64205614347227, 0.0], [73.81291922232103, 18.64205717815964, 0.0], [73.81291765264244, 18.642283080209282, 0.0], [73.8129171415366, 18.642356635877128, 0.0], [73.81295872515608, 18.64245758731879, 0.0], [73.81295975781187, 18.642460355646662, 0.0], [73.81297617594136, 18.64250936169062, 0.0], [73.81300267238254, 18.64258845016593, 0.0], [73.8130035062543, 18.642591246612035, 0.0], [73.8130138716558, 18.6426308054844, 0.0], [73.81301450930553, 18.64263361683888, 0.0], [73.81302221319893, 18.64267372426759, 0.0], [73.81302266190217, 18.64267656860209, 0.0], [73.81302767306323, 18.642717062040468, 0.0], [73.81302793100134, 18.642719927827596, 0.0], [73.8130288159333, 18.642735606010316, 0.0], [73.81303022911878, 18.642760643164454, 0.0], [73.81303029524621, 18.642763518789817, 0.0], [73.81302987100402, 18.64280429101456, 0.0], [73.81302974505266, 18.642807164823495, 0.0], [73.81302660016836, 18.64284782869471, 0.0], [73.81302628264852, 18.642850689040706, 0.0], [73.81302042986545, 18.64289107975624, 0.0], [73.81301992206382, 18.64289391504665, 0.0], [73.81301138510015, 18.642933868911012, 0.0], [73.81301068907459, 18.642936667655057, 0.0], [73.81300367058991, 18.642961359197066, 0.0], [73.81299951105574, 18.642975992738325, 0.0], [73.81299584896443, 18.64298894682907, 0.0], [73.81299339848609, 18.64300066240233, 0.0], [73.81299176916681, 18.643012507189326, 0.0], [73.812990968193, 18.64302442894773, 0.0], [73.81299099909755, 18.64303637509536, 0.0], [73.81299186174445, 18.643048292942616, 0.0], [73.81299355232903, 18.643060129925125, 0.0], [73.81299606339498, 18.643071833834632, 0.0], [73.81299938386718, 18.643083353049906, 0.0], [73.81300366986072, 18.643095104978197, 0.0], [73.81304228673288, 18.643187514963376, 0.0], [73.813148351859, 18.64318818461294, 0.0], [73.81314729052437, 18.643340947654742, 0.0], [73.81315770472642, 18.643344831569873, 0.0], [73.81316047740917, 18.643345963876776, 0.0], [73.81317345183552, 18.643351734836074, 0.0], [73.81317614334674, 18.64335303297507, 0.0], [73.81318870641309, 18.64335957896797, 0.0], [73.8131913058509, 18.643361037680965, 0.0], [73.81320340667376, 18.643368332194473, 0.0], [73.81320590351054, 18.643369945573728, 0.0], [73.81321749307848, 18.643377959063375, 0.0], [73.81321987720078, 18.643379720573915, 0.0], [73.81323090857319, 18.64338842058304, 0.0], [73.81323317032539, 18.643390323090845, 0.0], [73.81324359882227, 18.643399674382366, 0.0], [73.81324533022254, 18.64340130891777, 0.0], [73.81325889883715, 18.643414794452507, 0.0], [73.81338376087268, 18.64341558263572, 0.0], [73.81338291020366, 18.643538046365087, 0.0], [73.81341283625105, 18.64356778910578, 0.0], [73.81341409521583, 18.643569090459756, 0.0], [73.81348201262796, 18.643642114751596, 0.0], [73.81348997213067, 18.643642164988968, 0.0], [73.81361974303958, 18.64356054266499, 0.0], [73.81362073938674, 18.6434170783186, 0.0], [73.81384557986246, 18.64341849711646, 0.0], [73.81385777170027, 18.643410828749364, 0.0], [73.81409579995409, 18.643261114506682, 0.0], [73.81409626470735, 18.643194166669662, 0.0], [73.81420053683954, 18.64319482441496, 0.0], [73.81420467869134, 18.64319234422513, 0.0], [73.81423339441903, 18.64317644177739, 0.0], [73.81423917404994, 18.643173491043527, 0.0], [73.8142689742123, 18.643159518777647, 0.0], [73.81427495398266, 18.643156955934796, 0.0], [73.8143056960243, 18.643144980689947, 0.0], [73.81431184732828, 18.64314281799806, 0.0], [73.81433365736095, 18.643135956948562, 0.0], [73.81434338418828, 18.64313289706017, 0.0], [73.81434967760072, 18.643131144864597, 0.0], [73.814381858416, 18.64312332569268, 0.0], [73.81438826383034, 18.643121992375654, 0.0], [73.81442093465753, 18.643116312374243, 0.0], [73.8144274214331, 18.6431154043138, 0.0], [73.81446042598472, 18.643111890654556, 0.0], [73.81446696308991, 18.64311141219475, 0.0], [73.81450014348232, 18.643110081685958, 0.0], [73.81450669964572, 18.643110035115548, 0.0], [73.81453989715371, 18.643110894122017, 0.0], [73.81454644101265, 18.64311127966378, 0.0], [73.81457080161121, 18.643113523254716, 0.0], [73.81457949682951, 18.643114324076347, 0.0], [73.81458599708091, 18.643115139886074, 0.0], [73.81461875307743, 18.64312035514147, 0.0], [73.8146251786246, 18.643121597316423, 0.0], [73.81465747810579, 18.643128958466235, 0.0], [73.81466379821182, 18.643130621064365, 0.0], [73.8146954866668, 18.64314009289527, 0.0], [73.81470167109815, 18.64314216796325, 0.0], [73.81473259693843, 18.643153705164945, 0.0], [73.8147386161103, 18.643156182776227, 0.0], [73.81476863139576, 18.643169730158228, 0.0], [73.81477445651403, 18.643172598460563, 0.0], [73.81480341765995, 18.64318809121613, 0.0], [73.81480725740617, 18.64319031512824, 0.0], [73.81480902085909, 18.64319133648848, 0.0], [73.81482085438697, 18.643198736162955, 0.0], [73.81504417791528, 18.64320014394925, 0.0], [73.81504261094301, 18.643426046145855, 0.0], [73.81504239427115, 18.643457282339273, 0.0], [73.81504993847662, 18.643475955118937, 0.0], [73.81505208186113, 18.643481861617794, 0.0], [73.81506184684824, 18.64351211970839, 0.0], [73.81506355681164, 18.64351815331263, 0.0], [73.81507110435426, 18.643548982467664, 0.0], [73.81507237271614, 18.64355511431372, 0.0], [73.81507766670735, 18.643586367054667, 0.0], [73.8150784873999, 18.643592567809197, 0.0], [73.81508150251318, 18.643624094630766, 0.0], [73.8150818716102, 18.643630334631563, 0.0], [73.81508237047198, 18.643652208827937, 0.0], [73.81508259342041, 18.643661984717884, 0.0], [73.81508250915584, 18.64366823411385, 0.0], [73.81508093420855, 18.64369985605881, 0.0], [73.81508039698525, 18.64370608495478, 0.0], [73.81507653281301, 18.643737527486834, 0.0], [73.81507554520064, 18.643743706084788, 0.0], [73.81506941028732, 18.64377481879079, 0.0], [73.81506797701003, 18.643780917534375, 0.0], [73.81505960070209, 18.643811551578644, 0.0], [73.81505772861601, 18.643817541292886, 0.0], [73.8150471509822, 18.64384755012953, 0.0], [73.8150448490428, 18.643853402160733, 0.0], [73.81503956227671, 18.643865547122793, 0.0], [73.81503947693106, 18.643877850522422, 0.0], [73.81503790989142, 18.644103752702378, 0.0], [73.814842941727, 18.644102523619928, 0.0], [73.81480073813381, 18.64412995580984, 0.0], [73.81456267431201, 18.64428469611801, 0.0], [73.81456238304833, 18.644326666640143, 0.0], [73.81456081533732, 18.644552568770205, 0.0], [73.81479779552978, 18.644554063057225, 0.0], [73.81486563738956, 18.644554490781477, 0.0], [73.81492557958927, 18.644510520589318, 0.0], [73.81493322157458, 18.6445054638993, 0.0], [73.81494134670932, 18.644501145588595, 0.0], [73.81494987674401, 18.644497607244844, 0.0], [73.81495872952992, 18.644494882944173, 0.0], [73.81496781980997, 18.64449299892308, 0.0], [73.81497706003992, 18.644491973325696, 0.0], [73.81498636123139, 18.64449181602906, 0.0], [73.81499563380902, 18.644492528548067, 0.0], [73.81500478847292, 18.64449410402075, 0.0], [73.81501373705879, 18.644496527274487, 0.0], [73.81502239338697, 18.644499774972072, 0.0], [73.81503067409237, 18.64450381583643, 0.0], [73.81503511579501, 18.644506537570074, 0.0], [73.81503849942736, 18.644508610951892, 0.0], [73.81504579402969, 18.64451411413894, 0.0], [73.8150524876484, 18.64452027239892, 0.0], [73.81505851582027, 18.64452702642449, 0.0], [73.81508178647373, 18.644555853378698, 0.0], [73.81527175598212, 18.644557050735482, 0.0], [73.81527018918833, 18.644782952918188, 0.0], [73.81521994539455, 18.644782636252096, 0.0], [73.81521772191057, 18.644790097430036, 0.0], [73.81521431495241, 18.644798349108587, 0.0], [73.81521007592897, 18.644806242723735, 0.0], [73.81520504566431, 18.64481370225559, 0.0], [73.81519927260254, 18.644820655864734, 0.0], [73.8151928123414, 18.644827036584015, 0.0], [73.81518572709672, 18.644832782963594, 0.0], [73.81510308864893, 18.644893401868117, 0.0], [73.81511465078714, 18.64490772464839, 0.0], [73.8151199554704, 18.644915009392985, 0.0], [73.8151244855637, 18.644922754702282, 0.0], [73.81512819743973, 18.644930885984788, 0.0], [73.81513105535097, 18.644939324931848, 0.0], [73.81513303177407, 18.644947990271817, 0.0], [73.81513410767484, 18.64495679855275, 0.0], [73.81513427269165, 18.644965664946135, 0.0], [73.81513352523514, 18.644974504063725, 0.0], [73.8151318725036, 18.64498323077999, 0.0], [73.81512933041361, 18.644991761051845, 0.0], [73.81512592344674, 18.645000012728083, 0.0], [73.81512168441388, 18.645007906340496, 0.0], [73.81512166922725, 18.645007928861155, 0.0], [73.81511665413913, 18.64501536586923, 0.0], [73.81511088106676, 18.645022319474894, 0.0], [73.81510442079454, 18.645028700190387, 0.0], [73.81509733553845, 18.64503444656588, 0.0], [73.81503111663746, 18.645083020909766, 0.0], [73.81503012839934, 18.645225473363812, 0.0], [73.8150357680846, 18.64523329941134, 0.0], [73.81521028850473, 18.645234399478248, 0.0], [73.81526730658807, 18.64519856116114, 0.0], [73.81550533558146, 18.64504894934267, 0.0], [73.81550560325837, 18.64501034852536, 0.0], [73.81556614156166, 18.64501072998383, 0.0], [73.81574336416821, 18.644899337197167, 0.0], [73.81574415035692, 18.644785939440844, 0.0], [73.81592199370978, 18.644787059758517, 0.0], [73.81598139234832, 18.644749724724665, 0.0], [73.81598269682901, 18.644561530013405, 0.0], [73.81598426266069, 18.644335627766996, 0.0], [73.81574728266916, 18.644334134992334, 0.0], [73.8155103027001, 18.64433264191908, 0.0], [73.81551186913578, 18.644106739705876, 0.0], [73.81527488950236, 18.644105246353423, 0.0], [73.81527645622882, 18.643879344154072, 0.0], [73.81551343554901, 18.64388083748714, 0.0], [73.81551500193979, 18.643654935262845, 0.0], [73.81551656830811, 18.643429033033005, 0.0], [73.81575354702436, 18.643430526028723, 0.0], [73.81599052576303, 18.643432018725854, 0.0], [73.81622750452415, 18.643433511124417, 0.0], [73.81635317098996, 18.643434302400937, 0.0], [73.81635395792622, 18.643389877754696, 0.0], [73.81635622953367, 18.643208409499316, 0.0], [73.8163590572408, 18.642982515138662, 0.0], [73.81623063531428, 18.6429817065318, 0.0], [73.81623183716708, 18.64280826360758, 0.0], [73.81622664886712, 18.642803679480696, 0.0], [73.81622038494534, 18.64279779127178, 0.0], [73.81619820597315, 18.64277561133061, 0.0], [73.81619169349244, 18.64276863209461, 0.0], [73.81618024512485, 18.64275547706866, 0.0], [73.81599522285418, 18.642754311886737, 0.0], [73.81599678850635, 18.64252840959594, 0.0], [73.81599794068772, 18.642362163441813, 0.0], [73.81599679821069, 18.642361197003073, 0.0], [73.8159935475391, 18.64235783879597, 0.0], [73.81599001023734, 18.642354395454078, 0.0], [73.81598863664436, 18.642352765443484, 0.0], [73.81598718319829, 18.642351263915746, 0.0], [73.81594420839897, 18.642302166289106, 0.0], [73.81576137696338, 18.64230101469936, 0.0], [73.81552439981309, 18.64229952180057, 0.0], [73.8155257145634, 18.642109891902837, 0.0], [73.81551679685043, 18.642073561768395, 0.0], [73.81546125790756, 18.64184729971266, 0.0], [73.81545534026766, 18.641823191599045, 0.0], [73.81545285656463, 18.64181028558688, 0.0], [73.81545169357847, 18.641797211116575, 0.0], [73.81545186220748, 18.641784090712104, 0.0], [73.81545336087109, 18.641771047327897, 0.0], [73.81545617552469, 18.641758203196567, 0.0], [73.81546027979118, 18.64174567868343, 0.0], [73.8154656352083, 18.64173359115863, 0.0], [73.81547219158892, 18.641722053897098, 0.0], [73.81547988749153, 18.641711175017146, 0.0], [73.81548865079586, 18.641701056467223, 0.0], [73.81549839937885, 18.6416917930705, 0.0], [73.81550857030962, 18.641683840363207, 0.0], [73.81550007976733, 18.641641758128248, 0.0], [73.81549976043229, 18.641639632710636, 0.0], [73.81549931363809, 18.641637615278963, 0.0], [73.81549662181702, 18.6416216103835, 0.0], [73.81548409215323, 18.641547112100508, 0.0], [73.81546384427928, 18.641461944512, 0.0], [73.8154432474708, 18.64139536195816, 0.0], [73.81529368873788, 18.641394419594967, 0.0], [73.81529501506847, 18.641203146708552, 0.0], [73.81527906425092, 18.641198968024128, 0.0], [73.81526964478361, 18.64119616180037, 0.0], [73.8152373371994, 18.641185350047536, 0.0], [73.81522839727351, 18.641182031294502, 0.0], [73.81519544797582, 18.641168562268863, 0.0], [73.81519391646219, 18.64116787873784, 0.0], [73.81505827965536, 18.641167023930098, 0.0], [73.81482130413826, 18.64116553023264, 0.0], [73.81479704035411, 18.641165377276973, 0.0], [73.81463754507541, 18.641206506772708, 0.0], [73.8146348831225, 18.641207115152366, 0.0], [73.81458395921457, 18.641217280771386, 0.0], [73.81434664453843, 18.641264654205195, 0.0], [73.8143457854618, 18.641388444130435, 0.0], [73.81410880969894, 18.64138694951795, 0.0], [73.8140122031457, 18.641386340132136, 0.0], [73.81401015795062, 18.641440960631826, 0.0], [73.8140093667442, 18.641449822132373, 0.0], [73.81400766557366, 18.64145856657213, 0.0], [73.81400507091733, 18.641467109247536, 0.0], [73.81400160790841, 18.641475367409363, 0.0], [73.81399731009144, 18.641483261064426, 0.0], [73.81399221909743, 18.641490713750244, 0.0], [73.81398638424052, 18.641497653275902, 0.0], [73.81397986204041, 18.641504012421166, 0.0], [73.81397271567478, 18.64150972958773, 0.0], [73.81396501436738, 18.641514749395856, 0.0], [73.81395683271745, 18.6415190232208, 0.0], [73.81394824997712, 18.641522509663833, 0.0], [73.81393934928374, 18.6415251749533, 0.0], [73.81393021685449, 18.64152699327165, 0.0], [73.81392094115141, 18.64152794700564, 0.0], [73.81391161202424, 18.641528026916824, 0.0], [73.81387085499367, 18.641526462463798, 0.0], [73.81378644835591, 18.64152322249845, 0.0], [73.81377717684929, 18.641522430555995, 0.0], [73.81376803152978, 18.64152077555872, 0.0], [73.81375910058863, 18.64151827346632, 0.0], [73.8137504701498, 18.64151494840728, 0.0], [73.81374222343943, 18.64151083244624, 0.0], [73.81373443998318, 18.64150596527476, 0.0], [73.81372719483937, 18.641500393828533, 0.0], [73.81372055787521, 18.641494171834857, 0.0], [73.813714593093, 18.641487359294352, 0.0], [73.81370935801296, 18.64148002190259, 0.0], [73.81370490311853, 18.64147223041636, 0.0], [73.81370127136957, 18.641464059971433, 0.0], [73.81369849778805, 18.641455589358003, 0.0], [73.81369660912037, 18.641446900260874, 0.0], [73.81369562357939, 18.6414380764717, 0.0], [73.81369555066888, 18.64142920308104, 0.0], [73.81369749421177, 18.641384354631043, 0.0], [73.81363485824065, 18.641383959397363, 0.0], [73.81363328956903, 18.64160986152192, 0.0], [73.81339631356043, 18.6416083659944, 0.0], [73.81315933757433, 18.641606870168335, 0.0], [73.8131577682539, 18.64183277224849, 0.0], [73.81292079197712, 18.641831276104455, 0.0], [73.81268381572283, 18.641829779661872, 0.0], [73.81268299120065, 18.641948420120723, 0.0]]], [[[73.81269610375152, 18.64369275783888, 0.0], [73.81269839504095, 18.64370077340758, 0.0], [73.81274498420528, 18.643831756581754, 0.0], [73.81275398682965, 18.643854059972558, 0.0], [73.81275853650116, 18.64386345895039, 0.0], [73.81290666426243, 18.643864394401348, 0.0], [73.81290551079634, 18.644030378015504, 0.0], [73.81291267414987, 18.644033840447502, 0.0], [73.81291525049694, 18.644035182934406, 0.0], [73.8129297620794, 18.64404331101347, 0.0], [73.81293224628293, 18.644044802990376, 0.0], [73.8129462020679, 18.64405377200285, 0.0], [73.81294858459498, 18.644055407744517, 0.0], [73.81296193102656, 18.644065183271746, 0.0], [73.81296420273331, 18.64406695650036, 0.0], [73.81297688859394, 18.64407750102816, 0.0], [73.81297904076327, 18.644079404939433, 0.0], [73.81299101737046, 18.644090678003035, 0.0], [73.81299117852207, 18.644090839994544, 0.0], [73.81314207381256, 18.64409179274491, 0.0], [73.81314065649393, 18.644295782247184, 0.0], [73.81315442294488, 18.6443177826414, 0.0], [73.81329634518232, 18.64454459055917, 0.0], [73.813375914712, 18.644545092856188, 0.0], [73.81337504450187, 18.644670360754386, 0.0], [73.81343744276224, 18.64477007991112, 0.0], [73.81346286745564, 18.644746165959905, 0.0], [73.81346489507771, 18.644744367201376, 0.0], [73.81350237471754, 18.644713015264994, 0.0], [73.81350450910143, 18.644711332481357, 0.0], [73.81354384592186, 18.64468212104697, 0.0], [73.8135460797785, 18.644680559985, 0.0], [73.81358713944239, 18.644653588810513, 0.0], [73.8135894651431, 18.64465215480129, 0.0], [73.81361225304236, 18.644638987905044, 0.0], [73.8136128947921, 18.64454658863618, 0.0], [73.8138498748947, 18.644548084117574, 0.0], [73.81385913835152, 18.64454814256927, 0.0], [73.81393527085139, 18.644522634279106, 0.0], [73.81397853515806, 18.64450557034836, 0.0], [73.81402026632088, 18.64448593361069, 0.0], [73.81406054262338, 18.644463707123798, 0.0], [73.81408757122156, 18.644446418557358, 0.0], [73.8140884233572, 18.644323677209133, 0.0], [73.8140890379554, 18.644235150084974, 0.0], [73.81408131933162, 18.644228196586567, 0.0], [73.81399747188749, 18.644161499715295, 0.0], [73.81393555467018, 18.644118433405225, 0.0], [73.81389913548809, 18.644096570991607, 0.0], [73.81385301217355, 18.64409627996836, 0.0], [73.8136160326974, 18.64409478452579, 0.0], [73.81361699703135, 18.643955934505325, 0.0], [73.81360958363071, 18.643951500302055, 0.0], [73.81360692531038, 18.64394978807572, 0.0], [73.8135710870544, 18.643924980076182, 0.0], [73.81356855633798, 18.643923100341446, 0.0], [73.81353456076526, 18.643896038019832, 0.0], [73.81353216924776, 18.64389399938911, 0.0], [73.8135038525162, 18.643868164558736, 0.0], [73.81338062247586, 18.643867386740553, 0.0], [73.81338151869872, 18.643738367679255, 0.0], [73.81330893847502, 18.64366032991591, 0.0], [73.81328938768861, 18.643640898873, 0.0], [73.81314521288076, 18.643639988690026, 0.0], [73.81314619532587, 18.64349858333614, 0.0], [73.81314422078303, 18.643496620881912, 0.0], [73.8131377645069, 18.643490843035178, 0.0], [73.81313116691803, 18.643485671325003, 0.0], [73.81312422766443, 18.643480923296686, 0.0], [73.81311697663642, 18.643476619402122, 0.0], [73.81310944506637, 18.643472778179454, 0.0], [73.8131016653962, 18.643469416174483, 0.0], [73.81309367113586, 18.643466547868712, 0.0], [73.81308549671999, 18.64346418561705, 0.0], [73.81307717735899, 18.643462339594723, 0.0], [73.81306874888737, 18.643461017753154, 0.0], [73.81306024761012, 18.643460225786047, 0.0], [73.81305171014544, 18.643459967104768, 0.0], [73.81304317326753, 18.6434602428235, 0.0], [73.8130346344242, 18.6434610554972, 0.0], [73.81301309709244, 18.64346444222607, 0.0], [73.81299178429855, 18.643469109281572, 0.0], [73.81297081773998, 18.643475032420316, 0.0], [73.81295027879762, 18.64348218865188, 0.0], [73.81293024719258, 18.643490550199576, 0.0], [73.81291074331929, 18.643500112730106, 0.0], [73.81290918961933, 18.64350098977075, 0.0], [73.81290823409849, 18.643638492390558, 0.0], [73.81269496507494, 18.64363714554067, 0.0], [73.8126937715518, 18.643643553058613, 0.0], [73.81269279809288, 18.643651757790895, 0.0], [73.81269236939602, 18.64366000471375, 0.0], [73.81269248716815, 18.643668260992243, 0.0], [73.81269315094046, 18.643676493754022, 0.0], [73.81269435807033, 18.643684670220992, 0.0], [73.81269610375152, 18.64369275783888, 0.0]]], [[[73.81368944197176, 18.641154686793335, 0.0], [73.81374250216348, 18.641158726583363, 0.0], [73.81387340229453, 18.641159552457406, 0.0], [73.81408146168371, 18.641160864956472, 0.0], [73.81411039661205, 18.641158325841097, 0.0], [73.81418303727402, 18.641151951413587, 0.0], [73.81430497974627, 18.64113450639903, 0.0], [73.81434760678228, 18.64112599709112, 0.0], [73.81458492126333, 18.641078623628715, 0.0], [73.81458589601768, 18.640938134023333, 0.0], [73.81482287119915, 18.64093962799994, 0.0], [73.81482336929028, 18.64086782417671, 0.0], [73.81470411562255, 18.640720922440984, 0.0], [73.81469988795233, 18.640715435231893, 0.0], [73.81469805687762, 18.640712929054708, 0.0], [73.81458746336926, 18.640712231804496, 0.0], [73.81458849890902, 18.640562977786693, 0.0], [73.81457564554029, 18.64054538544528, 0.0], [73.81457171224365, 18.640539702792, 0.0], [73.8145365387912, 18.640485998619596, 0.0], [73.81435205616565, 18.64048483534378, 0.0], [73.81435362378544, 18.640258933133243, 0.0], [73.81411664958833, 18.6402574386178, 0.0], [73.81387967541369, 18.64025594380384, 0.0], [73.81387810716761, 18.640481845975554, 0.0], [73.8136411327023, 18.64048035084366, 0.0], [73.8136395641206, 18.640706252990405, 0.0], [73.81363799551643, 18.64093215513161, 0.0], [73.81363647562688, 18.641151038555027, 0.0], [73.81363769920063, 18.641151050293672, 0.0], [73.81364079922606, 18.64115117686065, 0.0], [73.81368924552936, 18.641154672228627, 0.0], [73.81368944197176, 18.641154686793335, 0.0]]], [[[73.81384238847711, 18.645075490528153, 0.0], [73.81384044110992, 18.645064584293728, 0.0], [73.81383957067928, 18.645058443040945, 0.0], [73.81383841205738, 18.6450474352218, 0.0], [73.81383798523393, 18.645041251541116, 0.0], [73.81383762080628, 18.645030193909076, 0.0], [73.81383763959731, 18.645023996883566, 0.0], [73.81383807107761, 18.645012941444513, 0.0], [73.8138385353946, 18.645006760219164, 0.0], [73.81383930604298, 18.644999841351083, 0.0], [73.81383976075332, 18.64499575896881, 0.0], [73.81384066841241, 18.644989622615277, 0.0], [73.81384268188627, 18.644978727294173, 0.0], [73.8138440286183, 18.6449726646733, 0.0], [73.81384682073728, 18.644961926524157, 0.0], [73.81384700543501, 18.644961307875302, 0.0], [73.81384830622154, 18.644773986183864, 0.0], [73.81365621045151, 18.644772773957335, 0.0], [73.81362470449051, 18.644793706079124, 0.0], [73.81361110703101, 18.644803989524384, 0.0], [73.81360975679686, 18.64499839272436, 0.0], [73.81360947432479, 18.645039062014575, 0.0], [73.81373293684669, 18.645225082063707, 0.0], [73.8138451688078, 18.64522579029978, 0.0], [73.8138461044902, 18.64509104846075, 0.0], [73.81384369842132, 18.64508156046952, 0.0], [73.81384238847711, 18.645075490528153, 0.0]]], [[[73.81393876628952, 18.635512161923934, 0.0], [73.81414957098904, 18.635513491322545, 0.0], [73.81434647189896, 18.635514732826216, 0.0], [73.8143865586458, 18.63551209745753, 0.0], [73.8144126749099, 18.635510380526696, 0.0], [73.81462366357482, 18.635493797216874, 0.0], [73.81469385994608, 18.63548827986145, 0.0], [73.81486075879117, 18.63547689262091, 0.0], [73.81486204042254, 18.635292070379478, 0.0], [73.81501416884855, 18.63529302901463, 0.0], [73.81505610296033, 18.63520377797179, 0.0], [73.81509986003341, 18.63517063829102, 0.0], [73.81510057396304, 18.63506766117631, 0.0], [73.81528604537151, 18.635068829658028, 0.0], [73.8153268671225, 18.635052068061032, 0.0], [73.81533765718348, 18.635052399416434, 0.0], [73.81552149204317, 18.63505804476421, 0.0], [73.81553201889571, 18.635070379024803, 0.0], [73.81557450815743, 18.63507064662854, 0.0], [73.81557416776425, 18.63511976462095, 0.0], [73.81560181024611, 18.6351521531442, 0.0], [73.81568328405423, 18.63528727552358, 0.0], [73.81578588231658, 18.635297890060848, 0.0], [73.81580991006342, 18.635298041361512, 0.0], [73.81581147528827, 18.63507213890702, 0.0], [73.81581270004153, 18.634895373053357, 0.0], [73.81557564605016, 18.634906450072368, 0.0], [73.81533859204634, 18.634917526790783, 0.0], [73.81529059871296, 18.634919769317552, 0.0], [73.81510152287714, 18.63493078889131, 0.0], [73.81486444984203, 18.634944605529597, 0.0], [73.81473558380559, 18.634952115727256, 0.0], [73.81462737798579, 18.634958248999403, 0.0], [73.81462663985847, 18.635064674530344, 0.0], [73.81438967283987, 18.635063180759712, 0.0], [73.81415270584374, 18.63506168669065, 0.0], [73.81391573887008, 18.635060192323156, 0.0], [73.8139153134845, 18.635121488677143, 0.0], [73.8139162768575, 18.635123187364112, 0.0], [73.81391810177242, 18.635127352021467, 0.0], [73.81391948171937, 18.635131669470518, 0.0], [73.8139204029277, 18.635136096627093, 0.0], [73.81392085620458, 18.6351405893122, 0.0], [73.81392787383429, 18.63528618104391, 0.0], [73.81393876628952, 18.635512161923934, 0.0]]], [[[73.81402586834362, 18.644775106520754, 0.0], [73.81408556607904, 18.644735234879686, 0.0], [73.81408646401701, 18.64460589852249, 0.0], [73.8140840083351, 18.644607143918726, 0.0], [73.81403757243189, 18.644628882286643, 0.0], [73.81403477054404, 18.644630088076543, 0.0], [73.81398695398427, 18.64464891117061, 0.0], [73.81398457960321, 18.64464977556801, 0.0], [73.81388821990654, 18.644682061004943, 0.0], [73.81388631084903, 18.644682657614066, 0.0], [73.81384886493048, 18.64469352779148, 0.0], [73.81384830622154, 18.644773986183864, 0.0], [73.81402586834362, 18.644775106520754, 0.0]]], [[[73.81401687867604, 18.64526615846891, 0.0], [73.8140107477058, 18.645264097618774, 0.0], [73.81399994136511, 18.645260062954367, 0.0], [73.81399397298817, 18.64525760638201, 0.0], [73.81398348215606, 18.645252875171458, 0.0], [73.81397770444508, 18.645250034431477, 0.0], [73.81396757846156, 18.64524462892654, 0.0], [73.81396201858927, 18.645241417379136, 0.0], [73.81395230507894, 18.64523536300307, 0.0], [73.81394698919428, 18.645231795752647, 0.0], [73.81393948716386, 18.64522638544082, 0.0], [73.8138451688078, 18.64522579029978, 0.0], [73.813844011558, 18.645392437095907, 0.0], [73.81384498362375, 18.64539390169491, 0.0], [73.81384574907005, 18.645395095501577, 0.0], [73.81388093272031, 18.645451927923784, 0.0], [73.81408058144521, 18.645453187609874, 0.0], [73.81408179253043, 18.64527875414932, 0.0], [73.8140813025616, 18.645278723917748, 0.0], [73.81406975364936, 18.645277631192556, 0.0], [73.81406331028327, 18.64527680799921, 0.0], [73.81405186709749, 18.645274963293637, 0.0], [73.81404549807138, 18.645273721057627, 0.0], [73.81403421443157, 18.645271133047615, 0.0], [73.81402794970076, 18.64526947761144, 0.0], [73.81401687867604, 18.64526615846891, 0.0]]], [[[73.81552639581768, 18.645914127766847, 0.0], [73.8156899392438, 18.64614107030503, 0.0], [73.81573475288153, 18.646141352653192, 0.0], [73.81594439210554, 18.64614267334246, 0.0], [73.8159718644557, 18.64612422569731, 0.0], [73.81610010507261, 18.646038112190777, 0.0], [73.8162100222052, 18.64595614764422, 0.0], [73.8162102835743, 18.645918435987078, 0.0], [73.81626017336544, 18.645918750175497, 0.0], [73.8163266481305, 18.6458691802289, 0.0], [73.81644817460247, 18.645788775212, 0.0], [73.81644883114316, 18.645694026048304, 0.0], [73.81659144337027, 18.645694923944706, 0.0], [73.8166862328884, 18.64563492084752, 0.0], [73.81668737808553, 18.64546961576663, 0.0], [73.81692435973292, 18.645471107443765, 0.0], [73.81694895541162, 18.645471262243753, 0.0], [73.81715272653699, 18.64533559011596, 0.0], [73.81716233400655, 18.645329261229712, 0.0], [73.81716290575798, 18.645246696501218, 0.0], [73.81728648955833, 18.645247474114058, 0.0], [73.81732525212527, 18.645221939349643, 0.0], [73.81740041724075, 18.645171621309817, 0.0], [73.81740145115656, 18.64502228521579, 0.0], [73.8176214279446, 18.645023669001848, 0.0], [73.81763851215045, 18.64501223221367, 0.0], [73.81764678169624, 18.64500669627809, 0.0], [73.81781643591567, 18.644896266404867, 0.0], [73.81787660794703, 18.64485265176588, 0.0], [73.81787697672603, 18.644799364012133, 0.0], [73.81794949605784, 18.64479982004255, 0.0], [73.81794971936918, 18.644799658178986, 0.0], [73.81810588505341, 18.64469387336827, 0.0], [73.8181147423361, 18.644687430327565, 0.0], [73.81811552058086, 18.644574951723033, 0.0], [73.81811708359353, 18.644349049302367, 0.0], [73.81811733155824, 18.64431321063345, 0.0], [73.81801475575668, 18.644252383868853, 0.0], [73.81802616993346, 18.644125562759356, 0.0], [73.81788380894189, 18.644145655741948, 0.0], [73.81788616883115, 18.644121685119135, 0.0], [73.81788166670373, 18.644121656808146, 0.0], [73.81788322998483, 18.643895754395718, 0.0], [73.81788479324354, 18.643669851977737, 0.0], [73.81788635647983, 18.64344394955422, 0.0], [73.81788791969372, 18.643218047125146, 0.0], [73.8178894828852, 18.642992144690524, 0.0], [73.81799905521873, 18.642992833649874, 0.0], [73.81800186440469, 18.6429652967768, 0.0], [73.81801917903358, 18.64276704789799, 0.0], [73.81803889882939, 18.64254125959605, 0.0], [73.81804528877687, 18.64246809561152, 0.0], [73.81806089362424, 18.642315485586987, 0.0], [73.81807218457428, 18.642205063766447, 0.0], [73.81808033285729, 18.6421313897885, 0.0], [73.81789551783127, 18.642119982459555, 0.0], [73.81771122602902, 18.642108607243728, 0.0], [73.8176586242832, 18.64210642206116, 0.0], [73.81742170505173, 18.642096579775945, 0.0], [73.81742021764346, 18.642311456631266, 0.0], [73.81741865389283, 18.642537359043825, 0.0], [73.81731827473382, 18.64253672759414, 0.0], [73.81731449449877, 18.6425718806183, 0.0], [73.81731320945057, 18.6425808597417, 0.0], [73.81730563239209, 18.64262318497693, 0.0], [73.81730372080355, 18.642632062175966, 0.0], [73.81729319379303, 18.642673810166542, 0.0], [73.81729066420843, 18.6426825457599, 0.0], [73.81727723429984, 18.642723529888972, 0.0], [73.8172740980263, 18.642732084827205, 0.0], [73.817261823511, 18.642762284689617, 0.0], [73.81725782525011, 18.642772121892335, 0.0], [73.81725409630627, 18.64278045793491, 0.0], [73.81723505340074, 18.642819368967, 0.0], [73.81723074845516, 18.642827448850333, 0.0], [73.81720902054182, 18.64286505991345, 0.0], [73.81720415883709, 18.642872847520614, 0.0], [73.81720206763912, 18.642875955875233, 0.0], [73.81720129315059, 18.64298781609109, 0.0], [73.81720007419399, 18.64316386970225, 0.0], [73.81719926065145, 18.64317748125871, 0.0], [73.81719701680494, 18.643190946053497, 0.0], [73.81719444302031, 18.64320023746907, 0.0], [73.81720094921656, 18.64321338691754, 0.0], [73.81720109646314, 18.643213727072904, 0.0], [73.81741396250642, 18.64321506624822, 0.0], [73.81741239866612, 18.643440968638583, 0.0], [73.81764937756176, 18.643442459245687, 0.0], [73.81764781401228, 18.64366836164986, 0.0], [73.81764625044036, 18.643894264048495, 0.0], [73.81764468684607, 18.644120166441564, 0.0], [73.81764312322935, 18.64434606882909, 0.0], [73.81740614308085, 18.644344578144565, 0.0], [73.81740457912849, 18.64457048050719, 0.0], [73.8171675986892, 18.644568989504716, 0.0], [73.81693061827231, 18.644567498203642, 0.0], [73.81669363787783, 18.64456600660398, 0.0], [73.81669520276985, 18.644340104299438, 0.0], [73.81646057421547, 18.64433862722563, 0.0], [73.8164579477546, 18.644378296453134, 0.0], [73.8164566575058, 18.644564514705714, 0.0], [73.81639531434072, 18.644564128474173, 0.0], [73.81638120063049, 18.64458563575551, 0.0], [73.81637948683067, 18.644588068185396, 0.0], [73.81634909226608, 18.644628323233253, 0.0], [73.81634721667142, 18.64463064465483, 0.0], [73.81631414878609, 18.644668937015194, 0.0], [73.81631211928497, 18.644671137664876, 0.0], [73.81627651715675, 18.644707306284655, 0.0], [73.81627434228496, 18.644709376906736, 0.0], [73.81623635565043, 18.644743269665312, 0.0], [73.81623404455515, 18.644745201550993, 0.0], [73.81621832938055, 18.644757502174507, 0.0], [73.81621811161529, 18.644788924769102, 0.0], [73.81617554043152, 18.644788656675868, 0.0], [73.81606803771959, 18.644857617598294, 0.0], [73.81606766748031, 18.64485785270068, 0.0], [73.81598026202384, 18.64491279246076, 0.0], [73.81597956509833, 18.645013334489587, 0.0], [73.81582188629848, 18.64501234124425, 0.0], [73.81574223358734, 18.64506240772408, 0.0], [73.81574101795489, 18.64523774386716, 0.0], [73.8155040367329, 18.645236250716355, 0.0], [73.81546604012576, 18.645236011282826, 0.0], [73.81526617549436, 18.645361637269644, 0.0], [73.81526548867222, 18.645460659433006, 0.0], [73.81526486064317, 18.645551204596266, 0.0], [73.81536285281652, 18.645687185105167, 0.0], [73.81550090361463, 18.6456880550817, 0.0], [73.81549959376233, 18.6458769355804, 0.0], [73.81552639581768, 18.645914127766847, 0.0]]], [[[73.8158096538817, 18.64081497155412, 0.0], [73.81582113924281, 18.640822105506878, 0.0], [73.81582376163924, 18.640823857451277, 0.0], [73.81583471545103, 18.640831714437, 0.0], [73.81583720776314, 18.640833631187398, 0.0], [73.8158475800224, 18.640842175339884, 0.0], [73.81584993087212, 18.64084424814583, 0.0], [73.81585967423071, 18.640853440461925, 0.0], [73.81586187288744, 18.64085565986196, 0.0], [73.8158709428676, 18.640865458379693, 0.0], [73.81587297929427, 18.640867814242135, 0.0], [73.81588133449252, 18.640878174232448, 0.0], [73.81588319939316, 18.640880655803194, 0.0], [73.81589080166864, 18.6408915299738, 0.0], [73.81589248652993, 18.640894125924493, 0.0], [73.81589930117894, 18.640905464635935, 0.0], [73.81590079830968, 18.640908163116308, 0.0], [73.81590679422392, 18.640919914608492, 0.0], [73.81590809679004, 18.640922703300745, 0.0], [73.8159132465985, 18.64093481392951, 0.0], [73.81591434865378, 18.640937680103473, 0.0], [73.81591739794453, 18.640946524413888, 0.0], [73.81600774744335, 18.64094709340496, 0.0], [73.81600618194824, 18.641172995734603, 0.0], [73.81600461643069, 18.641398898058696, 0.0], [73.81600356039641, 18.641551280718463, 0.0], [73.81600512331214, 18.641560843170794, 0.0], [73.81601321546029, 18.6415962269694, 0.0], [73.81601747957343, 18.641591303377314, 0.0], [73.81602722812283, 18.641582039950837, 0.0], [73.8160378705972, 18.641573718484587, 0.0], [73.81604930726346, 18.641566416960845, 0.0], [73.81606143094598, 18.641560203803834, 0.0], [73.81607412803108, 18.641555137238395, 0.0], [73.81608727953152, 18.641551264744457, 0.0], [73.81624080719278, 18.641513712335314, 0.0], [73.81624159237316, 18.641400390282858, 0.0], [73.81647856833808, 18.641401882208477, 0.0], [73.81647782440741, 18.641509272365948, 0.0], [73.81648633097093, 18.6415158499521, 0.0], [73.81649625416803, 18.64152520174007, 0.0], [73.8165051680056, 18.641535435695143, 0.0], [73.81651298663714, 18.641546453257327, 0.0], [73.81651963476352, 18.641558148319888, 0.0], [73.81652504835851, 18.641570408251294, 0.0], [73.81652917528511, 18.641583114979902, 0.0], [73.81654130721229, 18.64162818935526, 0.0], [73.81659438542007, 18.641825393303527, 0.0], [73.81659718566446, 18.64183842274611, 0.0], [73.81659863287577, 18.64185165107736, 0.0], [73.81659864983841, 18.641854462517234, 0.0], [73.8165987131196, 18.641864950932252, 0.0], [73.81659742562309, 18.641878194257067, 0.0], [73.81659478278212, 18.641891253542372, 0.0], [73.81659081004229, 18.641904003050623, 0.0], [73.81658554565362, 18.6419163200269, 0.0], [73.81657904030256, 18.64192808588076, 0.0], [73.81657135662373, 18.641939187328017, 0.0], [73.81656256859705, 18.641949517481585, 0.0], [73.81655276083538, 18.64195897688048, 0.0], [73.81654202776983, 18.64196747444755, 0.0], [73.81653047274064, 18.641974928366363, 0.0], [73.81651820700205, 18.64198126686895, 0.0], [73.81650534865129, 18.64198642892681, 0.0], [73.8164920214914, 18.64199036483852, 0.0], [73.81647446186612, 18.641994663077007, 0.0], [73.8164738735298, 18.642079589263723, 0.0], [73.81625648557542, 18.642078220621443, 0.0], [73.81625668317905, 18.64207851442891, 0.0], [73.81627196274427, 18.642093650028265, 0.0], [73.81628647078294, 18.64210651546423, 0.0], [73.81629345528941, 18.64211315459737, 0.0], [73.81630967994137, 18.64212968581755, 0.0], [73.8163161648078, 18.64213677056403, 0.0], [73.81633114817853, 18.642154334252705, 0.0], [73.81633710219867, 18.64216183051975, 0.0], [73.81635077218726, 18.64218034215989, 0.0], [73.81635616671066, 18.64218821387612, 0.0], [73.81636845753599, 18.642207584389194, 0.0], [73.81637326660339, 18.642215793675245, 0.0], [73.81638411912076, 18.64223592984949, 0.0], [73.81638831959047, 18.642244437202045, 0.0], [73.81639445917072, 18.642258081059396, 0.0], [73.81643474319667, 18.642305255113705, 0.0], [73.81647230854885, 18.642305491604372, 0.0], [73.81656090128646, 18.64230604930551, 0.0], [73.81656677577207, 18.64230105363249, 0.0], [73.8165876871713, 18.64228067032941, 0.0], [73.81660709485364, 18.642258977633414, 0.0], [73.81662490882393, 18.64223607613566, 0.0], [73.81664123464691, 18.642211792138596, 0.0], [73.81666858734287, 18.642165882676544, 0.0], [73.81669463810259, 18.64211792700053, 0.0], [73.81669493989483, 18.64211738062077, 0.0], [73.81670375691073, 18.642101679069736, 0.0], [73.81670532409045, 18.642099096885534, 0.0], [73.81671078348572, 18.642090750090745, 0.0], [73.81671085045666, 18.64208108094891, 0.0], [73.81671724192545, 18.64208112117679, 0.0], [73.81672786077054, 18.64206704834111, 0.0], [73.81672977103158, 18.642064685390853, 0.0], [73.81674165752254, 18.64205094528187, 0.0], [73.81674372719756, 18.642048707651877, 0.0], [73.81675653895468, 18.64203574524, 0.0], [73.81675875902114, 18.642033642685018, 0.0], [73.81677244019018, 18.642021514481193, 0.0], [73.8167748009694, 18.642019556167586, 0.0], [73.8167892919061, 18.642008315045693, 0.0], [73.81679178310561, 18.6420065095112, 0.0], [73.81680702063521, 18.641996204477792, 0.0], [73.81680963139503, 18.641994559593336, 0.0], [73.81682554908824, 18.641985235574175, 0.0], [73.81682826802623, 18.641983758511007, 0.0], [73.81684479648838, 18.641975456154963, 0.0], [73.81684761175092, 18.641974153352532, 0.0], [73.81686467892493, 18.64196690885427, 0.0], [73.81686757823876, 18.64196578599216, 0.0], [73.81688510971861, 18.641959630934757, 0.0], [73.81688808044389, 18.641958692908204, 0.0], [73.81690599979989, 18.64195365412503, 0.0], [73.81690902898593, 18.641952905023324, 0.0], [73.81692725809704, 18.64194900448156, 0.0], [73.81693033253744, 18.641948447570602, 0.0], [73.81694877519118, 18.64194570476472, 0.0], [73.81694939173809, 18.641856669950606, 0.0], [73.81714497902247, 18.64185790061689, 0.0], [73.81715285510813, 18.641836922407748, 0.0], [73.81715610518326, 18.641829049365636, 0.0], [73.81718704478936, 18.641760463791428, 0.0], [73.8171879323932, 18.641632258609484, 0.0], [73.81718949636736, 18.641406356194086, 0.0], [73.81735189592865, 18.641407377823754, 0.0], [73.8173649606327, 18.641371232131007, 0.0], [73.81739331160699, 18.641274015566587, 0.0], [73.81741396705134, 18.64118185599152, 0.0], [73.81741542761058, 18.641175339326534, 0.0], [73.81742866016704, 18.64109177749084, 0.0], [73.81742959967674, 18.6409560420394, 0.0], [73.81743116327053, 18.640730139587998, 0.0], [73.8174327268419, 18.64050423713106, 0.0], [73.81743429039085, 18.640278334668565, 0.0], [73.81758054310428, 18.640279254489286, 0.0], [73.81758073704984, 18.64027851864546, 0.0], [73.81758479721869, 18.640265792502504, 0.0], [73.81759014635317, 18.640253507011423, 0.0], [73.81759673293803, 18.640241780488058, 0.0], [73.81760449354066, 18.640230725865127, 0.0], [73.81761335342213, 18.64022044960455, 0.0], [73.8176232272569, 18.64021105067218, 0.0], [73.81763401995451, 18.640202619584713, 0.0], [73.81764562757553, 18.640195237538006, 0.0], [73.81765793833233, 18.640188975625062, 0.0], [73.81767083366579, 18.640183894151413, 0.0], [73.8176719309228, 18.6401835776773, 0.0], [73.81768418938704, 18.640180042054325, 0.0], [73.81769787687345, 18.64017745643156, 0.0], [73.81771176430736, 18.64017616218401, 0.0], [73.81772571794552, 18.640176171775995, 0.0], [73.81773960340703, 18.640177485115128, 0.0], [73.81775328696766, 18.640180089553322, 0.0], [73.8177666368475, 18.640183960008454, 0.0], [73.8177795244802, 18.640189059206044, 0.0], [73.81779182575099, 18.640195338038133, 0.0], [73.81780342219209, 18.64020273603628, 0.0], [73.81781420212351, 18.640211181953863, 0.0], [73.8178240617287, 18.64022059445223, 0.0], [73.81783290605422, 18.64023088288401, 0.0], [73.81784064992432, 18.640241948166146, 0.0], [73.81784721876116, 18.640253683734024, 0.0], [73.81785254930303, 18.640265976567864, 0.0], [73.81785659021368, 18.64027870828102, 0.0], [73.8178570652138, 18.640280993296678, 0.0], [73.81790823943575, 18.640281315042326, 0.0], [73.81790667651308, 18.640507217543526, 0.0], [73.81781382765419, 18.640506633761493, 0.0], [73.8177901054233, 18.640596637957163, 0.0], [73.8177647002513, 18.640732237170205, 0.0], [73.81774303942827, 18.640847850849376, 0.0], [73.81773059865023, 18.64095793504131, 0.0], [73.81771383727602, 18.641106250422606, 0.0], [73.81771306239561, 18.64111196399694, 0.0], [73.8177017080943, 18.64118366566624, 0.0], [73.81769597497774, 18.641219869894027, 0.0], [73.81769442964476, 18.641227958172717, 0.0], [73.81767051101991, 18.6413346780358, 0.0], [73.8176684541277, 18.641342662125933, 0.0], [73.81766379946059, 18.64135862325152, 0.0], [73.81766344849896, 18.641409337358454, 0.0], [73.81766188515111, 18.641635239812565, 0.0], [73.8175653049788, 18.641634632412003, 0.0], [73.81755109811888, 18.64166734840112, 0.0], [73.8175475593286, 18.641674845758047, 0.0], [73.81749744162134, 18.641772960463033, 0.0], [73.81749646734585, 18.641774831035885, 0.0], [73.8174542677558, 18.64185430946732, 0.0], [73.81745177711669, 18.641859830629375, 0.0], [73.81766032178088, 18.64186114226112, 0.0], [73.81765956279062, 18.641970812973344, 0.0], [73.8177194879562, 18.641973302386667, 0.0], [73.81772055270149, 18.641973358064018, 0.0], [73.8178964556245, 18.641984449510694, 0.0], [73.81809501641114, 18.641996969435727, 0.0], [73.8180996368805, 18.641997478805916, 0.0], [73.8181041827265, 18.641998417444086, 0.0], [73.8181086101702, 18.641999776310655, 0.0], [73.8181128765729, 18.642001542319004, 0.0], [73.81811694084683, 18.64200369846153, 0.0], [73.81812076385087, 18.642006223973418, 0.0], [73.81812302385799, 18.6420080540544, 0.0], [73.81813327830838, 18.642008234226136, 0.0], [73.81813427525478, 18.641864122308718, 0.0], [73.81813583799867, 18.641638219821466, 0.0], [73.8181374007202, 18.64141231732866, 0.0], [73.8181389634193, 18.64118641483031, 0.0], [73.81816783277584, 18.641186596305396, 0.0], [73.8181812759553, 18.64106769456818, 0.0], [73.81837165723331, 18.64106586160942, 0.0], [73.81837678311868, 18.641065889627832, 0.0], [73.81837750161392, 18.640962001825013, 0.0], [73.81861447715421, 18.640963491025083, 0.0], [73.81861603918223, 18.640737588476952, 0.0], [73.81875359442311, 18.640738452753574, 0.0], [73.81875888363211, 18.640512573606625, 0.0], [73.81876417280886, 18.64028669445344, 0.0], [73.81876539200842, 18.640234627220053, 0.0], [73.81877536202408, 18.64006085236101, 0.0], [73.81878831861891, 18.639835021364505, 0.0], [73.81869309184421, 18.63983442309594, 0.0], [73.81869309792454, 18.639834755360035, 0.0], [73.81869280516493, 18.63984360031178, 0.0], [73.81869160625052, 18.639852375551648, 0.0], [73.81868951267936, 18.639860996920575, 0.0], [73.81868654452975, 18.639869381735164, 0.0], [73.81868273026771, 18.63987744958069, 0.0], [73.81867810647383, 18.639885123082305, 0.0], [73.81867271749263, 18.63989232864715, 0.0], [73.81866661500717, 18.639898997170086, 0.0], [73.81865985754341, 18.639905064696467, 0.0], [73.8186525099089, 18.63991047303555, 0.0], [73.81864464257127, 18.639915170318513, 0.0], [73.81863633098243, 18.63991911149595, 0.0], [73.81862765485484, 18.639922258769907, 0.0], [73.81862166594303, 18.639923812040905, 0.0], [73.81861869739716, 18.639924581956354, 0.0], [73.81860954451611, 18.639926058774723, 0.0], [73.81860028399268, 18.639926675061556, 0.0], [73.81850915028768, 18.639928474778017, 0.0], [73.81849997845084, 18.63992823249376, 0.0], [73.81849087415326, 18.639927146026242, 0.0], [73.81848192269557, 18.639925225554865, 0.0], [73.81847320794645, 18.63992248907308, 0.0], [73.81846481155678, 18.63991896221973, 0.0], [73.81845681219461, 18.639914678038906, 0.0], [73.81844928480812, 18.639909676670253, 0.0], [73.8184422999234, 18.63990400497296, 0.0], [73.81843592298368, 18.63989771608672, 0.0], [73.81843021373616, 18.639890868933808, 0.0], [73.81842522567224, 18.639883527667042, 0.0], [73.81842100552632, 18.639875761068755, 0.0], [73.81841759283796, 18.639867641906246, 0.0], [73.81841501958145, 18.639859246250136, 0.0], [73.81841330986617, 18.639850652761545, 0.0], [73.81841247971077, 18.639841941955133, 0.0], [73.81841206860443, 18.639832657267522, 0.0], [73.81838531309587, 18.639832489125585, 0.0], [73.81838532837176, 18.639830280206517, 0.0], [73.81837760084127, 18.63983052623769, 0.0], [73.81836830832141, 18.639830387548752, 0.0], [73.81835907471026, 18.639829382068417, 0.0], [73.81834998876543, 18.6398275194618, 0.0], [73.8183411378251, 18.639824817633134, 0.0], [73.81833260696841, 18.639821302553592, 0.0], [73.81832447819777, 18.639817008011715, 0.0], [73.81831682965054, 18.63981197528854, 0.0], [73.81830973484782, 18.639806252760856, 0.0], [73.81830326198802, 18.639799895436155, 0.0], [73.81829747329105, 18.639792964423837, 0.0], [73.81829242440033, 18.639785526347875, 0.0], [73.81828816384787, 18.639777652706325, 0.0], [73.81828473258793, 18.639769419184095, 0.0], [73.81828216360309, 18.639760904925396, 0.0], [73.81828048158748, 18.639752191773002, 0.0], [73.81827970270919, 18.639743363481536, 0.0], [73.81827467247265, 18.63960588140983, 0.0], [73.81827068681181, 18.639496948750658, 0.0], [73.81827081549561, 18.639488136474263, 0.0], [73.81827184407892, 18.63947937805976, 0.0], [73.81827376277755, 18.63947075681856, 0.0], [73.81827655334043, 18.6394623547573, 0.0], [73.81828018922313, 18.63945425179769, 0.0], [73.8182846358405, 18.639446525016325, 0.0], [73.8182898508955, 18.639439247911568, 0.0], [73.81829578478164, 18.63943248970434, 0.0], [73.81830238105482, 18.639426314679742, 0.0], [73.81830957697024, 18.63942078157555, 0.0], [73.81831730407922, 18.63941594302347, 0.0], [73.8183254888803, 18.63941184504854, 0.0], [73.81833405351843, 18.63940852663132, 0.0], [73.81834291652548, 18.639406019337084, 0.0], [73.81835199359521, 18.639404347015603, 0.0], [73.8183611983852, 18.63940352557423, 0.0], [73.81838828753669, 18.639402374173418, 0.0], [73.81838843753192, 18.639380684006984, 0.0], [73.81862541088024, 18.639382173071684, 0.0], [73.81862485797873, 18.63946214167354, 0.0], [73.81862604181413, 18.63946607983634, 0.0], [73.81862772184525, 18.639474875983925, 0.0], [73.8186284818045, 18.63948378734287, 0.0], [73.81863260835894, 18.63960813068911, 0.0], [73.81878689445982, 18.639609100017207, 0.0], [73.81879659798496, 18.63938324857088, 0.0], [73.81880630146622, 18.639157397117334, 0.0], [73.81881436767729, 18.638969652838757, 0.0], [73.81881610865435, 18.638931546308307, 0.0], [73.81882642695074, 18.638705698702978, 0.0], [73.81882814710195, 18.63866804781305, 0.0], [73.81884188009693, 18.638479883345894, 0.0], [73.81884901251068, 18.638382157390886, 0.0], [73.81885283844854, 18.63825403974627, 0.0], [73.81885836802542, 18.63806887233529, 0.0], [73.8188637358443, 18.638028195756508, 0.0], [73.81887219677907, 18.637964079930082, 0.0], [73.81887331468832, 18.637802343477325, 0.0], [73.81887487608985, 18.637576440832202, 0.0], [73.81901841463122, 18.637577342372197, 0.0], [73.81904542390762, 18.63753948703857, 0.0], [73.81911253663885, 18.63747812838103, 0.0], [73.81911265545504, 18.637460934435286, 0.0], [73.81894804145318, 18.63735098792184, 0.0], [73.81887643746899, 18.637350538181536, 0.0], [73.81863946691621, 18.637349049589346, 0.0], [73.8184024963858, 18.637347560698696, 0.0], [73.81816552587777, 18.637346071509572, 0.0], [73.81796796435985, 18.637344829749335, 0.0], [73.81792851861101, 18.637349899345843, 0.0], [73.81775099364893, 18.63737271487689, 0.0], [73.8176912984249, 18.637384502773706, 0.0], [73.81745399334282, 18.637431362728904, 0.0], [73.81745305123049, 18.637567504685965, 0.0], [73.81721608049898, 18.637566014283586, 0.0], [73.81697910978991, 18.637564523582736, 0.0], [73.81674213910324, 18.63756303258342, 0.0], [73.81674057488392, 18.637788935054395, 0.0], [73.81673901064218, 18.638014837519822, 0.0], [73.81673744637801, 18.638240739979707, 0.0], [73.81673588209142, 18.63846664243404, 0.0], [73.81673431778242, 18.638692544882822, 0.0], [73.81673275345099, 18.638918447326066, 0.0], [73.81673118909714, 18.639144349763757, 0.0], [73.81672962472088, 18.639370252195903, 0.0], [73.81672806032219, 18.639596154622506, 0.0], [73.81672649590107, 18.639822057043553, 0.0], [73.81696346971881, 18.639823548236528, 0.0], [73.81696279493083, 18.639921006140455, 0.0], [73.81700452363356, 18.639935108439726, 0.0], [73.81701336524019, 18.63993858446268, 0.0], [73.81702179441105, 18.63994289210532, 0.0], [73.81702972533897, 18.639947987516805, 0.0], [73.81703707728877, 18.639953818826957, 0.0], [73.81704377541918, 18.63996032667431, 0.0], [73.81704975154456, 18.639967444810406, 0.0], [73.81705494482915, 18.63997510077412, 0.0], [73.81705930240632, 18.639983216629407, 0.0], [73.81706277991671, 18.63999170975857, 0.0], [73.81706534195989, 18.640000493703337, 0.0], [73.81706696245462, 18.640009479045005, 0.0], [73.81706762490448, 18.64001857431464, 0.0], [73.81706732256566, 18.640027686924274, 0.0], [73.81706538808892, 18.640050101764324, 0.0], [73.81704590163501, 18.640275891440165, 0.0], [73.81702641511146, 18.640501681105828, 0.0], [73.8170073815316, 18.64072222173968, 0.0], [73.81700665684014, 18.640727469051885, 0.0], [73.81700617405035, 18.640730964813418, 0.0], [73.81700407832678, 18.640739554055134, 0.0], [73.81700111432, 18.640747907662515, 0.0], [73.8169973102586, 18.64075594607733, 0.0], [73.8169927023716, 18.640763592743202, 0.0], [73.81698733454358, 18.640770774834706, 0.0], [73.81698125789669, 18.640777423950897, 0.0], [73.81697453030371, 18.6407834767668, 0.0], [73.81696721583698, 18.640788875636492, 0.0], [73.81695938415812, 18.64079356914212, 0.0], [73.81695674450177, 18.640794827173178, 0.0], [73.81695110985463, 18.64079751258356, 0.0], [73.81694247172948, 18.640800668404186, 0.0], [73.81693355205059, 18.640803006548545, 0.0], [73.81692443576745, 18.640804504748555, 0.0], [73.81691520970189, 18.64080514873564, 0.0], [73.81671965617669, 18.640809675209212, 0.0], [73.8164826326774, 18.640815161314013, 0.0], [73.81624560918118, 18.640820647119074, 0.0], [73.81612178782756, 18.640823512790945, 0.0], [73.81611327822509, 18.64082334535696, 0.0], [73.8161048186812, 18.640822450954143, 0.0], [73.81609647739928, 18.640820836793452, 0.0], [73.81608832162942, 18.64081851588876, 0.0], [73.81608041712599, 18.640815506951938, 0.0], [73.81600887312699, 18.640784654257022, 0.0], [73.81585952175253, 18.640720247722196, 0.0], [73.81577233793544, 18.640719698605213, 0.0], [73.81577180253043, 18.640796944037604, 0.0], [73.81577677506561, 18.6407988085586, 0.0], [73.81577971379153, 18.64080002128992, 0.0], [73.81579210277599, 18.640805614928876, 0.0], [73.8157949488898, 18.640807014058474, 0.0], [73.81580691337098, 18.640813392412518, 0.0], [73.8158096538817, 18.64081497155412, 0.0]], [[73.8169556488426, 18.640953060355383, 0.0], [73.8169540846001, 18.641178962762513, 0.0], [73.81671710890349, 18.641177471453346, 0.0], [73.81671867345915, 18.640951569065578, 0.0], [73.8169556488426, 18.640953060355383, 0.0]]], [[[73.81685786350614, 18.642130850433666, 0.0], [73.81684934500073, 18.642139469113044, 0.0], [73.81684144170363, 18.642148604881488, 0.0], [73.81683418807022, 18.642158217910662, 0.0], [73.81682761572348, 18.642168266291602, 0.0], [73.81682116732017, 18.642179749774485, 0.0], [73.8167940001703, 18.64222976063788, 0.0], [73.81679312528914, 18.642231297581883, 0.0], [73.8167637884509, 18.642280537345343, 0.0], [73.81676248017259, 18.642282602751244, 0.0], [73.81674593437909, 18.642307213974753, 0.0], [73.8167428585608, 18.64231178913365, 0.0], [73.81674102557074, 18.642314321489426, 0.0], [73.8167193657373, 18.642342167225, 0.0], [73.81671735620347, 18.642344574791938, 0.0], [73.81670896041769, 18.64235395908624, 0.0], [73.81670772109868, 18.642532885663403, 0.0], [73.8169446986743, 18.642534377088772, 0.0], [73.81694626305132, 18.64230847471493, 0.0], [73.81694782100716, 18.642083496360897, 0.0], [73.81694321896812, 18.642084481073592, 0.0], [73.81693130442463, 18.642087831349386, 0.0], [73.81691964777961, 18.6420919238338, 0.0], [73.81690829985125, 18.64209674068523, 0.0], [73.8168973101119, 18.642102260904075, 0.0], [73.81688672647242, 18.642108460424573, 0.0], [73.81687659507313, 18.6421153122192, 0.0], [73.81686696008282, 18.64212278641709, 0.0], [73.81685786350614, 18.642130850433666, 0.0]]], [[[73.8165369227573, 18.643236871248327, 0.0], [73.81652803566439, 18.643226784145913, 0.0], [73.81652021769116, 18.64321592233858, 0.0], [73.81651645358026, 18.643209418237625, 0.0], [73.8164984099656, 18.643209304645488, 0.0], [73.81649611725368, 18.643392471039984, 0.0], [73.81649611387213, 18.643392694759505, 0.0], [73.81649536101237, 18.64343519761906, 0.0], [73.81670146211367, 18.64343649502581, 0.0], [73.81670252447967, 18.643283124954692, 0.0], [73.81663471906639, 18.64328016033129, 0.0], [73.81662096209301, 18.64327891808152, 0.0], [73.81660739658096, 18.643276408739194, 0.0], [73.816594150652, 18.643272656004218, 0.0], [73.8165813494095, 18.643267695319963, 0.0], [73.8165691137569, 18.643261573538464, 0.0], [73.8165575592558, 18.64325434847788, 0.0], [73.81654679503448, 18.64324608837655, 0.0], [73.8165369227573, 18.643236871248327, 0.0]]]]}, "properties": {"site_id": "EMU_Deccan_forest", "name": "EMU_Deccan_forest", "n_member_parcels": 693}}]}