{"type": "FeatureCollection", "features": [{"type": "Feature", "geometry": {"type": "Polygon", "coordinates": [[[73.80962516066428, 18.638647673198882, 0.0], [73.80962673436639, 18.63842177133286, 0.0], [73.8094564946005, 18.63842069352841, 0.0], [73.80943344220705, 18.63843104294914, 0.0], [73.80943781288974, 18.638435438225812, 0.0], [73.80944624097535, 18.638445742481746, 0.0], [73.80945358911747, 18.63845677246817, 0.0], [73.80945978903115, 18.638468425685797, 0.0], [73.8094647831017, 18.638480593843752, 0.0], [73.80946852491998, 18.638493163865903, 0.0], [73.80949205048034, 18.638589690702517, 0.0], [73.80949452729861, 18.63860270479656, 0.0], [73.80949566175238, 18.638615887056226, 0.0], [73.80949544303897, 18.63862911195903, 0.0], [73.80949387324068, 18.638642253576435, 0.0], [73.80949284373888, 18.638646835491183, 0.0], [73.80962516066428, 18.638647673198882, 0.0]]]}, "properties": {"site_id": "SEG108", "name": "SEG108", "n_member_parcels": 1}}]}