{"type": "FeatureCollection", "features": [{"type": "Feature", "geometry": {"type": "Polygon", "coordinates": [[[73.80960784845233, 18.641132593358904, 0.0], [73.80960942240256, 18.640906691553923, 0.0], [73.80938398231348, 18.640905264054624, 0.0], [73.80938513952452, 18.64090619212935, 0.0], [73.8093917753252, 18.640912704537, 0.0], [73.80939769211531, 18.64091981882969, 0.0], [73.80940283016733, 18.640927463191744, 0.0], [73.80940713761481, 18.640935560456686, 0.0], [73.80941057097581, 18.64094402888619, 0.0], [73.80941309559188, 18.64095278299513, 0.0], [73.80941468597803, 18.640961734414585, 0.0], [73.80941532607982, 18.64097079278386, 0.0], [73.80941500943555, 18.6409798666626, 0.0], [73.80941373924146, 18.640988864453927, 0.0], [73.80941152831947, 18.64099769532897, 0.0], [73.80940839898774, 18.641006270143805, 0.0], [73.80940438283542, 18.64101450233935, 0.0], [73.80939952040374, 18.64102230881505, 0.0], [73.80939687808541, 18.641026102870782, 0.0], [73.80939310055253, 18.641031143091354, 0.0], [73.80939019176795, 18.64103475566423, 0.0], [73.80938606087581, 18.64103953733356, 0.0], [73.80938289929396, 18.64104295144735, 0.0], [73.80938014017555, 18.641045732694224, 0.0], [73.80939419552162, 18.641077271878313, 0.0], [73.80942145037692, 18.641128701130878, 0.0], [73.80942313863284, 18.641131423772325, 0.0], [73.80960784845233, 18.641132593358904, 0.0]]]}, "properties": {"site_id": "SEG128", "name": "SEG128", "n_member_parcels": 1}}]}