{"type": "FeatureCollection", "features": [{"type": "Feature", "geometry": {"type": "Polygon", "coordinates": [[[73.81206607085464, 18.6434072606258, 0.0], [73.8119962540235, 18.643520639024995, 0.0], [73.81196042642041, 18.64361708639946, 0.0], [73.81196031919441, 18.643632504206924, 0.0], [73.81195874810552, 18.643858406139966, 0.0], [73.81195717699411, 18.644084308067455, 0.0], [73.81195661669125, 18.644164870315745, 0.0], [73.8119689822676, 18.644164514046768, 0.0], [73.81198284278737, 18.644165407585064, 0.0], [73.8119965456837, 18.64416758620217, 0.0], [73.81200996015613, 18.644171029102203, 0.0], [73.8120229581573, 18.644175703421105, 0.0], [73.81203541561523, 18.64418156454036, 0.0], [73.81204721361765, 18.644188556512873, 0.0], [73.81205823954707, 18.644196612597042, 0.0], [73.81206838815574, 18.644205655893806, 0.0], [73.8120867838365, 18.64422373213529, 0.0], [73.81212527048199, 18.64425286523643, 0.0], [73.81213582685815, 18.64426170077058, 0.0], [73.81214541710195, 18.644271486156935, 0.0], [73.81215909328131, 18.64428690149633, 0.0], [73.81216644644307, 18.644295936753913, 0.0], [73.81217297449528, 18.64430553069145, 0.0], [73.8121735935892, 18.64430663440801, 0.0], [73.81218585585005, 18.6443116650188, 0.0], [73.8121925854921, 18.6443117075415, 0.0], [73.81219340616734, 18.64419368548101, 0.0], [73.81217682446179, 18.64417173774823, 0.0], [73.81217319926132, 18.644166573844675, 0.0], [73.81215494573412, 18.644138532588133, 0.0], [73.81215170137804, 18.644133143408173, 0.0], [73.81213551254355, 18.644103972669757, 0.0], [73.8121326643723, 18.644098383695756, 0.0], [73.81212660753994, 18.64408537877265, 0.0], [73.81211861677399, 18.64406822140237, 0.0], [73.81211617825366, 18.644062459059413, 0.0], [73.81210433831077, 18.644031447825796, 0.0], [73.81210232097128, 18.64402553936005, 0.0], [73.81209274466455, 18.643993825814952, 0.0], [73.81209115804411, 18.643987799163398, 0.0], [73.81208389065107, 18.643955533256317, 0.0], [73.81208368895926, 18.64395435984888, 0.0], [73.8120834674916, 18.643953487749545, 0.0], [73.81208304236931, 18.643950598101977, 0.0], [73.81208238646545, 18.64394678216822, 0.0], [73.81208230639685, 18.64394559553873, 0.0], [73.81208217551521, 18.64394470590814, 0.0], [73.81208204941646, 18.643941787048757, 0.0], [73.81208178934004, 18.643937932674678, 0.0], [73.81208183162128, 18.64393674565438, 0.0], [73.81208179273929, 18.64393584563724, 0.0], [73.81208196784992, 18.643932921117916, 0.0], [73.81208210502533, 18.64392907000113, 0.0], [73.81208226877389, 18.643927895391606, 0.0], [73.81208232285007, 18.64392699226611, 0.0], [73.81208279983845, 18.643924085932223, 0.0], [73.81208333048097, 18.64392027949999, 0.0], [73.81208361322872, 18.643919129870394, 0.0], [73.81208376074215, 18.64391823105752, 0.0], [73.81208453867728, 18.643915367071003, 0.0], [73.81208545390501, 18.643911645828545, 0.0], [73.81208585165311, 18.64391053331945, 0.0], [73.81208609256768, 18.64390964638668, 0.0], [73.81208716880246, 18.6439068492271, 0.0], [73.8120884548476, 18.643903252133736, 0.0], [73.81208896215084, 18.643902188272197, 0.0], [73.81208929586982, 18.643901320928617, 0.0], [73.81209066589527, 18.643898615363376, 0.0], [73.81209230440791, 18.64389517925138, 0.0], [73.8120929144861, 18.643894174781906, 0.0], [73.8120933397989, 18.64389333486199, 0.0], [73.81209499707751, 18.64389074587786, 0.0], [73.81209696551248, 18.643887504927704, 0.0], [73.81209767038541, 18.643886569662705, 0.0], [73.8120981854096, 18.64388576509695, 0.0], [73.81210012119763, 18.643883317787157, 0.0], [73.81210239327227, 18.64388030307056, 0.0], [73.8121031839142, 18.64387944576371, 0.0], [73.81210378603598, 18.643878684534396, 0.0], [73.8121059892052, 18.64387640393762, 0.0], [73.81210853541495, 18.643873643037733, 0.0], [73.81210940192454, 18.643872871282497, 0.0], [73.81211008774089, 18.643872161363955, 0.0], [73.81211254461203, 18.643870072253357, 0.0], [73.8121153327883, 18.64386758896888, 0.0], [73.81211626456854, 18.6438669091241, 0.0], [73.8121170298355, 18.643866258407247, 0.0], [73.81211972403528, 18.643864385030522, 0.0], [73.81212271992993, 18.643862199167966, 0.0], [73.81212370587367, 18.643861616310943, 0.0], [73.81212454546367, 18.643861032512916, 0.0], [73.81212732742662, 18.64385947145387, 0.0], [73.81212745781738, 18.64385939828693, 0.0], [73.81213062569769, 18.643857525541634, 0.0], [73.8121316543734, 18.643857043448886, 0.0], [73.8121325622458, 18.64385653400913, 0.0], [73.81213567071676, 18.643855161174432, 0.0], [73.81213897395475, 18.643853613099388, 0.0], [73.81214003378798, 18.6438532342541, 0.0], [73.81214100297602, 18.643852806218852, 0.0], [73.81214428266183, 18.64385171546233, 0.0], [73.81214768430294, 18.643850499520173, 0.0], [73.81214876374855, 18.643850225144305, 0.0], [73.81214978636554, 18.64384988504273, 0.0], [73.8121532095594, 18.64384909509819, 0.0], [73.81215667285697, 18.643848214789404, 0.0], [73.81215776055879, 18.64384804489839, 0.0], [73.81215882782567, 18.643847798613237, 0.0], [73.81219585808547, 18.643841067609888, 0.0], [73.81219729788667, 18.643634001700697, 0.0], [73.81219886863984, 18.643408099742665, 0.0], [73.81206607085464, 18.6434072606258, 0.0]]]}, "properties": {"site_id": "SEG59", "name": "SEG59", "n_member_parcels": 4}}]}