{"type": "FeatureCollection", "features": [{"type": "Feature", "geometry": {"type": "Polygon", "coordinates": [[[73.80795532836413, 18.640218476436022, 0.0], [73.8079537522896, 18.64044437812117, 0.0], [73.80815459892321, 18.64044565140791, 0.0], [73.80810029484839, 18.64029931141837, 0.0], [73.80809939880845, 18.640296634795774, 0.0], [73.80807624606685, 18.640219243022297, 0.0], [73.80795532836413, 18.640218476436022, 0.0]]]}, "properties": {"site_id": "SEG86", "name": "SEG86", "n_member_parcels": 1}}]}