{"type": "FeatureCollection", "features": [{"type": "Feature", "geometry": {"type": "Polygon", "coordinates": [[[73.81270422327583, 18.638893052692143, 0.0], [73.81270265359906, 18.63911895480003, 0.0], [73.81293962609564, 18.63912045100943, 0.0], [73.81294018885937, 18.639039444330116, 0.0], [73.8129397733407, 18.63903930806538, 0.0], [73.81292733167206, 18.63903390414259, 0.0], [73.81291549198157, 18.639027386055957, 0.0], [73.81290436374101, 18.639019814072892, 0.0], [73.81289404984396, 18.639011258205258, 0.0], [73.81288464565435, 18.63900179756215, 0.0], [73.81287623812482, 18.638991519618273, 0.0], [73.81283004430172, 18.638929074985487, 0.0], [73.81280014859512, 18.638893658379374, 0.0], [73.81270422327583, 18.638893052692143, 0.0]]]}, "properties": {"site_id": "SEG101", "name": "SEG101", "n_member_parcels": 1}}]}