{"type": "FeatureCollection", "features": [{"type": "Feature", "geometry": {"type": "Polygon", "coordinates": [[[73.81649103343089, 18.64366108253722, 0.0], [73.81648562681022, 18.643886960656197, 0.0], [73.81648290136377, 18.64400082400162, 0.0], [73.81648281957882, 18.644002639261206, 0.0], [73.81647552537174, 18.644112809211308, 0.0], [73.81646057421547, 18.64433862722563, 0.0], [73.81669520276985, 18.644340104299438, 0.0], [73.81669363787783, 18.64456600660398, 0.0], [73.81693061827231, 18.644567498203642, 0.0], [73.8171675986892, 18.644568989504716, 0.0], [73.81740457912849, 18.64457048050719, 0.0], [73.81740614308085, 18.644344578144565, 0.0], [73.81764312322935, 18.64434606882909, 0.0], [73.81764468684607, 18.644120166441564, 0.0], [73.81764625044036, 18.643894264048495, 0.0], [73.81764781401228, 18.64366836164986, 0.0], [73.81764937756176, 18.643442459245687, 0.0], [73.81741239866612, 18.643440968638583, 0.0], [73.81741396250642, 18.64321506624822, 0.0], [73.81720109646314, 18.643213727072904, 0.0], [73.81720630141331, 18.64322575106502, 0.0], [73.81721034919985, 18.64323855786736, 0.0], [73.81721305315999, 18.64325168261638, 0.0], [73.81721438696316, 18.643264997507806, 0.0], [73.81721433762094, 18.643278372885796, 0.0], [73.81721290561343, 18.643291678505495, 0.0], [73.8172101048848, 18.643304784801288, 0.0], [73.81720596270723, 18.64331756414848, 0.0], [73.8172005194156, 18.64332989210606, 0.0], [73.81719382801457, 18.643341648628496, 0.0], [73.81718595366259, 18.64335271923465, 0.0], [73.81717697303728, 18.643362996122626, 0.0], [73.81717594266131, 18.64336396298777, 0.0], [73.81717541979289, 18.643439477732905, 0.0], [73.81704224827527, 18.643438639779557, 0.0], [73.81703033971324, 18.64344337487855, 0.0], [73.81701699813482, 18.643447949643143, 0.0], [73.81700324494066, 18.643451235071097, 0.0], [73.81698921687921, 18.64345319849531, 0.0], [73.81697505343186, 18.64345382039342, 0.0], [73.81696089542623, 18.64345309458189, 0.0], [73.8169468836358, 18.64345102827752, 0.0], [73.81693836517573, 18.64344892678309, 0.0], [73.81693315738019, 18.643447642025624, 0.0], [73.81691985313998, 18.64344296949585, 0.0], [73.8169087038299, 18.643437799384913, 0.0], [73.81670146211367, 18.64343649502581, 0.0], [73.81649536101237, 18.64343519761906, 0.0], [73.8164922914426, 18.643608490235987, 0.0], [73.81649228586483, 18.643608758082948, 0.0], [73.81649103343089, 18.64366108253722, 0.0]]]}, "properties": {"site_id": "SEG09", "name": "SEG09", "n_member_parcels": 24}}]}