{"type": "FeatureCollection", "features": [{"type": "Feature", "geometry": {"type": "Polygon", "coordinates": [[[73.8159889600211, 18.643657920994464, 0.0], [73.81606888099883, 18.643658424344444, 0.0], [73.81606884671706, 18.643658307469185, 0.0], [73.81606781241257, 18.64365423867322, 0.0], [73.81606647955132, 18.643648060736027, 0.0], [73.81606574550818, 18.64364393307439, 0.0], [73.81606486797547, 18.643637681552335, 0.0], [73.81606443776998, 18.643633515134642, 0.0], [73.8160640198421, 18.64362722049298, 0.0], [73.81606389556993, 18.643623035617445, 0.0], [73.81606393928223, 18.643616728516637, 0.0], [73.81606412154885, 18.643612545571646, 0.0], [73.81606462668846, 18.64360625674182, 0.0], [73.81606511460578, 18.643602096106292, 0.0], [73.81606607871193, 18.643595856183623, 0.0], [73.81606686990294, 18.643591738127718, 0.0], [73.81606828827759, 18.64358557751759, 0.0], [73.81606937888748, 18.64358152210404, 0.0], [73.8160712446215, 18.643575470814756, 0.0], [73.81607262933697, 18.6435714978011, 0.0], [73.8160749333397, 18.64356558531738, 0.0], [73.81607660541447, 18.643561714059746, 0.0], [73.81607933646205, 18.64355596918393, 0.0], [73.81608128774997, 18.64355221854267, 0.0], [73.81608443253556, 18.643546669266094, 0.0], [73.81608665352998, 18.643543057514023, 0.0], [73.81609019673358, 18.643537730870012, 0.0], [73.81609267661419, 18.64353427560298, 0.0], [73.8160966009733, 18.64352919754305, 0.0], [73.81609932765821, 18.643525915594942, 0.0], [73.81610361405399, 18.643521110858575, 0.0], [73.81610657425918, 18.643518018218572, 0.0], [73.81611120180796, 18.643513510214774, 0.0], [73.81611438111149, 18.643510621949947, 0.0], [73.81611932726857, 18.643506432640773, 0.0], [73.81612271018122, 18.643503762822423, 0.0], [73.81612795084907, 18.643499912617937, 0.0], [73.81613152088968, 18.64349747425303, 0.0], [73.81613703053874, 18.64349398190944, 0.0], [73.81614077031446, 18.643491786877558, 0.0], [73.81614652209966, 18.64348866941098, 0.0], [73.81615041339072, 18.643486728406003, 0.0], [73.81615637929185, 18.64348400100342, 0.0], [73.81616040314019, 18.64348232348183, 0.0], [73.81616655408895, 18.64347999943211, 0.0], [73.81617069089107, 18.6434785935664, 0.0], [73.81617699692195, 18.64347668419127, 0.0], [73.8161812265235, 18.64347555683073, 0.0], [73.81618765691898, 18.643474071431374, 0.0], [73.81619195871409, 18.643473228068487, 0.0], [73.81619848213947, 18.643472173883264, 0.0], [73.81620283517009, 18.643471618626716, 0.0], [73.81620941984546, 18.643471000790864, 0.0], [73.81621380290414, 18.643470736345762, 0.0], [73.81622041675256, 18.64347055786912, 0.0], [73.81622480848564, 18.643470585523872, 0.0], [73.81622724694321, 18.643470682073815, 0.0], [73.81622750452415, 18.643433511124417, 0.0], [73.81599052576303, 18.643432018725854, 0.0], [73.81575354702436, 18.643430526028723, 0.0], [73.81551656830811, 18.643429033033005, 0.0], [73.81551500193979, 18.643654935262845, 0.0], [73.81551343554901, 18.64388083748714, 0.0], [73.81555615291731, 18.643881106640283, 0.0], [73.8155564154023, 18.643837738976146, 0.0], [73.81555692597622, 18.643828879806314, 0.0], [73.81555834550412, 18.643820111072557, 0.0], [73.81556066030046, 18.643811517312816, 0.0], [73.81556384804846, 18.643803181378143, 0.0], [73.81556787801551, 18.643795183633895, 0.0], [73.81557271134925, 18.643787601184968, 0.0], [73.81557830145219, 18.643780507132515, 0.0], [73.81558459443104, 18.643773969869088, 0.0], [73.81559152961619, 18.643768052419325, 0.0], [73.81559904014664, 18.64376281183236, 0.0], [73.81560705361461, 18.6437582986318, 0.0], [73.8156154927636, 18.643754556328634, 0.0], [73.81562427623322, 18.643751621001766, 0.0], [73.81563331934359, 18.643749520950156, 0.0], [73.8156425349116, 18.64374827642008, 0.0], [73.81565183409161, 18.64374789940983, 0.0], [73.81575134249822, 18.643748526299213, 0.0], [73.81575198096922, 18.643656428277946, 0.0], [73.8159889600211, 18.643657920994464, 0.0]]]}, "properties": {"site_id": "SEG62", "name": "SEG62", "n_member_parcels": 4}}]}