{"type": "FeatureCollection", "features": [{"type": "Feature", "geometry": {"type": "Polygon", "coordinates": [[[73.81194146464178, 18.646343327037084, 0.0], [73.8121784470928, 18.64634482476419, 0.0], [73.81234927516921, 18.6463459042109, 0.0], [73.81235202590976, 18.646333936969416, 0.0], [73.8123594151762, 18.646288966607887, 0.0], [73.81236394654641, 18.64624365336438, 0.0], [73.81236560353418, 18.64619816212054, 0.0], [73.8123643801126, 18.646152658405413, 0.0], [73.81236390012144, 18.646147348357264, 0.0], [73.81217981760447, 18.646147755188515, 0.0], [73.81194282136752, 18.646148278696074, 0.0], [73.81170582514751, 18.64614880190466, 0.0], [73.81170448221327, 18.64634182901135, 0.0], [73.81194146464178, 18.646343327037084, 0.0]]]}, "properties": {"site_id": "SEG70", "name": "SEG70", "n_member_parcels": 3}}]}