{"type": "FeatureCollection", "features": [{"type": "Feature", "geometry": {"type": "Polygon", "coordinates": [[[73.81406803321728, 18.647260403962463, 0.0], [73.81387722806645, 18.64725919996719, 0.0], [73.81385276045374, 18.647273149772168, 0.0], [73.81385005845586, 18.647274578408947, 0.0], [73.8138337917976, 18.647282529627823, 0.0], [73.81383087620146, 18.647283836835676, 0.0], [73.81382948039032, 18.64748481054638, 0.0], [73.81392628534401, 18.647485421448245, 0.0], [73.81406708592662, 18.647396825893217, 0.0], [73.81406803321728, 18.647260403962463, 0.0]]]}, "properties": {"site_id": "SEG126", "name": "SEG126", "n_member_parcels": 1}}]}