{"type": "FeatureCollection", "features": [{"type": "Feature", "geometry": {"type": "Polygon", "coordinates": [[[73.81009438447892, 18.639328378683924, 0.0], [73.81009281131281, 18.639554280566713, 0.0], [73.81009123812417, 18.639780182443946, 0.0], [73.8103282113124, 18.63978168199527, 0.0], [73.81032663841432, 18.640007583886433, 0.0], [73.8105636119382, 18.64000908315872, 0.0], [73.81056284013174, 18.6401199520145, 0.0], [73.81056517103, 18.640119657609862, 0.0], [73.81057911678052, 18.640119211373992, 0.0], [73.81059304126104, 18.640120070343656, 0.0], [73.81060681037154, 18.64012222624655, 0.0], [73.81062029150823, 18.64012565832021, 0.0], [73.81063335484068, 18.640130333511976, 0.0], [73.81078888554619, 18.64019446228548, 0.0], [73.81079928020512, 18.64019812050246, 0.0], [73.81080055784048, 18.6400145539799, 0.0], [73.81079993905774, 18.640010578043928, 0.0], [73.81077123598345, 18.639826148712377, 0.0], [73.81077110968175, 18.63982527904373, 0.0], [73.81076560352135, 18.63978444900112, 0.0], [73.81074290240241, 18.63961611236096, 0.0], [73.81074264738713, 18.63961371907338, 0.0], [73.81073830725012, 18.639558364475263, 0.0], [73.81073665005867, 18.63953722846256, 0.0], [73.81073651961299, 18.639534206963948, 0.0], [73.8107359032418, 18.63945750524229, 0.0], [73.81073598511374, 18.639454482193077, 0.0], [73.81074075245374, 18.639377912970332, 0.0], [73.81074104627622, 18.639374901913428, 0.0], [73.81074669012412, 18.639332505616014, 0.0], [73.81075117596289, 18.639298808205275, 0.0], [73.81075168041939, 18.639295822629407, 0.0], [73.81076712706664, 18.639220545320757, 0.0], [73.81076777919147, 18.639217818257283, 0.0], [73.81077238562463, 18.63920097865183, 0.0], [73.81077313980417, 18.639198511286242, 0.0], [73.81077874317702, 18.639181948600772, 0.0], [73.81077964330144, 18.639179526105004, 0.0], [73.81078622548392, 18.63916329392792, 0.0], [73.81078726864102, 18.63916092413942, 0.0], [73.81079480833651, 18.639145074989404, 0.0], [73.81079599115093, 18.639142765576057, 0.0], [73.81080442651671, 18.63912741886255, 0.0], [73.81080676196834, 18.639123134485068, 0.0], [73.81080687443668, 18.639106974378787, 0.0], [73.81080789156427, 18.638960826809075, 0.0], [73.81077573565153, 18.638959379232944, 0.0], [73.81076628485022, 18.638958652080973, 0.0], [73.81067663439491, 18.638948876894407, 0.0], [73.81066725544457, 18.638947550913052, 0.0], [73.81057848774421, 18.63893210161956, 0.0], [73.81057111961587, 18.638930575639275, 0.0], [73.81056922235214, 18.63893018270537, 0.0], [73.81048173214222, 18.63890912800613, 0.0], [73.81046838695329, 18.638905243296794, 0.0], [73.81045550545309, 18.63890013034075, 0.0], [73.81044321169774, 18.638893838378692, 0.0], [73.81043162408294, 18.638886428005794, 0.0], [73.81042168879875, 18.638878625982475, 0.0], [73.81033450267921, 18.638878074375132, 0.0], [73.81033292987132, 18.63910397628848, 0.0], [73.8103313570409, 18.639329878196296, 0.0], [73.81009438447892, 18.639328378683924, 0.0]]]}, "properties": {"site_id": "SEG20", "name": "SEG20", "n_member_parcels": 13}}]}