{"type": "FeatureCollection", "features": [{"type": "Feature", "geometry": {"type": "Polygon", "coordinates": [[[73.81601400919945, 18.64004348403092, 0.0], [73.8157770351583, 18.6400419916245, 0.0], [73.81554006113959, 18.640040498919575, 0.0], [73.8153030871433, 18.640039005916123, 0.0], [73.81530152079854, 18.640264908209804, 0.0], [73.81530052284452, 18.640408834025262, 0.0], [73.81532285519805, 18.640407738184457, 0.0], [73.81533212080811, 18.64040771578175, 0.0], [73.81534134444846, 18.640408555824663, 0.0], [73.81535043799182, 18.640410250287058, 0.0], [73.81535931455392, 18.640412782979173, 0.0], [73.8153678893236, 18.640416129702402, 0.0], [73.8153760803732, 18.64042025848049, 0.0], [73.81538014680996, 18.640422821425634, 0.0], [73.81553733753377, 18.640433380883422, 0.0], [73.81565892160444, 18.640441548334877, 0.0], [73.81566726419221, 18.64044246422983, 0.0], [73.81567548900847, 18.640444080386484, 0.0], [73.81568353150159, 18.64044638412062, 0.0], [73.81569132855094, 18.640449357351592, 0.0], [73.81577396471069, 18.640484993664458, 0.0], [73.81579468035555, 18.64049392714532, 0.0], [73.81601087836628, 18.640495288729035, 0.0], [73.81601024361345, 18.640586887146085, 0.0], [73.81613883094313, 18.640642339282685, 0.0], [73.8162468618976, 18.640639839043164, 0.0], [73.81648388514263, 18.640634353222456, 0.0], [73.81672090839072, 18.64062886710202, 0.0], [73.81672180250318, 18.640499764273414, 0.0], [73.81683629387989, 18.640500484789925, 0.0], [73.81685578065331, 18.640274695157913, 0.0], [73.8168723937507, 18.640082201632257, 0.0], [73.81682031596468, 18.64006460180906, 0.0], [73.81675435609445, 18.640048144636353, 0.0], [73.81672493145753, 18.640047959459054, 0.0], [73.81648795734907, 18.640046467948192, 0.0], [73.81625098326306, 18.640044976138814, 0.0], [73.81601400919945, 18.64004348403092, 0.0]]]}, "properties": {"site_id": "SEG13", "name": "SEG13", "n_member_parcels": 17}}]}