{"type": "FeatureCollection", "features": [{"type": "Feature", "geometry": {"type": "Polygon", "coordinates": [[[73.81430658541771, 18.64703599703553, 0.0], [73.81419058174573, 18.64703526522125, 0.0], [73.8141903273405, 18.647036019160993, 0.0], [73.81419014475804, 18.647036420284692, 0.0], [73.81418999588168, 18.647036833869013, 0.0], [73.81418921939125, 18.647038453264916, 0.0], [73.81418847590078, 18.64704008667274, 0.0], [73.81418825295181, 18.647040468805542, 0.0], [73.81418806226537, 18.647040866488265, 0.0], [73.81418712299896, 18.647042405535903, 0.0], [73.81418621513286, 18.64704396161127, 0.0], [73.8141859539645, 18.647044321073025, 0.0], [73.81418572330439, 18.647044699024246, 0.0], [73.81418463030766, 18.647046142901722, 0.0], [73.81418356680913, 18.647047606658806, 0.0], [73.81418326993658, 18.647047939987704, 0.0], [73.81418300152419, 18.647048294567533, 0.0], [73.8141817653233, 18.647049629369516, 0.0], [73.81418055643442, 18.64705098671152, 0.0], [73.81418022671672, 18.647051290697426, 0.0], [73.81417992313699, 18.647051618491062, 0.0], [73.8141785556372, 18.647052831362675, 0.0], [73.81417721300025, 18.647054069217635, 0.0], [73.81415582572671, 18.64707193684937, 0.0], [73.81415546633818, 18.647072208565426, 0.0], [73.81415513051375, 18.647072506416805, 0.0], [73.8141536448855, 18.64707358567644, 0.0], [73.8141521814315, 18.6470746921222, 0.0], [73.81415179583418, 18.64707492895085, 0.0], [73.81415143100016, 18.64707519399064, 0.0], [73.81414984155035, 18.647076129245466, 0.0], [73.81414827137249, 18.647077093627377, 0.0], [73.81414786327991, 18.64707729328782, 0.0], [73.81414747294987, 18.64707752296355, 0.0], [73.8141457949857, 18.647078305206577, 0.0], [73.81414413320577, 18.64707911823707, 0.0], [73.81414370654811, 18.647079278806448, 0.0], [73.8141432944811, 18.647079470906224, 0.0], [73.81414154416225, 18.64708009260403, 0.0], [73.8141398067841, 18.647080746453163, 0.0], [73.81413936567033, 18.64708086638512, 0.0], [73.81413893583476, 18.64708101905892, 0.0], [73.8141371300179, 18.647081474224173, 0.0], [73.81413533377336, 18.64708196259505, 0.0], [73.8141348824516, 18.647082040734574, 0.0], [73.8141344389871, 18.647082152512045, 0.0], [73.81413259506323, 18.647082436761263, 0.0], [73.8141307572511, 18.6470827549506, 0.0], [73.81413030006784, 18.64708279054518, 0.0], [73.8141298472452, 18.647082860349837, 0.0], [73.81412798297232, 18.647082970945547, 0.0], [73.8141261212918, 18.647083115889007, 0.0], [73.81412566264999, 18.64708310859582, 0.0], [73.81412520483009, 18.647083135755427, 0.0], [73.81412333816213, 18.647083071632547, 0.0], [73.81412147054228, 18.647083041934213, 0.0], [73.81412101485887, 18.64708299182352, 0.0], [73.8141205564508, 18.647082976076497, 0.0], [73.81411870536483, 18.64708273785256, 0.0], [73.81411684979184, 18.647082533798475, 0.0], [73.81411640145534, 18.647082441352858, 0.0], [73.81411594687383, 18.647082382850858, 0.0], [73.81411412919682, 18.647081972820096, 0.0], [73.81411230354088, 18.6470815963754, 0.0], [73.814111866869, 18.647081462485165, 0.0], [73.81411142049194, 18.647081361791606, 0.0], [73.81410965372912, 18.647080783902823, 0.0], [73.8141078755723, 18.6470802386929, 0.0], [73.81410745477046, 18.647080064647493, 0.0], [73.81410702089664, 18.647079922732104, 0.0], [73.8141053220629, 18.64707918255068, 0.0], [73.8141036085299, 18.647078473826216, 0.0], [73.8141032076506, 18.64707826130177, 0.0], [73.81410279045855, 18.647078079531287, 0.0], [73.81410117591464, 18.647077184185616, 0.0], [73.81409954350765, 18.64707631877198, 0.0], [73.81409916641162, 18.647076069815235, 0.0], [73.81409876991908, 18.647075849940205, 0.0], [73.81409725521395, 18.64707480805295, 0.0], [73.81409571965395, 18.647073794284577, 0.0], [73.8140953699728, 18.647073511293122, 0.0], [73.81409499799824, 18.647073255431046, 0.0], [73.81409359771934, 18.64707207703617, 0.0], [73.8140921737946, 18.647070924676207, 0.0], [73.81409185489598, 18.6470706103754, 0.0], [73.81409151102169, 18.64707032099039, 0.0], [73.81409023865443, 18.647069017436454, 0.0], [73.81408894007818, 18.647067737582777, 0.0], [73.81408865503326, 18.64706739499951, 0.0], [73.81408834257095, 18.647067074878503, 0.0], [73.81406952344828, 18.647045789311225, 0.0], [73.81406803321728, 18.647260403962463, 0.0], [73.81427666238899, 18.647261720207016, 0.0], [73.81430514683747, 18.64724321483603, 0.0], [73.81434500752357, 18.647217318698473, 0.0], [73.81446010127901, 18.64713418610124, 0.0], [73.81454328350354, 18.647078628933667, 0.0], [73.81454356903345, 18.64703749183461, 0.0], [73.81460430191392, 18.647037874865546, 0.0], [73.81472373895708, 18.6469581029976, 0.0], [73.81478138880607, 18.64691849738884, 0.0], [73.81478212031652, 18.646813084246627, 0.0], [73.81493275054997, 18.646814034006375, 0.0], [73.81501952686901, 18.646753580619507, 0.0], [73.81502067097307, 18.64658867631567, 0.0], [73.81525765402965, 18.64659017018005, 0.0], [73.81525990890808, 18.646590184392636, 0.0], [73.81531462335981, 18.646553232981976, 0.0], [73.81545870332556, 18.646457894877727, 0.0], [73.81549572946429, 18.64643415354829, 0.0], [73.81549620376886, 18.646365761588097, 0.0], [73.81549777040655, 18.646139859424846, 0.0], [73.81537260764526, 18.646139070652787, 0.0], [73.81535160940582, 18.646147743068283, 0.0], [73.81534886159253, 18.646148782165074, 0.0], [73.81531148421324, 18.64616164572076, 0.0], [73.81530839841625, 18.646162595296573, 0.0], [73.8152701858438, 18.64617299263277, 0.0], [73.81526703915804, 18.646173738865812, 0.0], [73.81526053344255, 18.646175058198278, 0.0], [73.81522817024127, 18.64618162131929, 0.0], [73.81522497739451, 18.646182160716897, 0.0], [73.81518563405416, 18.646187491395104, 0.0], [73.81518240998989, 18.646187821432754, 0.0], [73.81514277786268, 18.64619057528231, 0.0], [73.8151235021232, 18.64619191581185, 0.0], [73.81510597554534, 18.646194293698127, 0.0], [73.81508866100093, 18.646197810396107, 0.0], [73.81507163982408, 18.646202449386397, 0.0], [73.81505499197044, 18.646208188877694, 0.0], [73.8150376058476, 18.646215502399397, 0.0], [73.81502321644342, 18.64622178126779, 0.0], [73.81502223825974, 18.646362774196756, 0.0], [73.81478525553887, 18.646361280053146, 0.0], [73.81464262615916, 18.646360380650417, 0.0], [73.81464190541732, 18.64636055617197, 0.0], [73.8145973747309, 18.646370077917766, 0.0], [73.81459429220811, 18.646370635584503, 0.0], [73.8145491982247, 18.646377328056783, 0.0], [73.8145481502393, 18.646377449879093, 0.0], [73.81454608375074, 18.646377690096553, 0.0], [73.8145006240727, 18.646381523969183, 0.0], [73.81449749129473, 18.6463816887956, 0.0], [73.81445186512654, 18.64638264726849, 0.0], [73.81444872777274, 18.64638261415928, 0.0], [73.81440313504898, 18.646380693032604, 0.0], [73.81440276890805, 18.646380676252075, 0.0], [73.81434666933177, 18.646377897849685, 0.0], [73.81431115432702, 18.646377858309158, 0.0], [73.81429169689096, 18.646377836643435, 0.0], [73.8142369970142, 18.646380423604494, 0.0], [73.8142326504526, 18.64638087690306, 0.0], [73.81422854844237, 18.6463815764352, 0.0], [73.81422450583108, 18.646382540252134, 0.0], [73.8142205413348, 18.646383763891738, 0.0], [73.81421667330724, 18.646385241689135, 0.0], [73.81421291965687, 18.646386966802293, 0.0], [73.81420929776243, 18.64638893124424, 0.0], [73.81420582439124, 18.646391125920793, 0.0], [73.81420251562386, 18.64639354067121, 0.0], [73.81419938677958, 18.646396164315558, 0.0], [73.8141964523441, 18.646398984706956, 0.0], [73.81419372590267, 18.646401988788277, 0.0], [73.8141905669869, 18.64640598985253, 0.0], [73.81414760369564, 18.64646300436523, 0.0], [73.81414673240175, 18.64646412376278, 0.0], [73.81407365593175, 18.646555043845204, 0.0], [73.814072925009, 18.646555904784453, 0.0], [73.81407273897133, 18.64658269787187, 0.0], [73.81430972193806, 18.64658419293076, 0.0], [73.81430815368913, 18.646810094985923, 0.0], [73.81430658541771, 18.64703599703553, 0.0]]]}, "properties": {"site_id": "SEG17", "name": "SEG17", "n_member_parcels": 15}}]}