{"type": "FeatureCollection", "features": [{"type": "Feature", "geometry": {"type": "Polygon", "coordinates": [[[73.81236271292495, 18.64658313183402, 0.0], [73.81234774531514, 18.64659367922665, 0.0], [73.81234518795179, 18.646595360658697, 0.0], [73.81232952763956, 18.64660495071338, 0.0], [73.81232686021607, 18.646606468833888, 0.0], [73.81231057448112, 18.646615060350097, 0.0], [73.81231050205167, 18.646615094065037, 0.0], [73.81231050401036, 18.646615097452308, 0.0], [73.81221623662756, 18.6466646288432, 0.0], [73.81217605377057, 18.646688961115863, 0.0], [73.81217530497867, 18.646796628530403, 0.0], [73.81202012155015, 18.64679564778333, 0.0], [73.81201701260052, 18.646798470585264, 0.0], [73.8120062865579, 18.646809628213322, 0.0], [73.81199637984284, 18.64682145418831, 0.0], [73.81198733816173, 18.646833893949392, 0.0], [73.81197920322943, 18.64684689010439, 0.0], [73.81197201257797, 18.646860382693514, 0.0], [73.81196579938246, 18.646874309467144, 0.0], [73.81196059230865, 18.646888606171846, 0.0], [73.81195641538035, 18.646903206848087, 0.0], [73.81195328786859, 18.646918044133614, 0.0], [73.81195121722793, 18.64693310029103, 0.0], [73.81195009482747, 18.646949619303133, 0.0], [73.81195007278977, 18.646966224064066, 0.0], [73.81195115467179, 18.646982796781305, 0.0], [73.8119533361249, 18.6469992708343, 0.0], [73.81195660838009, 18.64701557999879, 0.0], [73.81195812006345, 18.64702116769221, 0.0], [73.8119609582836, 18.64703165871368, 0.0], [73.81196636834947, 18.647047442344007, 0.0], [73.8119733733489, 18.64706419866258, 0.0], [73.81197340309775, 18.64706426999951, 0.0], [73.81198112093053, 18.647082823052052, 0.0], [73.81198218905024, 18.647085664189234, 0.0], [73.81198859027133, 18.647104667010485, 0.0], [73.81198945702437, 18.647107569783824, 0.0], [73.81199451307042, 18.647126937581284, 0.0], [73.81199517458913, 18.647129889038215, 0.0], [73.81199886289915, 18.647149535391012, 0.0], [73.8119993118848, 18.64715248507832, 0.0], [73.81200104516708, 18.647167295308503, 0.0], [73.81200128736165, 18.647170229322832, 0.0], [73.81200200545008, 18.6471851157002, 0.0], [73.81200204674201, 18.647188058520577, 0.0], [73.81200174658932, 18.64720295788038, 0.0], [73.8120015868033, 18.647205897019994, 0.0], [73.81200026968276, 18.64722074614215, 0.0], [73.81199990949673, 18.647223669129783, 0.0], [73.8119975809967, 18.647238405007577, 0.0], [73.81199702193894, 18.64724129944057, 0.0], [73.81199564575724, 18.6472473166647, 0.0], [73.8119936919393, 18.647255859547595, 0.0], [73.81199293638196, 18.647258713144303, 0.0], [73.81198861901213, 18.647273035700024, 0.0], [73.81198767016097, 18.647275836352648, 0.0], [73.81198238373982, 18.647289860584454, 0.0], [73.81198124562087, 18.64729259640937, 0.0], [73.81197501257901, 18.647306262810663, 0.0], [73.8119736900216, 18.64730892219904, 0.0], [73.81196653680664, 18.647322172781152, 0.0], [73.8119650354222, 18.64732474444936, 0.0], [73.81195699238584, 18.647337522988185, 0.0], [73.8119553185454, 18.64733999602355, 0.0], [73.81194641981523, 18.647352248298144, 0.0], [73.81194458062055, 18.647354612208005, 0.0], [73.81193486395495, 18.647366286229957, 0.0], [73.81193434476198, 18.64736686991011, 0.0], [73.81193360762126, 18.647472836313764, 0.0], [73.81193311289395, 18.64754395459179, 0.0], [73.81203935339948, 18.64769941648104, 0.0], [73.81216902048025, 18.64770023599623, 0.0], [73.81216771973905, 18.647887254699064, 0.0], [73.8121944084822, 18.647926308225596, 0.0], [73.81234946396637, 18.648153199859845, 0.0], [73.81240286307572, 18.648153537279843, 0.0], [73.81240232750318, 18.64823055455383, 0.0], [73.81245349932053, 18.648305433694112, 0.0], [73.81245584392026, 18.648309263104334, 0.0], [73.81245778346681, 18.648313293138017, 0.0], [73.81245929928123, 18.648317484983775, 0.0], [73.81246037676539, 18.648321798271798, 0.0], [73.81246081875948, 18.6483248864321, 0.0], [73.81259938329369, 18.64829941422048, 0.0], [73.81263889387769, 18.64829227914505, 0.0], [73.81263984807796, 18.6481550345652, 0.0], [73.81287683310272, 18.648156531551894, 0.0], [73.8129050934176, 18.648156710046678, 0.0], [73.81306345278328, 18.64805312709005, 0.0], [73.81311478856765, 18.648018394121394, 0.0], [73.81311538810021, 18.647932126315172, 0.0], [73.81324111989214, 18.64793292024849, 0.0], [73.81328866707787, 18.647900750492457, 0.0], [73.81335289195187, 18.647858913857572, 0.0], [73.81335394247111, 18.64770772073539, 0.0], [73.8135824577234, 18.647709163327388, 0.0], [73.8135909659792, 18.647703596562234, 0.0], [73.81382904271611, 18.647547827860965, 0.0], [73.81382948039032, 18.64748481054638, 0.0], [73.81359249621545, 18.647483314812558, 0.0], [73.81359380722449, 18.647294588974045, 0.0], [73.81358285173141, 18.64729081855841, 0.0], [73.8135798834966, 18.647289687781164, 0.0], [73.81350141568511, 18.647256827995538, 0.0], [73.81335708163255, 18.647255916819248, 0.0], [73.81312009781594, 18.647254420507558, 0.0], [73.81311852793318, 18.64748032244898, 0.0], [73.81311695802795, 18.647706224384855, 0.0], [73.81287997360727, 18.647704727735665, 0.0], [73.8126429892091, 18.647703230787833, 0.0], [73.81264455974089, 18.647477328890826, 0.0], [73.81264613025022, 18.647251426988266, 0.0], [73.812647700737, 18.647025525080164, 0.0], [73.81241071730116, 18.64702402789199, 0.0], [73.81241228807872, 18.646798125997766, 0.0], [73.81241385883378, 18.646572224097998, 0.0], [73.81237668828052, 18.64657198924429, 0.0], [73.81236514924102, 18.646581294314267, 0.0], [73.81236271292495, 18.64658313183402, 0.0]]]}, "properties": {"site_id": "SEG08", "name": "SEG08", "n_member_parcels": 27}}]}