{"type": "FeatureCollection", "features": [{"type": "Feature", "geometry": {"type": "Polygon", "coordinates": [[[73.81673118909714, 18.639144349763757, 0.0], [73.81672962472088, 18.639370252195903, 0.0], [73.81672806032219, 18.639596154622506, 0.0], [73.81672649590107, 18.639822057043553, 0.0], [73.81696346971881, 18.639823548236528, 0.0], [73.81696279493083, 18.639921006140455, 0.0], [73.81700452363356, 18.639935108439726, 0.0], [73.81701336524019, 18.63993858446268, 0.0], [73.81702179441105, 18.63994289210532, 0.0], [73.81702972533897, 18.639947987516805, 0.0], [73.81703707728877, 18.639953818826957, 0.0], [73.81704377541918, 18.63996032667431, 0.0], [73.81704975154456, 18.639967444810406, 0.0], [73.81705494482915, 18.63997510077412, 0.0], [73.81705930240632, 18.639983216629407, 0.0], [73.81706277991671, 18.63999170975857, 0.0], [73.81706534195989, 18.640000493703337, 0.0], [73.81706696245462, 18.640009479045005, 0.0], [73.81706762490448, 18.64001857431464, 0.0], [73.81706732256566, 18.640027686924274, 0.0], [73.81706538808892, 18.640050101764324, 0.0], [73.81704590163501, 18.640275891440165, 0.0], [73.81702641511146, 18.640501681105828, 0.0], [73.8170073815316, 18.64072222173968, 0.0], [73.81700665684014, 18.640727469051885, 0.0], [73.81700617405035, 18.640730964813418, 0.0], [73.81700407832678, 18.640739554055134, 0.0], [73.81700111432, 18.640747907662515, 0.0], [73.8169973102586, 18.64075594607733, 0.0], [73.8169927023716, 18.640763592743202, 0.0], [73.81698733454358, 18.640770774834706, 0.0], [73.81698125789669, 18.640777423950897, 0.0], [73.81697453030371, 18.6407834767668, 0.0], [73.81696721583698, 18.640788875636492, 0.0], [73.81695938415812, 18.64079356914212, 0.0], [73.81695674450177, 18.640794827173178, 0.0], [73.81695110985463, 18.64079751258356, 0.0], [73.81694247172948, 18.640800668404186, 0.0], [73.81693355205059, 18.640803006548545, 0.0], [73.81692443576745, 18.640804504748555, 0.0], [73.81691520970189, 18.64080514873564, 0.0], [73.81671965617669, 18.640809675209212, 0.0], [73.8164826326774, 18.640815161314013, 0.0], [73.81624560918118, 18.640820647119074, 0.0], [73.81612178782756, 18.640823512790945, 0.0], [73.81611327822509, 18.64082334535696, 0.0], [73.8161048186812, 18.640822450954143, 0.0], [73.81609647739928, 18.640820836793452, 0.0], [73.81608832162942, 18.64081851588876, 0.0], [73.81608041712599, 18.640815506951938, 0.0], [73.81600887312699, 18.640784654257022, 0.0], [73.81585952175253, 18.640720247722196, 0.0], [73.81577233793544, 18.640719698605213, 0.0], [73.81577180253043, 18.640796944037604, 0.0], [73.81577677506561, 18.6407988085586, 0.0], [73.81577971379153, 18.64080002128992, 0.0], [73.81579210277599, 18.640805614928876, 0.0], [73.8157949488898, 18.640807014058474, 0.0], [73.81580691337098, 18.640813392412518, 0.0], [73.8158096538817, 18.64081497155412, 0.0], [73.81582113924281, 18.640822105506878, 0.0], [73.81582376163924, 18.640823857451277, 0.0], [73.81583471545103, 18.640831714437, 0.0], [73.81583720776314, 18.640833631187398, 0.0], [73.8158475800224, 18.640842175339884, 0.0], [73.81584993087212, 18.64084424814583, 0.0], [73.81585967423071, 18.640853440461925, 0.0], [73.81586187288744, 18.64085565986196, 0.0], [73.8158709428676, 18.640865458379693, 0.0], [73.81587297929427, 18.640867814242135, 0.0], [73.81588133449252, 18.640878174232448, 0.0], [73.81588319939316, 18.640880655803194, 0.0], [73.81589080166864, 18.6408915299738, 0.0], [73.81589248652993, 18.640894125924493, 0.0], [73.81589930117894, 18.640905464635935, 0.0], [73.81590079830968, 18.640908163116308, 0.0], [73.81590679422392, 18.640919914608492, 0.0], [73.81590809679004, 18.640922703300745, 0.0], [73.8159132465985, 18.64093481392951, 0.0], [73.81591434865378, 18.640937680103473, 0.0], [73.81591739794453, 18.640946524413888, 0.0], [73.81600774744335, 18.64094709340496, 0.0], [73.81600618194824, 18.641172995734603, 0.0], [73.81600461643069, 18.641398898058696, 0.0], [73.81600356039641, 18.641551280718463, 0.0], [73.81600512331214, 18.641560843170794, 0.0], [73.81601321546029, 18.6415962269694, 0.0], [73.81601747957343, 18.641591303377314, 0.0], [73.81602722812283, 18.641582039950837, 0.0], [73.8160378705972, 18.641573718484587, 0.0], [73.81604930726346, 18.641566416960845, 0.0], [73.81606143094598, 18.641560203803834, 0.0], [73.81607412803108, 18.641555137238395, 0.0], [73.81608727953152, 18.641551264744457, 0.0], [73.81624080719278, 18.641513712335314, 0.0], [73.81624159237316, 18.641400390282858, 0.0], [73.81647856833808, 18.641401882208477, 0.0], [73.81647782440741, 18.641509272365948, 0.0], [73.81648633097093, 18.6415158499521, 0.0], [73.81649625416803, 18.64152520174007, 0.0], [73.8165051680056, 18.641535435695143, 0.0], [73.81651298663714, 18.641546453257327, 0.0], [73.81651963476352, 18.641558148319888, 0.0], [73.81652504835851, 18.641570408251294, 0.0], [73.81652917528511, 18.641583114979902, 0.0], [73.81654130721229, 18.64162818935526, 0.0], [73.81659438542007, 18.641825393303527, 0.0], [73.81659718566446, 18.64183842274611, 0.0], [73.81659863287577, 18.64185165107736, 0.0], [73.81659864983841, 18.641854462517234, 0.0], [73.8165987131196, 18.641864950932252, 0.0], [73.81659742562309, 18.641878194257067, 0.0], [73.81659478278212, 18.641891253542372, 0.0], [73.81659081004229, 18.641904003050623, 0.0], [73.81658554565362, 18.6419163200269, 0.0], [73.81657904030256, 18.64192808588076, 0.0], [73.81657135662373, 18.641939187328017, 0.0], [73.81656256859705, 18.641949517481585, 0.0], [73.81655276083538, 18.64195897688048, 0.0], [73.81654202776983, 18.64196747444755, 0.0], [73.81653047274064, 18.641974928366363, 0.0], [73.81651820700205, 18.64198126686895, 0.0], [73.81650534865129, 18.64198642892681, 0.0], [73.8164920214914, 18.64199036483852, 0.0], [73.81647446186612, 18.641994663077007, 0.0], [73.8164738735298, 18.642079589263723, 0.0], [73.81625648557542, 18.642078220621443, 0.0], [73.81625668317905, 18.64207851442891, 0.0], [73.81627196274427, 18.642093650028265, 0.0], [73.81628647078294, 18.64210651546423, 0.0], [73.81629345528941, 18.64211315459737, 0.0], [73.81630967994137, 18.64212968581755, 0.0], [73.8163161648078, 18.64213677056403, 0.0], [73.81633114817853, 18.642154334252705, 0.0], [73.81633710219867, 18.64216183051975, 0.0], [73.81635077218726, 18.64218034215989, 0.0], [73.81635616671066, 18.64218821387612, 0.0], [73.81636845753599, 18.642207584389194, 0.0], [73.81637326660339, 18.642215793675245, 0.0], [73.81638411912076, 18.64223592984949, 0.0], [73.81638831959047, 18.642244437202045, 0.0], [73.81639445917072, 18.642258081059396, 0.0], [73.81643474319667, 18.642305255113705, 0.0], [73.81647230854885, 18.642305491604372, 0.0], [73.81656090128646, 18.64230604930551, 0.0], [73.81656677577207, 18.64230105363249, 0.0], [73.8165876871713, 18.64228067032941, 0.0], [73.81660709485364, 18.642258977633414, 0.0], [73.81662490882393, 18.64223607613566, 0.0], [73.81664123464691, 18.642211792138596, 0.0], [73.81666858734287, 18.642165882676544, 0.0], [73.81669463810259, 18.64211792700053, 0.0], [73.81669493989483, 18.64211738062077, 0.0], [73.81670375691073, 18.642101679069736, 0.0], [73.81670532409045, 18.642099096885534, 0.0], [73.81671078348572, 18.642090750090745, 0.0], [73.81671085045666, 18.64208108094891, 0.0], [73.81671724192545, 18.64208112117679, 0.0], [73.81672786077054, 18.64206704834111, 0.0], [73.81672977103158, 18.642064685390853, 0.0], [73.81674165752254, 18.64205094528187, 0.0], [73.81674372719756, 18.642048707651877, 0.0], [73.81675653895468, 18.64203574524, 0.0], [73.81675875902114, 18.642033642685018, 0.0], [73.81677244019018, 18.642021514481193, 0.0], [73.8167748009694, 18.642019556167586, 0.0], [73.8167892919061, 18.642008315045693, 0.0], [73.81679178310561, 18.6420065095112, 0.0], [73.81680702063521, 18.641996204477792, 0.0], [73.81680963139503, 18.641994559593336, 0.0], [73.81682554908824, 18.641985235574175, 0.0], [73.81682826802623, 18.641983758511007, 0.0], [73.81684479648838, 18.641975456154963, 0.0], [73.81684761175092, 18.641974153352532, 0.0], [73.81686467892493, 18.64196690885427, 0.0], [73.81686757823876, 18.64196578599216, 0.0], [73.81688510971861, 18.641959630934757, 0.0], [73.81688808044389, 18.641958692908204, 0.0], [73.81690599979989, 18.64195365412503, 0.0], [73.81690902898593, 18.641952905023324, 0.0], [73.81692725809704, 18.64194900448156, 0.0], [73.81693033253744, 18.641948447570602, 0.0], [73.81694877519118, 18.64194570476472, 0.0], [73.81694939173809, 18.641856669950606, 0.0], [73.81714497902247, 18.64185790061689, 0.0], [73.81715285510813, 18.641836922407748, 0.0], [73.81715610518326, 18.641829049365636, 0.0], [73.81718704478936, 18.641760463791428, 0.0], [73.8171879323932, 18.641632258609484, 0.0], [73.81718949636736, 18.641406356194086, 0.0], [73.81735189592865, 18.641407377823754, 0.0], [73.8173649606327, 18.641371232131007, 0.0], [73.81739331160699, 18.641274015566587, 0.0], [73.81741396705134, 18.64118185599152, 0.0], [73.81741542761058, 18.641175339326534, 0.0], [73.81742866016704, 18.64109177749084, 0.0], [73.81742959967674, 18.6409560420394, 0.0], [73.81743116327053, 18.640730139587998, 0.0], [73.8174327268419, 18.64050423713106, 0.0], [73.81743429039085, 18.640278334668565, 0.0], [73.81758054310428, 18.640279254489286, 0.0], [73.81758073704984, 18.64027851864546, 0.0], [73.81758479721869, 18.640265792502504, 0.0], [73.81759014635317, 18.640253507011423, 0.0], [73.81759673293803, 18.640241780488058, 0.0], [73.81760449354066, 18.640230725865127, 0.0], [73.81761335342213, 18.64022044960455, 0.0], [73.8176232272569, 18.64021105067218, 0.0], [73.81763401995451, 18.640202619584713, 0.0], [73.81764562757553, 18.640195237538006, 0.0], [73.81765793833233, 18.640188975625062, 0.0], [73.81767083366579, 18.640183894151413, 0.0], [73.8176719309228, 18.6401835776773, 0.0], [73.81768418938704, 18.640180042054325, 0.0], [73.81769787687345, 18.64017745643156, 0.0], [73.81771176430736, 18.64017616218401, 0.0], [73.81772571794552, 18.640176171775995, 0.0], [73.81773960340703, 18.640177485115128, 0.0], [73.81775328696766, 18.640180089553322, 0.0], [73.8177666368475, 18.640183960008454, 0.0], [73.8177795244802, 18.640189059206044, 0.0], [73.81779182575099, 18.640195338038133, 0.0], [73.81780342219209, 18.64020273603628, 0.0], [73.81781420212351, 18.640211181953863, 0.0], [73.8178240617287, 18.64022059445223, 0.0], [73.81783290605422, 18.64023088288401, 0.0], [73.81784064992432, 18.640241948166146, 0.0], [73.81784721876116, 18.640253683734024, 0.0], [73.81785254930303, 18.640265976567864, 0.0], [73.81785659021368, 18.64027870828102, 0.0], [73.8178570652138, 18.640280993296678, 0.0], [73.81790823943575, 18.640281315042326, 0.0], [73.81790667651308, 18.640507217543526, 0.0], [73.81781382765419, 18.640506633761493, 0.0], [73.8177901054233, 18.640596637957163, 0.0], [73.8177647002513, 18.640732237170205, 0.0], [73.81774303942827, 18.640847850849376, 0.0], [73.81773059865023, 18.64095793504131, 0.0], [73.81771383727602, 18.641106250422606, 0.0], [73.81771306239561, 18.64111196399694, 0.0], [73.8177017080943, 18.64118366566624, 0.0], [73.81769597497774, 18.641219869894027, 0.0], [73.81769442964476, 18.641227958172717, 0.0], [73.81767051101991, 18.6413346780358, 0.0], [73.8176684541277, 18.641342662125933, 0.0], [73.81766379946059, 18.64135862325152, 0.0], [73.81766344849896, 18.641409337358454, 0.0], [73.81766188515111, 18.641635239812565, 0.0], [73.8175653049788, 18.641634632412003, 0.0], [73.81755109811888, 18.64166734840112, 0.0], [73.8175475593286, 18.641674845758047, 0.0], [73.81749744162134, 18.641772960463033, 0.0], [73.81749646734585, 18.641774831035885, 0.0], [73.8174542677558, 18.64185430946732, 0.0], [73.81745177711669, 18.641859830629375, 0.0], [73.81766032178088, 18.64186114226112, 0.0], [73.81765956279062, 18.641970812973344, 0.0], [73.8177194879562, 18.641973302386667, 0.0], [73.81772055270149, 18.641973358064018, 0.0], [73.8178964556245, 18.641984449510694, 0.0], [73.81809501641114, 18.641996969435727, 0.0], [73.8180996368805, 18.641997478805916, 0.0], [73.8181041827265, 18.641998417444086, 0.0], [73.8181086101702, 18.641999776310655, 0.0], [73.8181128765729, 18.642001542319004, 0.0], [73.81811694084683, 18.64200369846153, 0.0], [73.81812076385087, 18.642006223973418, 0.0], [73.81812302385799, 18.6420080540544, 0.0], [73.81813327830838, 18.642008234226136, 0.0], [73.81813427525478, 18.641864122308718, 0.0], [73.81813583799867, 18.641638219821466, 0.0], [73.8181374007202, 18.64141231732866, 0.0], [73.8181389634193, 18.64118641483031, 0.0], [73.81816783277584, 18.641186596305396, 0.0], [73.8181812759553, 18.64106769456818, 0.0], [73.81837165723331, 18.64106586160942, 0.0], [73.81837678311868, 18.641065889627832, 0.0], [73.81837750161392, 18.640962001825013, 0.0], [73.81861447715421, 18.640963491025083, 0.0], [73.81861603918223, 18.640737588476952, 0.0], [73.81875359442311, 18.640738452753574, 0.0], [73.81875888363211, 18.640512573606625, 0.0], [73.81876417280886, 18.64028669445344, 0.0], [73.81876539200842, 18.640234627220053, 0.0], [73.81877536202408, 18.64006085236101, 0.0], [73.81878831861891, 18.639835021364505, 0.0], [73.81869309184421, 18.63983442309594, 0.0], [73.81869309792454, 18.639834755360035, 0.0], [73.81869280516493, 18.63984360031178, 0.0], [73.81869160625052, 18.639852375551648, 0.0], [73.81868951267936, 18.639860996920575, 0.0], [73.81868654452975, 18.639869381735164, 0.0], [73.81868273026771, 18.63987744958069, 0.0], [73.81867810647383, 18.639885123082305, 0.0], [73.81867271749263, 18.63989232864715, 0.0], [73.81866661500717, 18.639898997170086, 0.0], [73.81865985754341, 18.639905064696467, 0.0], [73.8186525099089, 18.63991047303555, 0.0], [73.81864464257127, 18.639915170318513, 0.0], [73.81863633098243, 18.63991911149595, 0.0], [73.81862765485484, 18.639922258769907, 0.0], [73.81862166594303, 18.639923812040905, 0.0], [73.81861869739716, 18.639924581956354, 0.0], [73.81860954451611, 18.639926058774723, 0.0], [73.81860028399268, 18.639926675061556, 0.0], [73.81850915028768, 18.639928474778017, 0.0], [73.81849997845084, 18.63992823249376, 0.0], [73.81849087415326, 18.639927146026242, 0.0], [73.81848192269557, 18.639925225554865, 0.0], [73.81847320794645, 18.63992248907308, 0.0], [73.81846481155678, 18.63991896221973, 0.0], [73.81845681219461, 18.639914678038906, 0.0], [73.81844928480812, 18.639909676670253, 0.0], [73.8184422999234, 18.63990400497296, 0.0], [73.81843592298368, 18.63989771608672, 0.0], [73.81843021373616, 18.639890868933808, 0.0], [73.81842522567224, 18.639883527667042, 0.0], [73.81842100552632, 18.639875761068755, 0.0], [73.81841759283796, 18.639867641906246, 0.0], [73.81841501958145, 18.639859246250136, 0.0], [73.81841330986617, 18.639850652761545, 0.0], [73.81841247971077, 18.639841941955133, 0.0], [73.81841206860443, 18.639832657267522, 0.0], [73.81838531309587, 18.639832489125585, 0.0], [73.81838532837176, 18.639830280206517, 0.0], [73.81837760084127, 18.63983052623769, 0.0], [73.81836830832141, 18.639830387548752, 0.0], [73.81835907471026, 18.639829382068417, 0.0], [73.81834998876543, 18.6398275194618, 0.0], [73.8183411378251, 18.639824817633134, 0.0], [73.81833260696841, 18.639821302553592, 0.0], [73.81832447819777, 18.639817008011715, 0.0], [73.81831682965054, 18.63981197528854, 0.0], [73.81830973484782, 18.639806252760856, 0.0], [73.81830326198802, 18.639799895436155, 0.0], [73.81829747329105, 18.639792964423837, 0.0], [73.81829242440033, 18.639785526347875, 0.0], [73.81828816384787, 18.639777652706325, 0.0], [73.81828473258793, 18.639769419184095, 0.0], [73.81828216360309, 18.639760904925396, 0.0], [73.81828048158748, 18.639752191773002, 0.0], [73.81827970270919, 18.639743363481536, 0.0], [73.81827467247265, 18.63960588140983, 0.0], [73.81827068681181, 18.639496948750658, 0.0], [73.81827081549561, 18.639488136474263, 0.0], [73.81827184407892, 18.63947937805976, 0.0], [73.81827376277755, 18.63947075681856, 0.0], [73.81827655334043, 18.6394623547573, 0.0], [73.81828018922313, 18.63945425179769, 0.0], [73.8182846358405, 18.639446525016325, 0.0], [73.8182898508955, 18.639439247911568, 0.0], [73.81829578478164, 18.63943248970434, 0.0], [73.81830238105482, 18.639426314679742, 0.0], [73.81830957697024, 18.63942078157555, 0.0], [73.81831730407922, 18.63941594302347, 0.0], [73.8183254888803, 18.63941184504854, 0.0], [73.81833405351843, 18.63940852663132, 0.0], [73.81834291652548, 18.639406019337084, 0.0], [73.81835199359521, 18.639404347015603, 0.0], [73.8183611983852, 18.63940352557423, 0.0], [73.81838828753669, 18.639402374173418, 0.0], [73.81838843753192, 18.639380684006984, 0.0], [73.81862541088024, 18.639382173071684, 0.0], [73.81862485797873, 18.63946214167354, 0.0], [73.81862604181413, 18.63946607983634, 0.0], [73.81862772184525, 18.639474875983925, 0.0], [73.8186284818045, 18.63948378734287, 0.0], [73.81863260835894, 18.63960813068911, 0.0], [73.81878689445982, 18.639609100017207, 0.0], [73.81879659798496, 18.63938324857088, 0.0], [73.81880630146622, 18.639157397117334, 0.0], [73.81881436767729, 18.638969652838757, 0.0], [73.81881610865435, 18.638931546308307, 0.0], [73.81882642695074, 18.638705698702978, 0.0], [73.81882814710195, 18.63866804781305, 0.0], [73.81884188009693, 18.638479883345894, 0.0], [73.81884901251068, 18.638382157390886, 0.0], [73.81885283844854, 18.63825403974627, 0.0], [73.81885836802542, 18.63806887233529, 0.0], [73.8188637358443, 18.638028195756508, 0.0], [73.81887219677907, 18.637964079930082, 0.0], [73.81887331468832, 18.637802343477325, 0.0], [73.81887487608985, 18.637576440832202, 0.0], [73.81901841463122, 18.637577342372197, 0.0], [73.81904542390762, 18.63753948703857, 0.0], [73.81911253663885, 18.63747812838103, 0.0], [73.81911265545504, 18.637460934435286, 0.0], [73.81894804145318, 18.63735098792184, 0.0], [73.81887643746899, 18.637350538181536, 0.0], [73.81863946691621, 18.637349049589346, 0.0], [73.8184024963858, 18.637347560698696, 0.0], [73.81816552587777, 18.637346071509572, 0.0], [73.81796796435985, 18.637344829749335, 0.0], [73.81792851861101, 18.637349899345843, 0.0], [73.81775099364893, 18.63737271487689, 0.0], [73.8176912984249, 18.637384502773706, 0.0], [73.81745399334282, 18.637431362728904, 0.0], [73.81745305123049, 18.637567504685965, 0.0], [73.81721608049898, 18.637566014283586, 0.0], [73.81697910978991, 18.637564523582736, 0.0], [73.81674213910324, 18.63756303258342, 0.0], [73.81674057488392, 18.637788935054395, 0.0], [73.81673901064218, 18.638014837519822, 0.0], [73.81673744637801, 18.638240739979707, 0.0], [73.81673588209142, 18.63846664243404, 0.0], [73.81673431778242, 18.638692544882822, 0.0], [73.81673275345099, 18.638918447326066, 0.0], [73.81673118909714, 18.639144349763757, 0.0]], [[73.81671867345915, 18.640951569065578, 0.0], [73.8169556488426, 18.640953060355383, 0.0], [73.8169540846001, 18.641178962762513, 0.0], [73.81671710890349, 18.641177471453346, 0.0], [73.81671867345915, 18.640951569065578, 0.0]]]}, "properties": {"site_id": "SEG01", "name": "SEG01", "n_member_parcels": 168}}]}