{"type": "FeatureCollection", "features": [{"type": "Feature", "geometry": {"type": "Polygon", "coordinates": [[[73.80935198053237, 18.643841913788208, 0.0], [73.80935110316034, 18.643967790788352, 0.0], [73.80944066649538, 18.644016085604257, 0.0], [73.80944239447336, 18.644017064042707, 0.0], [73.80946543053898, 18.644030745863102, 0.0], [73.80946805638008, 18.644032423836034, 0.0], [73.80949008445202, 18.64404753903723, 0.0], [73.80949258711362, 18.64404938013537, 0.0], [73.80951350919878, 18.644065861476786, 0.0], [73.8095158775477, 18.644067857509945, 0.0], [73.80951700172275, 18.644068870603743, 0.0], [73.80958738504643, 18.644069316318653, 0.0], [73.8095868610469, 18.64414450879671, 0.0], [73.80959292396203, 18.64415271949492, 0.0], [73.80959465636307, 18.644155240191083, 0.0], [73.80960876479645, 18.644177342859173, 0.0], [73.80961031707399, 18.644179968032766, 0.0], [73.80962284850595, 18.644202918050244, 0.0], [73.80962421375484, 18.64420563602368, 0.0], [73.8096351124377, 18.644229331296376, 0.0], [73.8096361819228, 18.644231861599508, 0.0], [73.80966080896057, 18.644295614941385, 0.0], [73.80966083667265, 18.644295693137263, 0.0], [73.8096616290043, 18.644297928879833, 0.0], [73.8096826060155, 18.64436285766104, 0.0], [73.80968329368862, 18.644365210460705, 0.0], [73.80970055936879, 18.644431124942987, 0.0], [73.80970111266161, 18.644433509728447, 0.0], [73.80971461655142, 18.64450021729294, 0.0], [73.80971498780542, 18.644502315748586, 0.0], [73.80971796693493, 18.644521966586627, 0.0], [73.8098212162115, 18.644522620325148, 0.0], [73.80981964221355, 18.64474852206081, 0.0], [73.80981806819305, 18.644974423790927, 0.0], [73.80981649414998, 18.64520032551549, 0.0], [73.80974028159162, 18.64519984295267, 0.0], [73.80972833140702, 18.645224553813208, 0.0], [73.80972686771263, 18.64522732588432, 0.0], [73.80971256351161, 18.64525224642317, 0.0], [73.80971107259403, 18.64525466270151, 0.0], [73.80967224328231, 18.645313346553714, 0.0], [73.80967078145541, 18.645315425884505, 0.0], [73.80962860243255, 18.645371969849784, 0.0], [73.80962702204798, 18.645373968818742, 0.0], [73.8095844952366, 18.645424768118488, 0.0], [73.80958162277034, 18.645428199347073, 0.0], [73.80958132518383, 18.645428551197014, 0.0], [73.80957788439234, 18.64543257801309, 0.0], [73.80957636471025, 18.645650628293076, 0.0], [73.80939008237178, 18.64564944847333, 0.0], [73.80938972512642, 18.645649702990017, 0.0], [73.80938574437917, 18.645651996477643, 0.0], [73.80938154697348, 18.645653906982098, 0.0], [73.80937717333276, 18.645655416104155, 0.0], [73.80937472269754, 18.645656010424165, 0.0], [73.80944383020795, 18.645875700555056, 0.0], [73.80957479028628, 18.645876529981507, 0.0], [73.80957321583973, 18.646102431664385, 0.0], [73.8095721968996, 18.646248627528816, 0.0], [73.80960064836393, 18.646328517047415, 0.0], [73.80968128544524, 18.64655493936147, 0.0], [73.8098070494179, 18.646555735746322, 0.0], [73.80980547521693, 18.64678163743203, 0.0], [73.80980400571475, 18.64699251166064, 0.0], [73.80980715787223, 18.647007514689957, 0.0], [73.80980712014059, 18.647007559496412, 0.0], [73.81004088418142, 18.647009039585352, 0.0], [73.81004245809169, 18.64678313788571, 0.0], [73.81027944098896, 18.646784638040753, 0.0], [73.81028101456342, 18.646558736316088, 0.0], [73.8102825881153, 18.646332834585873, 0.0], [73.81028416164463, 18.646106932850103, 0.0], [73.81028573515142, 18.64588103110879, 0.0], [73.81028730863567, 18.645655129361916, 0.0], [73.81028888209735, 18.6454292276095, 0.0], [73.81029045553652, 18.64520332585153, 0.0], [73.81029202895313, 18.644977424088015, 0.0], [73.81052900936699, 18.64497892378866, 0.0], [73.81053058244781, 18.644753022000113, 0.0], [73.8105321555061, 18.64452712020602, 0.0], [73.81053372854184, 18.644301218406376, 0.0], [73.81053530155505, 18.644075316601185, 0.0], [73.81029832239408, 18.644073816978434, 0.0], [73.81029989569794, 18.643847915187163, 0.0], [73.81030146897926, 18.643622013390335, 0.0], [73.81006449046724, 18.643620513507944, 0.0], [73.80982751197779, 18.643619013326976, 0.0], [73.80959053351087, 18.643617512847435, 0.0], [73.80958895928994, 18.64384341458582, 0.0], [73.80935198053237, 18.643841913788208, 0.0]]]}, "properties": {"site_id": "SEG06", "name": "SEG06", "n_member_parcels": 45}}]}