{"type": "FeatureCollection", "features": [{"type": "Feature", "geometry": {"type": "MultiPolygon", "coordinates": [[[[73.81222556799986, 18.6395677656071, 0.0], [73.81246254107768, 18.639569262452383, 0.0], [73.81246411111258, 18.639343360375026, 0.0], [73.81222713834788, 18.63934186354918, 0.0], [73.81222556799986, 18.6395677656071, 0.0]]], [[[73.81245940094038, 18.64002106659044, 0.0], [73.81245783083797, 18.640246968651148, 0.0], [73.81245767121719, 18.64026993427542, 0.0], [73.81247197802602, 18.640298564310644, 0.0], [73.81247323516372, 18.640301311135538, 0.0], [73.81248635778844, 18.640332793433792, 0.0], [73.81248742114036, 18.640335613661843, 0.0], [73.81249832554832, 18.640367855998704, 0.0], [73.81249919043597, 18.640370737221936, 0.0], [73.81250782865072, 18.640403597743717, 0.0], [73.81250849126897, 18.640406527286206, 0.0], [73.81251482528405, 18.64043986141915, 0.0], [73.81251528271736, 18.6404428263917, 0.0], [73.8125189017058, 18.640473266347982, 0.0], [73.81269323506594, 18.640474367330828, 0.0], [73.81269166523167, 18.64070026939987, 0.0], [73.81292863992016, 18.6407017657453, 0.0], [73.8130069715013, 18.64070226029406, 0.0], [73.81301356305042, 18.640699835122078, 0.0], [73.81302940256491, 18.640692819587134, 0.0], [73.81304471712848, 18.64068481462174, 0.0], [73.81305943882276, 18.64067585572692, 0.0], [73.81307350235872, 18.640665982634495, 0.0], [73.8130868453662, 18.640655239130428, 0.0], [73.8130994086707, 18.640643672860996, 0.0], [73.81311113655556, 18.640631335121157, 0.0], [73.81312197700898, 18.640618280627645, 0.0], [73.81313188195485, 18.640604567275542, 0.0], [73.81314080746645, 18.64059025588181, 0.0], [73.81314871396009, 18.640575409916128, 0.0], [73.81315556637182, 18.64056009521832, 0.0], [73.8131613343122, 18.640544379707485, 0.0], [73.81316599220149, 18.64052833307982, 0.0], [73.81316685754886, 18.64052433247616, 0.0], [73.81316718383913, 18.64047735968429, 0.0], [73.81316875302463, 18.640251457570834, 0.0], [73.81322968147893, 18.640251842161494, 0.0], [73.81323230458187, 18.640247414462877, 0.0], [73.81323387931435, 18.640244944391526, 0.0], [73.81324665393942, 18.64022627919351, 0.0], [73.81324799328289, 18.640224424909384, 0.0], [73.81329528908772, 18.64016231678621, 0.0], [73.8133383510957, 18.6400989033602, 0.0], [73.81337788554693, 18.640033247150246, 0.0], [73.81338131578484, 18.640026887179207, 0.0], [73.81340763602552, 18.639978087055564, 0.0], [73.81340826039758, 18.639888181170058, 0.0], [73.81340027650474, 18.639885017804268, 0.0], [73.81335399340657, 18.639869543524917, 0.0], [73.81330682785914, 18.63985657902495, 0.0], [73.81327007591693, 18.639848571525505, 0.0], [73.81323239538058, 18.6398421544153, 0.0], [73.81320804622555, 18.639839146451738, 0.0], [73.81317159011478, 18.639843017915513, 0.0], [73.81303528881283, 18.639857492394164, 0.0], [73.81303474727446, 18.639857524039307, 0.0], [73.81303420352926, 18.639857603626435, 0.0], [73.81293443639407, 18.639867459752658, 0.0], [73.8128588466214, 18.639874927329277, 0.0], [73.81269721617646, 18.639901463584135, 0.0], [73.81269637466696, 18.64002256317609, 0.0], [73.81245940094038, 18.64002106659044, 0.0]]], [[[73.81262725924839, 18.646898464359722, 0.0], [73.8125987474239, 18.6468599095294, 0.0], [73.81259723487833, 18.64685773331185, 0.0], [73.81257110659541, 18.646817673149677, 0.0], [73.81256968600275, 18.646815342829363, 0.0], [73.81256043110191, 18.64679906194374, 0.0], [73.81241228807872, 18.646798125997766, 0.0], [73.81241071730116, 18.64702402789199, 0.0], [73.812647700737, 18.647025525080164, 0.0], [73.81264840698627, 18.64692393573997, 0.0], [73.81262890112141, 18.64690055367325, 0.0], [73.81262725924839, 18.646898464359722, 0.0]]], [[[73.8130413787238, 18.647057754328326, 0.0], [73.81303924645994, 18.647057936188286, 0.0], [73.81295982876311, 18.647062989389735, 0.0], [73.81295721315615, 18.647063086761804, 0.0], [73.8129362285648, 18.647063315149058, 0.0], [73.81293313490785, 18.64706325252859, 0.0], [73.81291217940287, 18.647062175208106, 0.0], [73.81290909662522, 18.647061920298665, 0.0], [73.81288825952178, 18.647059541862145, 0.0], [73.81288520076244, 18.647059095750162, 0.0], [73.81288446217503, 18.647058964378502, 0.0], [73.81286457087128, 18.647055426334834, 0.0], [73.81286154916741, 18.64705479092174, 0.0], [73.81284121441587, 18.647049846167224, 0.0], [73.81283824264625, 18.647049024161227, 0.0], [73.81281828970364, 18.647042825142744, 0.0], [73.8128153805342, 18.64704182004729, 0.0], [73.81279589444273, 18.647034393185887, 0.0], [73.81279306027307, 18.64703320928498, 0.0], [73.81277799313384, 18.647026348100002, 0.0], [73.812647700737, 18.647025525080164, 0.0], [73.81264613025022, 18.647251426988266, 0.0], [73.81264455974089, 18.647477328890826, 0.0], [73.8126429892091, 18.647703230787833, 0.0], [73.81287997360727, 18.647704727735665, 0.0], [73.81311695802795, 18.647706224384855, 0.0], [73.81311852793318, 18.64748032244898, 0.0], [73.81312009781594, 18.647254420507558, 0.0], [73.81312152404135, 18.64704918766202, 0.0], [73.81312024670179, 18.64704931239345, 0.0], [73.8130413787238, 18.647057754328326, 0.0]]], [[[73.81483132801199, 18.639720466294538, 0.0], [73.81506823831215, 18.639731075148475, 0.0], [73.81506924641796, 18.639585708048948, 0.0], [73.81507081300852, 18.639359805758016, 0.0], [73.81483383999652, 18.639358312215723, 0.0], [73.81483227309285, 18.639584214487257, 0.0], [73.81483132801199, 18.639720466294538, 0.0]]], [[[73.8142074431407, 18.63944745739862, 0.0], [73.81415801544618, 18.63945405477796, 0.0], [73.81412217523372, 18.639461297456528, 0.0], [73.81412135325229, 18.639579732011132, 0.0], [73.81435832651, 18.63958122646835, 0.0], [73.81435925212266, 18.639447833576096, 0.0], [73.81435692974036, 18.639447521561987, 0.0], [73.81430714292863, 18.639444182821123, 0.0], [73.81425723308455, 18.63944416139861, 0.0], [73.8142074431407, 18.63944745739862, 0.0]]], [[[73.81649536101237, 18.64343519761906, 0.0], [73.8164922914426, 18.643608490235987, 0.0], [73.81649228586483, 18.643608758082948, 0.0], [73.81649103343089, 18.64366108253722, 0.0], [73.81648562681022, 18.643886960656197, 0.0], [73.81648290136377, 18.64400082400162, 0.0], [73.81648281957882, 18.644002639261206, 0.0], [73.81647552537174, 18.644112809211308, 0.0], [73.81646057421547, 18.64433862722563, 0.0], [73.81669520276985, 18.644340104299438, 0.0], [73.81669363787783, 18.64456600660398, 0.0], [73.81693061827231, 18.644567498203642, 0.0], [73.8171675986892, 18.644568989504716, 0.0], [73.81740457912849, 18.64457048050719, 0.0], [73.81740614308085, 18.644344578144565, 0.0], [73.81764312322935, 18.64434606882909, 0.0], [73.81764468684607, 18.644120166441564, 0.0], [73.81764625044036, 18.643894264048495, 0.0], [73.81764781401228, 18.64366836164986, 0.0], [73.81764937756176, 18.643442459245687, 0.0], [73.81741239866612, 18.643440968638583, 0.0], [73.81741396250642, 18.64321506624822, 0.0], [73.81720109646314, 18.643213727072904, 0.0], [73.81720630141331, 18.64322575106502, 0.0], [73.81721034919985, 18.64323855786736, 0.0], [73.81721305315999, 18.64325168261638, 0.0], [73.81721438696316, 18.643264997507806, 0.0], [73.81721433762094, 18.643278372885796, 0.0], [73.81721290561343, 18.643291678505495, 0.0], [73.8172101048848, 18.643304784801288, 0.0], [73.81720596270723, 18.64331756414848, 0.0], [73.8172005194156, 18.64332989210606, 0.0], [73.81719382801457, 18.643341648628496, 0.0], [73.81718595366259, 18.64335271923465, 0.0], [73.81717697303728, 18.643362996122626, 0.0], [73.81717594266131, 18.64336396298777, 0.0], [73.81717541979289, 18.643439477732905, 0.0], [73.81704224827527, 18.643438639779557, 0.0], [73.81703033971324, 18.64344337487855, 0.0], [73.81701699813482, 18.643447949643143, 0.0], [73.81700324494066, 18.643451235071097, 0.0], [73.81698921687921, 18.64345319849531, 0.0], [73.81697505343186, 18.64345382039342, 0.0], [73.81696089542623, 18.64345309458189, 0.0], [73.8169468836358, 18.64345102827752, 0.0], [73.81693836517573, 18.64344892678309, 0.0], [73.81693315738019, 18.643447642025624, 0.0], [73.81691985313998, 18.64344296949585, 0.0], [73.8169087038299, 18.643437799384913, 0.0], [73.81670146211367, 18.64343649502581, 0.0], [73.81649536101237, 18.64343519761906, 0.0]]], [[[73.81430815368913, 18.646810094985923, 0.0], [73.81430972193806, 18.64658419293076, 0.0], [73.81407273897133, 18.64658269787187, 0.0], [73.81407117040912, 18.646808599907615, 0.0], [73.81430815368913, 18.646810094985923, 0.0]]]]}, "properties": {"site_id": "EMU_Grass_land", "name": "EMU_Grass_land", "n_member_parcels": 48}}]}