{"type": "FeatureCollection", "features": [{"type": "Feature", "geometry": {"type": "Polygon", "coordinates": [[[73.81383889371057, 18.64612939846502, 0.0], [73.8138404625186, 18.645903496432037, 0.0], [73.8136034805366, 18.64590200083413, 0.0], [73.8136024956595, 18.646043791222333, 0.0], [73.8136611946041, 18.6460934093209, 0.0], [73.8137621781269, 18.646107185700096, 0.0], [73.81375804524397, 18.6461288882564, 0.0], [73.81383889371057, 18.64612939846502, 0.0]]]}, "properties": {"site_id": "SEG124", "name": "SEG124", "n_member_parcels": 1}}]}