{"type": "FeatureCollection", "features": [{"type": "Feature", "geometry": {"type": "Polygon", "coordinates": [[[73.81195246352483, 18.644762013816617, 0.0], [73.811715483289, 18.644760515927025, 0.0], [73.81170179679079, 18.644760429409153, 0.0], [73.8115869015136, 18.64480946669341, 0.0], [73.8114988548356, 18.6448074501374, 0.0], [73.8114780787839, 18.644819996941095, 0.0], [73.8114234951282, 18.644852960374195, 0.0], [73.8112984199841, 18.644890126779302, 0.0], [73.8112748759427, 18.644862239893197, 0.0], [73.81124061860133, 18.644887456669856, 0.0], [73.8112399507438, 18.64498342109898, 0.0], [73.81112928124634, 18.644982721196754, 0.0], [73.8111143955327, 18.645090428612992, 0.0], [73.8110666762023, 18.64520823701004, 0.0], [73.8110141792018, 18.64533784019051, 0.0], [73.81103493226016, 18.645433947993748, 0.0], [73.81118948430979, 18.64543492550022, 0.0], [73.8111927986457, 18.64536411968295, 0.0], [73.81119367550231, 18.645355246623563, 0.0], [73.8111954650341, 18.64534649906046, 0.0], [73.81119814983312, 18.645337962086273, 0.0], [73.81120170378264, 18.645329718745124, 0.0], [73.81120609231122, 18.645321849224796, 0.0], [73.811211272729, 18.645314430076667, 0.0], [73.81121719464294, 18.645307533471062, 0.0], [73.81122380044711, 18.645301226495278, 0.0], [73.81123102588296, 18.64529557050088, 0.0], [73.81123780838749, 18.645291252263043, 0.0], [73.81123837858013, 18.645209322940364, 0.0], [73.81147535939735, 18.64521082146606, 0.0], [73.81171234023712, 18.645212319693155, 0.0], [73.81194932109939, 18.64521381762164, 0.0], [73.81218630198418, 18.645215315251527, 0.0], [73.81218682666832, 18.645139864380244, 0.0], [73.8121578185351, 18.6451320625494, 0.0], [73.8120601118351, 18.645087648211096, 0.0], [73.81202538190126, 18.64498838649467, 0.0], [73.81195089232337, 18.64498791572191, 0.0], [73.81195246352483, 18.644762013816617, 0.0]]]}, "properties": {"site_id": "SEG27", "name": "SEG27", "n_member_parcels": 9}}]}