{"type": "FeatureCollection", "features": [{"type": "Feature", "geometry": {"type": "Polygon", "coordinates": [[[73.80960942240256, 18.640906691553923, 0.0], [73.80960784845233, 18.641132593358904, 0.0], [73.80984482347428, 18.641134093624142, 0.0], [73.80984588974937, 18.640981025974508, 0.0], [73.8098422269857, 18.6409775428037, 0.0], [73.809831138512, 18.640968332751594, 0.0], [73.8098194240696, 18.640959856083104, 0.0], [73.809807136931, 18.6409521513502, 0.0], [73.80972979763172, 18.640907453665935, 0.0], [73.80960942240256, 18.640906691553923, 0.0]]]}, "properties": {"site_id": "SEG111", "name": "SEG111", "n_member_parcels": 1}}]}