{"type": "FeatureCollection", "features": [{"type": "Feature", "geometry": {"type": "Polygon", "coordinates": [[[73.80724440766552, 18.64021396781412, 0.0], [73.80724283065159, 18.64043986944072, 0.0], [73.80747980450832, 18.640441372632722, 0.0], [73.80771677838767, 18.640442875526208, 0.0], [73.8079537522896, 18.64044437812117, 0.0], [73.80795532836413, 18.640218476436022, 0.0], [73.80771835477533, 18.640216973860568, 0.0], [73.80748138120913, 18.640215470986607, 0.0], [73.80748295788732, 18.63998956933494, 0.0], [73.80724598465684, 18.639988066181978, 0.0], [73.80700901144897, 18.6399865627305, 0.0], [73.80700743414452, 18.640212464343122, 0.0], [73.80724440766552, 18.64021396781412, 0.0]]]}, "properties": {"site_id": "SEG44", "name": "SEG44", "n_member_parcels": 5}}]}