{"type": "FeatureCollection", "features": [{"type": "Feature", "geometry": {"type": "Polygon", "coordinates": [[[73.81173445114784, 18.640942824173493, 0.0], [73.81173165565345, 18.640941405525467, 0.0], [73.81169243430725, 18.640919868515073, 0.0], [73.81150522070425, 18.640918685161115, 0.0], [73.81150377559511, 18.641126425915925, 0.0], [73.8115127920052, 18.64114464491702, 0.0], [73.81174062446146, 18.641146084998812, 0.0], [73.81197759968626, 18.641147582577243, 0.0], [73.81197839921188, 18.641032601898175, 0.0], [73.81197270439587, 18.64103149046423, 0.0], [73.81196965851355, 18.641030795320177, 0.0], [73.8119500717025, 18.641025667297427, 0.0], [73.81194708063163, 18.64102478190688, 0.0], [73.81192816081554, 18.64101852092488, 0.0], [73.81186405141575, 18.64099812497708, 0.0], [73.81186108253178, 18.640997074117216, 0.0], [73.81179828166823, 18.6409725395064, 0.0], [73.81179539303051, 18.64097130198985, 0.0], [73.8117420135491, 18.64094635804478, 0.0], [73.81173445114784, 18.640942824173493, 0.0]]]}, "properties": {"site_id": "SEG75", "name": "SEG75", "n_member_parcels": 2}}]}