{"type": "FeatureCollection", "features": [{"type": "Feature", "geometry": {"type": "Polygon", "coordinates": [[[73.810103823002, 18.63797296727067, 0.0], [73.81010311771513, 18.63807425345394, 0.0], [73.81020317129843, 18.63808533888062, 0.0], [73.8102058594161, 18.63808571141526, 0.0], [73.81032189579012, 18.638105044124874, 0.0], [73.81032455710537, 18.638105562854143, 0.0], [73.81033985719047, 18.6381089832538, 0.0], [73.81043924110277, 18.6381312009205, 0.0], [73.8104420627507, 18.638131919826304, 0.0], [73.81047200198047, 18.638140498301677, 0.0], [73.8104749634292, 18.638141449394976, 0.0], [73.81050424457247, 18.6381518900231, 0.0], [73.81050713383702, 18.638153025088812, 0.0], [73.81053562959812, 18.63816528248042, 0.0], [73.81053843411829, 18.63816659658421, 0.0], [73.81056602061577, 18.63818061745224, 0.0], [73.81056872819912, 18.638182104881185, 0.0], [73.81057629835091, 18.638186586829637, 0.0], [73.81059528550429, 18.63819782827201, 0.0], [73.81059788437975, 18.638199482559607, 0.0], [73.81060161182624, 18.63820202851051, 0.0], [73.81081316302814, 18.638203366536313, 0.0], [73.81081473511968, 18.637977464561825, 0.0], [73.81057776439125, 18.637975965763253, 0.0], [73.81034079368534, 18.6379744666662, 0.0], [73.810103823002, 18.63797296727067, 0.0]]]}, "properties": {"site_id": "SEG66", "name": "SEG66", "n_member_parcels": 3}}]}