{"type": "FeatureCollection", "features": [{"type": "Feature", "geometry": {"type": "Polygon", "coordinates": [[[73.81288625434638, 18.6468011200366, 0.0], [73.81288529359622, 18.646939346179852, 0.0], [73.81288960699848, 18.646940395059705, 0.0], [73.81290536829381, 18.64694319850315, 0.0], [73.81292128789941, 18.646945015635286, 0.0], [73.8129372979639, 18.64694583871097, 0.0], [73.8129535689375, 18.646945661624557, 0.0], [73.81302933028668, 18.64694084106979, 0.0], [73.81310608712721, 18.646932625108466, 0.0], [73.81310654602895, 18.64693257814359, 0.0], [73.81311895063088, 18.646931366837823, 0.0], [73.81312200670271, 18.646931163282087, 0.0], [73.81312234430398, 18.646931151228316, 0.0], [73.8131344674834, 18.64693071837972, 0.0], [73.81313753096615, 18.646930703441544, 0.0], [73.81314999586965, 18.646931026801074, 0.0], [73.81315305396589, 18.646931200542816, 0.0], [73.81316547091897, 18.64693229081346, 0.0], [73.81316851085322, 18.646932652509324, 0.0], [73.81318082798295, 18.646934505136375, 0.0], [73.81318383705546, 18.64693505327533, 0.0], [73.81319600290587, 18.646937660519303, 0.0], [73.81319896854575, 18.646938392811386, 0.0], [73.81321093229288, 18.646941743780197, 0.0], [73.81321384211142, 18.646942657166335, 0.0], [73.81322555377562, 18.6469467378611, 0.0], [73.81322839561693, 18.64694782852565, 0.0], [73.81323980627157, 18.64695262189898, 0.0], [73.81324256826244, 18.646953885285114, 0.0], [73.8132536302386, 18.646959371312143, 0.0], [73.81325630084156, 18.646960802142353, 0.0], [73.81326696792661, 18.6469669579047, 0.0], [73.81326953598472, 18.64696855020148, 0.0], [73.81327976361595, 18.64697534998295, 0.0], [73.81328167868651, 18.646976692487147, 0.0], [73.81330635227063, 18.6469949153359, 0.0], [73.81330767006452, 18.64699592496258, 0.0], [73.81333136728264, 18.647014753444598, 0.0], [73.81335112287768, 18.647029967324432, 0.0], [73.81335865117953, 18.647030014852845, 0.0], [73.81336004840361, 18.646828912270635, 0.0], [73.8133006373699, 18.646848819645506, 0.0], [73.8132823614941, 18.646834105304, 0.0], [73.81325592503326, 18.646803454412023, 0.0], [73.81312323751395, 18.64680261660807, 0.0], [73.81288625434638, 18.6468011200366, 0.0]]]}, "properties": {"site_id": "SEG81", "name": "SEG81", "n_member_parcels": 2}}]}