{"type": "FeatureCollection", "features": [{"type": "Feature", "geometry": {"type": "Polygon", "coordinates": [[[73.81408058144521, 18.645453187609874, 0.0], [73.81408179253043, 18.64527875414932, 0.0], [73.8140813025616, 18.645278723917748, 0.0], [73.81406975364936, 18.645277631192556, 0.0], [73.81406331028327, 18.64527680799921, 0.0], [73.81405186709749, 18.645274963293637, 0.0], [73.81404549807138, 18.645273721057627, 0.0], [73.81403421443157, 18.645271133047615, 0.0], [73.81402794970076, 18.64526947761144, 0.0], [73.81401687867604, 18.64526615846891, 0.0], [73.8140107477058, 18.645264097618774, 0.0], [73.81399994136511, 18.645260062954367, 0.0], [73.81399397298817, 18.64525760638201, 0.0], [73.81398348215606, 18.645252875171458, 0.0], [73.81397770444508, 18.645250034431477, 0.0], [73.81396757846156, 18.64524462892654, 0.0], [73.81396201858927, 18.645241417379136, 0.0], [73.81395230507894, 18.64523536300307, 0.0], [73.81394698919428, 18.645231795752647, 0.0], [73.81393948716386, 18.64522638544082, 0.0], [73.8138451688078, 18.64522579029978, 0.0], [73.813844011558, 18.645392437095907, 0.0], [73.81384498362375, 18.64539390169491, 0.0], [73.81384574907005, 18.645395095501577, 0.0], [73.81388093272031, 18.645451927923784, 0.0], [73.81408058144521, 18.645453187609874, 0.0]]]}, "properties": {"site_id": "SEG103", "name": "SEG103", "n_member_parcels": 1}}]}