{"type": "FeatureCollection", "features": [{"type": "Feature", "geometry": {"type": "Polygon", "coordinates": [[[73.80677677098082, 18.639307354167933, 0.0], [73.80677519343105, 18.63953325577767, 0.0], [73.80701216599007, 18.639534759488605, 0.0], [73.80724913857169, 18.639536262901032, 0.0], [73.80725071549521, 18.63931036125224, 0.0], [73.8070137432267, 18.639308857859334, 0.0], [73.80701532044075, 18.639082956224506, 0.0], [73.80677834850796, 18.639081452552634, 0.0], [73.80654137659779, 18.63907994858226, 0.0], [73.80653979875753, 18.639305850178026, 0.0], [73.80677677098082, 18.639307354167933, 0.0]]]}, "properties": {"site_id": "SEG53", "name": "SEG53", "n_member_parcels": 4}}]}