{"type": "FeatureCollection", "features": [{"type": "Feature", "geometry": {"type": "Polygon", "coordinates": [[[73.80843715251203, 18.639091971987312, 0.0], [73.80834870122983, 18.639091411435967, 0.0], [73.80827096662168, 18.639133995053538, 0.0], [73.80827092399083, 18.639134018379004, 0.0], [73.80819960484965, 18.639172993767925, 0.0], [73.80819860479521, 18.63931637183883, 0.0], [73.80819702912416, 18.639542273565684, 0.0], [73.80819545343053, 18.639768175286992, 0.0], [73.80843242643823, 18.639769677226397, 0.0], [73.80843400181875, 18.639543775485585, 0.0], [73.80843557717668, 18.639317873739223, 0.0], [73.80843715251203, 18.639091971987312, 0.0]]]}, "properties": {"site_id": "SEG68", "name": "SEG68", "n_member_parcels": 3}}]}