{"type": "FeatureCollection", "features": [{"type": "Feature", "geometry": {"type": "Polygon", "coordinates": [[[73.80723967655592, 18.640891672677267, 0.0], [73.80700270209549, 18.64089016914769, 0.0], [73.80700181105243, 18.641017777445253, 0.0], [73.80702944389408, 18.641112117173023, 0.0], [73.80712926245545, 18.641072147375972, 0.0], [73.80713609577369, 18.641069080638154, 0.0], [73.80723872335737, 18.64102820947899, 0.0], [73.80723967655592, 18.640891672677267, 0.0]]]}, "properties": {"site_id": "SEG87", "name": "SEG87", "n_member_parcels": 1}}]}