{"type": "FeatureCollection", "features": [{"type": "Feature", "geometry": {"type": "Polygon", "coordinates": [[[73.80867727457972, 18.638641670010237, 0.0], [73.8086657285699, 18.638641596857145, 0.0], [73.80851991912861, 18.63870786391531, 0.0], [73.8084394855593, 18.6387574090302, 0.0], [73.8084387278248, 18.638866070229852, 0.0], [73.8084708823949, 18.63886627399361, 0.0], [73.80867660585311, 18.638737587060344, 0.0], [73.80867727457972, 18.638641670010237, 0.0]]]}, "properties": {"site_id": "SEG88", "name": "SEG88", "n_member_parcels": 1}}]}