{"type": "FeatureCollection", "features": [{"type": "Feature", "geometry": {"type": "Polygon", "coordinates": [[[73.80843242643823, 18.639769677226397, 0.0], [73.80843085103514, 18.63999557896166, 0.0], [73.80866782437856, 18.639997080622056, 0.0], [73.80866890000702, 18.639842812733786, 0.0], [73.8086603040747, 18.6398313367845, 0.0], [73.8086505417933, 18.6398199934506, 0.0], [73.8086400050566, 18.6398092983511, 0.0], [73.8086287411094, 18.6397992994407, 0.0], [73.80861680045221, 18.639790041522005, 0.0], [73.80858847465753, 18.639770666099874, 0.0], [73.80843242643823, 18.639769677226397, 0.0]]]}, "properties": {"site_id": "SEG105", "name": "SEG105", "n_member_parcels": 1}}]}