{"type": "FeatureCollection", "features": [{"type": "Feature", "geometry": {"type": "Polygon", "coordinates": [[[73.80959053351087, 18.643617512847435, 0.0], [73.80982751197779, 18.643619013326976, 0.0], [73.81006449046724, 18.643620513507944, 0.0], [73.81030146897926, 18.643622013390335, 0.0], [73.81030171018732, 18.64358737890777, 0.0], [73.8101672178081, 18.64348913480279, 0.0], [73.81006571540583, 18.64344466176964, 0.0], [73.8099778923953, 18.643406182267405, 0.0], [73.80995134777135, 18.643393885564983, 0.0], [73.80982908586297, 18.643393111563558, 0.0], [73.80959210770925, 18.643391611103496, 0.0], [73.80959053351087, 18.643617512847435, 0.0]]]}, "properties": {"site_id": "SEG69", "name": "SEG69", "n_member_parcels": 3}}]}