{"type": "FeatureCollection", "features": [{"type": "Feature", "geometry": {"type": "Polygon", "coordinates": [[[73.81216600997074, 18.64813307935102, 0.0], [73.81202396880045, 18.647925231014923, 0.0], [73.81193046465543, 18.647924639985586, 0.0], [73.81192889313874, 18.648150541813166, 0.0], [73.81169190820403, 18.64814904363185, 0.0], [73.81145492329183, 18.648147545151872, 0.0], [73.81145335112605, 18.648373446935004, 0.0], [73.81145177893771, 18.648599348712587, 0.0], [73.8116887644765, 18.648600847231464, 0.0], [73.81174551125932, 18.648601206011232, 0.0], [73.81176609438077, 18.648590361081897, 0.0], [73.8119263822121, 18.648511474881836, 0.0], [73.81192732159954, 18.648376443635197, 0.0], [73.81216430687006, 18.648377941537312, 0.0], [73.81216587809597, 18.648152039695834, 0.0], [73.81216600997074, 18.64813307935102, 0.0]]]}, "properties": {"site_id": "SEG43", "name": "SEG43", "n_member_parcels": 6}}]}