{"type": "FeatureCollection", "features": [{"type": "Feature", "geometry": {"type": "Polygon", "coordinates": [[[73.8105636119382, 18.64000908315872, 0.0], [73.81032663841432, 18.640007583886433, 0.0], [73.81032593668608, 18.64010836606414, 0.0], [73.8103291742496, 18.640111601376404, 0.0], [73.8103550440192, 18.6401342624043, 0.0], [73.8103824210203, 18.6401552526708, 0.0], [73.8104111867367, 18.640174481307508, 0.0], [73.8104412166403, 18.6401918650726, 0.0], [73.81044907237636, 18.640195763093715, 0.0], [73.81045256634052, 18.64018899494114, 0.0], [73.81045992497842, 18.64017769332167, 0.0], [73.81046841022685, 18.640167133695552, 0.0], [73.81047794036816, 18.64015741775761, 0.0], [73.81048842362186, 18.640148639077484, 0.0], [73.81049975902859, 18.640140882198512, 0.0], [73.81051183742225, 18.640134221823555, 0.0], [73.81052454248155, 18.64012872209553, 0.0], [73.81053775184998, 18.64012443597975, 0.0], [73.8105513383144, 18.64012140475375, 0.0], [73.81056284013174, 18.6401199520145, 0.0], [73.8105636119382, 18.64000908315872, 0.0]]]}, "properties": {"site_id": "SEG114", "name": "SEG114", "n_member_parcels": 1}}]}