{"type": "FeatureCollection", "features": [{"type": "Feature", "geometry": {"type": "Polygon", "coordinates": [[[73.81694782100716, 18.642083496360897, 0.0], [73.81694321896812, 18.642084481073592, 0.0], [73.81693130442463, 18.642087831349386, 0.0], [73.81691964777961, 18.6420919238338, 0.0], [73.81690829985125, 18.64209674068523, 0.0], [73.8168973101119, 18.642102260904075, 0.0], [73.81688672647242, 18.642108460424573, 0.0], [73.81687659507313, 18.6421153122192, 0.0], [73.81686696008282, 18.64212278641709, 0.0], [73.81685786350614, 18.642130850433666, 0.0], [73.81684934500073, 18.642139469113044, 0.0], [73.81684144170363, 18.642148604881488, 0.0], [73.81683418807022, 18.642158217910662, 0.0], [73.81682761572348, 18.642168266291602, 0.0], [73.81682116732017, 18.642179749774485, 0.0], [73.8167940001703, 18.64222976063788, 0.0], [73.81679312528914, 18.642231297581883, 0.0], [73.8167637884509, 18.642280537345343, 0.0], [73.81676248017259, 18.642282602751244, 0.0], [73.81674593437909, 18.642307213974753, 0.0], [73.8167428585608, 18.64231178913365, 0.0], [73.81674102557074, 18.642314321489426, 0.0], [73.8167193657373, 18.642342167225, 0.0], [73.81671735620347, 18.642344574791938, 0.0], [73.81670896041769, 18.64235395908624, 0.0], [73.81670772109868, 18.642532885663403, 0.0], [73.8169446986743, 18.642534377088772, 0.0], [73.81694626305132, 18.64230847471493, 0.0], [73.81694782100716, 18.642083496360897, 0.0]]]}, "properties": {"site_id": "SEG77", "name": "SEG77", "n_member_parcels": 2}}]}