{"type": "FeatureCollection", "features": [{"type": "Feature", "geometry": {"type": "Polygon", "coordinates": [[[73.80986055883027, 18.638875075129775, 0.0], [73.80986213224182, 18.638649173249824, 0.0], [73.80962516066428, 18.638647673198882, 0.0], [73.80962500287967, 18.638670322692693, 0.0], [73.8096374631713, 18.638669952654098, 0.0], [73.809668570928, 18.6386687194302, 0.0], [73.8096997052768, 18.638668847805704, 0.0], [73.8097052746546, 18.638669168378208, 0.0], [73.8097108096751, 18.638669838806205, 0.0], [73.809716286181, 18.6386708561637, 0.0], [73.8097216802706, 18.6386722160105, 0.0], [73.8097269684019, 18.6386739124118, 0.0], [73.8097321274952, 18.6386759379637, 0.0], [73.8097371350343, 18.638678283825797, 0.0], [73.8097419691639, 18.63868093975981, 0.0], [73.809746608786, 18.6386838941742, 0.0], [73.8097510336514, 18.6386871341747, 0.0], [73.809755224448, 18.6386906456204, 0.0], [73.8097591628855, 18.6386944131861, 0.0], [73.8097628317748, 18.63869842042849, 0.0], [73.8097662151034, 18.638702649858292, 0.0], [73.809769298105, 18.638707083016502, 0.0], [73.8097720673241, 18.638711700555007, 0.0], [73.8097745106745, 18.6387164823209, 0.0], [73.8097766174974, 18.6387214074463, 0.0], [73.8097777037512, 18.638724532793603, 0.0], [73.8097785632584, 18.6387277216389, 0.0], [73.8097791919944, 18.638730959051397, 0.0], [73.80977958701551, 18.638734229873204, 0.0], [73.8097797464722, 18.6387375187898, 0.0], [73.8097796696177, 18.638740810402105, 0.0], [73.80977935681202, 18.6387440892982, 0.0], [73.8097788095196, 18.638747340125892, 0.0], [73.809778030303, 18.638750547664298, 0.0], [73.8097770228106, 18.638753696895296, 0.0], [73.8097757917596, 18.638756773073695, 0.0], [73.809774342914, 18.638759761796393, 0.0], [73.8097726830574, 18.6387626490698, 0.0], [73.8097708199616, 18.6387654213753, 0.0], [73.8097687623497, 18.6387680657325, 0.0], [73.8097665198559, 18.6387705697601, 0.0], [73.80976410297981, 18.638772921733995, 0.0], [73.809761523037, 18.6387751106593, 0.0], [73.80975420392862, 18.6387812899523, 0.0], [73.8097473112813, 18.638787899899697, 0.0], [73.8097408729256, 18.638794913812497, 0.0], [73.8097349148527, 18.6388023033396, 0.0], [73.8097257403079, 18.638815298466103, 0.0], [73.8097174321633, 18.638828812837, 0.0], [73.8097100226464, 18.6388427940301, 0.0], [73.8097035404987, 18.6388571878125, 0.0], [73.8096980108649, 18.63887193835059, 0.0], [73.80969737403544, 18.638874042175637, 0.0], [73.80986055883027, 18.638875075129775, 0.0]]]}, "properties": {"site_id": "SEG110", "name": "SEG110", "n_member_parcels": 1}}]}