{"type": "FeatureCollection", "features": [{"type": "Feature", "geometry": {"type": "Polygon", "coordinates": [[[73.81266497460663, 18.644540603724653, 0.0], [73.81266493884347, 18.64454574881637, 0.0], [73.81266514723477, 18.644547482606885, 0.0], [73.81266536339176, 18.644560848818692, 0.0], [73.8126647882097, 18.644567419828284, 0.0], [73.81266473784991, 18.644574664861526, 0.0], [73.812719154224, 18.6445750085617, 0.0], [73.8127553198539, 18.644659910988196, 0.0], [73.81278864352466, 18.64476729670322, 0.0], [73.81290038469321, 18.644768002389014, 0.0], [73.81290195461926, 18.64454210040042, 0.0], [73.81290352452281, 18.644316198406287, 0.0], [73.8126665448234, 18.644314701749945, 0.0], [73.81266497460663, 18.644540603724653, 0.0]]]}, "properties": {"site_id": "SEG80", "name": "SEG80", "n_member_parcels": 2}}]}