{"type": "FeatureCollection", "features": [{"type": "Feature", "geometry": {"type": "Polygon", "coordinates": [[[73.81398060165505, 18.645785008499, 0.0], [73.81392025071818, 18.645786233982378, 0.0], [73.81386013626768, 18.645791467396528, 0.0], [73.81384122019386, 18.645794393084508, 0.0], [73.8138404625186, 18.645903496432037, 0.0], [73.81383889371057, 18.64612939846502, 0.0], [73.81383732488005, 18.64635530049246, 0.0], [73.81383575602707, 18.64658120251434, 0.0], [73.81388167125121, 18.646581492261806, 0.0], [73.81393087663517, 18.64653362926053, 0.0], [73.81397693439246, 18.646482237795656, 0.0], [73.81404813901275, 18.646393646693934, 0.0], [73.81407429262659, 18.646358939516805, 0.0], [73.81407430751105, 18.646356795830567, 0.0], [73.81407590042886, 18.646356805880718, 0.0], [73.81409059266862, 18.64633730852163, 0.0], [73.81409121746243, 18.646336498560743, 0.0], [73.81409682729767, 18.64632939318058, 0.0], [73.81409885314399, 18.64632700118482, 0.0], [73.81410495687682, 18.646320275898283, 0.0], [73.81410714867305, 18.646318020761548, 0.0], [73.81411371804481, 18.646311706704502, 0.0], [73.81411606564491, 18.646309598865955, 0.0], [73.81412307024145, 18.646303725270784, 0.0], [73.81412556277529, 18.64630177449041, 0.0], [73.8141329701674, 18.646296368549795, 0.0], [73.81413559609645, 18.646294583858133, 0.0], [73.81414337199024, 18.646289670599945, 0.0], [73.81414611915731, 18.64628806025963, 0.0], [73.81415422755283, 18.646283662430847, 0.0], [73.81415708323881, 18.646282233897633, 0.0], [73.81416548659656, 18.64627837185886, 0.0], [73.81416843758007, 18.64627713174655, 0.0], [73.81417709699515, 18.646273823377637, 0.0], [73.8141801296154, 18.646272777427, 0.0], [73.81418900499743, 18.646270038044875, 0.0], [73.81419210521253, 18.64626919109894, 0.0], [73.81420115547127, 18.646267033385868, 0.0], [73.81420430893046, 18.646266389365138, 0.0], [73.81421349216599, 18.64626482331091, 0.0], [73.81421668426766, 18.64626438519748, 0.0], [73.81422595796442, 18.64626341805229, 0.0], [73.81422876405495, 18.646263205563827, 0.0], [73.81428751260765, 18.646260427131974, 0.0], [73.81428991665258, 18.646260371658183, 0.0], [73.81431196974843, 18.64626039621645, 0.0], [73.81434873742573, 18.64626043715509, 0.0], [73.8143511413284, 18.646260497982553, 0.0], [73.81440969987294, 18.646263398174717, 0.0], [73.81445166066752, 18.646265166260715, 0.0], [73.81449226623401, 18.646264313252825, 0.0], [73.81453272363068, 18.646260901247732, 0.0], [73.81454897589859, 18.646258489221687, 0.0], [73.8145498407312, 18.646133883525245, 0.0], [73.81478682311635, 18.646135377948077, 0.0], [73.81492319541242, 18.6461362377832, 0.0], [73.81498607923616, 18.646108798222127, 0.0], [73.81498667157707, 18.64610854441647, 0.0], [73.81500762487163, 18.646099730350834, 0.0], [73.81501064008748, 18.64609857798297, 0.0], [73.8150241034007, 18.64609393638787, 0.0], [73.81503217752268, 18.64609115276303, 0.0], [73.81503526846237, 18.64609019998013, 0.0], [73.81505728886765, 18.64608419848524, 0.0], [73.81506044101182, 18.646083449762852, 0.0], [73.81508284094797, 18.646078900184598, 0.0], [73.81508603949005, 18.646078359039755, 0.0], [73.81510871373504, 18.646075282749614, 0.0], [73.81511194364947, 18.64607495172439, 0.0], [73.81513478864828, 18.646073362967417, 0.0], [73.81517086387449, 18.646070856269, 0.0], [73.81520506877501, 18.646066221803192, 0.0], [73.81523886121468, 18.646059368836728, 0.0], [73.81526137840224, 18.646053242089707, 0.0], [73.81526235488255, 18.645912463748473, 0.0], [73.81526321605348, 18.645788308417497, 0.0], [73.81518955608979, 18.645686092870278, 0.0], [73.81502693998503, 18.645685067806713, 0.0], [73.81479477329607, 18.645683604081707, 0.0], [73.81478993863605, 18.645686393730028, 0.0], [73.81458233907422, 18.64580618059272, 0.0], [73.81458007351615, 18.64580740801583, 0.0], [73.81456466515776, 18.64581522970618, 0.0], [73.81456187022631, 18.64581653802921, 0.0], [73.81455201384982, 18.6458207746953, 0.0], [73.81455140859948, 18.645907981434032, 0.0], [73.81431442655004, 18.645906486731985, 0.0], [73.81407744452308, 18.645904991731317, 0.0], [73.81407822887074, 18.645792025047356, 0.0], [73.81404089536827, 18.645787796910547, 0.0], [73.81398060165505, 18.645785008499, 0.0]]]}, "properties": {"site_id": "SEG18", "name": "SEG18", "n_member_parcels": 14}}]}