{"type": "FeatureCollection", "features": [{"type": "Feature", "geometry": {"type": "Polygon", "coordinates": [[[73.8131377645069, 18.643490843035178, 0.0], [73.81313116691803, 18.643485671325003, 0.0], [73.81312422766443, 18.643480923296686, 0.0], [73.81311697663642, 18.643476619402122, 0.0], [73.81310944506637, 18.643472778179454, 0.0], [73.8131016653962, 18.643469416174483, 0.0], [73.81309367113586, 18.643466547868712, 0.0], [73.81308549671999, 18.64346418561705, 0.0], [73.81307717735899, 18.643462339594723, 0.0], [73.81306874888737, 18.643461017753154, 0.0], [73.81306024761012, 18.643460225786047, 0.0], [73.81305171014544, 18.643459967104768, 0.0], [73.81304317326753, 18.6434602428235, 0.0], [73.8130346344242, 18.6434610554972, 0.0], [73.81301309709244, 18.64346444222607, 0.0], [73.81299178429855, 18.643469109281572, 0.0], [73.81297081773998, 18.643475032420316, 0.0], [73.81295027879762, 18.64348218865188, 0.0], [73.81293024719258, 18.643490550199576, 0.0], [73.81291074331929, 18.643500112730106, 0.0], [73.81290918961933, 18.64350098977075, 0.0], [73.81290823409849, 18.643638492390558, 0.0], [73.81269496507494, 18.64363714554067, 0.0], [73.8126937715518, 18.643643553058613, 0.0], [73.81269279809288, 18.643651757790895, 0.0], [73.81269236939602, 18.64366000471375, 0.0], [73.81269248716815, 18.643668260992243, 0.0], [73.81269315094046, 18.643676493754022, 0.0], [73.81269435807033, 18.643684670220992, 0.0], [73.81269610375152, 18.64369275783888, 0.0], [73.81269839504095, 18.64370077340758, 0.0], [73.81274498420528, 18.643831756581754, 0.0], [73.81275398682965, 18.643854059972558, 0.0], [73.81275853650116, 18.64386345895039, 0.0], [73.81290666426243, 18.643864394401348, 0.0], [73.81290551079634, 18.644030378015504, 0.0], [73.81291267414987, 18.644033840447502, 0.0], [73.81291525049694, 18.644035182934406, 0.0], [73.8129297620794, 18.64404331101347, 0.0], [73.81293224628293, 18.644044802990376, 0.0], [73.8129462020679, 18.64405377200285, 0.0], [73.81294858459498, 18.644055407744517, 0.0], [73.81296193102656, 18.644065183271746, 0.0], [73.81296420273331, 18.64406695650036, 0.0], [73.81297688859394, 18.64407750102816, 0.0], [73.81297904076327, 18.644079404939433, 0.0], [73.81299101737046, 18.644090678003035, 0.0], [73.81299117852207, 18.644090839994544, 0.0], [73.81314207381256, 18.64409179274491, 0.0], [73.81314065649393, 18.644295782247184, 0.0], [73.81315442294488, 18.6443177826414, 0.0], [73.81329634518232, 18.64454459055917, 0.0], [73.813375914712, 18.644545092856188, 0.0], [73.81337504450187, 18.644670360754386, 0.0], [73.81343744276224, 18.64477007991112, 0.0], [73.81346286745564, 18.644746165959905, 0.0], [73.81346489507771, 18.644744367201376, 0.0], [73.81350237471754, 18.644713015264994, 0.0], [73.81350450910143, 18.644711332481357, 0.0], [73.81354384592186, 18.64468212104697, 0.0], [73.8135460797785, 18.644680559985, 0.0], [73.81358713944239, 18.644653588810513, 0.0], [73.8135894651431, 18.64465215480129, 0.0], [73.81361225304236, 18.644638987905044, 0.0], [73.8136128947921, 18.64454658863618, 0.0], [73.8138498748947, 18.644548084117574, 0.0], [73.81385913835152, 18.64454814256927, 0.0], [73.81393527085139, 18.644522634279106, 0.0], [73.81397853515806, 18.64450557034836, 0.0], [73.81402026632088, 18.64448593361069, 0.0], [73.81406054262338, 18.644463707123798, 0.0], [73.81408757122156, 18.644446418557358, 0.0], [73.8140884233572, 18.644323677209133, 0.0], [73.8140890379554, 18.644235150084974, 0.0], [73.81408131933162, 18.644228196586567, 0.0], [73.81399747188749, 18.644161499715295, 0.0], [73.81393555467018, 18.644118433405225, 0.0], [73.81389913548809, 18.644096570991607, 0.0], [73.81385301217355, 18.64409627996836, 0.0], [73.8136160326974, 18.64409478452579, 0.0], [73.81361699703135, 18.643955934505325, 0.0], [73.81360958363071, 18.643951500302055, 0.0], [73.81360692531038, 18.64394978807572, 0.0], [73.8135710870544, 18.643924980076182, 0.0], [73.81356855633798, 18.643923100341446, 0.0], [73.81353456076526, 18.643896038019832, 0.0], [73.81353216924776, 18.64389399938911, 0.0], [73.8135038525162, 18.643868164558736, 0.0], [73.81338062247586, 18.643867386740553, 0.0], [73.81338151869872, 18.643738367679255, 0.0], [73.81330893847502, 18.64366032991591, 0.0], [73.81328938768861, 18.643640898873, 0.0], [73.81314521288076, 18.643639988690026, 0.0], [73.81314619532587, 18.64349858333614, 0.0], [73.81314422078303, 18.643496620881912, 0.0], [73.8131377645069, 18.643490843035178, 0.0]]]}, "properties": {"site_id": "SEG14", "name": "SEG14", "n_member_parcels": 16}}]}