{"type": "FeatureCollection", "features": [{"type": "Feature", "geometry": {"type": "Polygon", "coordinates": [[[73.81359249621545, 18.647483314812558, 0.0], [73.81382948039032, 18.64748481054638, 0.0], [73.81383087620146, 18.647283836835676, 0.0], [73.81383086045807, 18.647283843894225, 0.0], [73.81381406203933, 18.64729071740629, 0.0], [73.81381104337065, 18.647291837741218, 0.0], [73.81379379165732, 18.64729760143991, 0.0], [73.81379069976082, 18.647298522609884, 0.0], [73.81377307533631, 18.647303149573016, 0.0], [73.81376992465297, 18.647303867275603, 0.0], [73.81375200984141, 18.647307335890243, 0.0], [73.81374881508978, 18.647307846772694, 0.0], [73.81373069357194, 18.647310140837128, 0.0], [73.81372746967318, 18.64731044251335, 0.0], [73.81370922609526, 18.647311551311674, 0.0], [73.81370598810973, 18.6473116423724, 0.0], [73.81368770768817, 18.647311560725605, 0.0], [73.81368447073967, 18.647311440745536, 0.0], [73.81366623886305, 18.647310169034935, 0.0], [73.81366301807213, 18.647309838574525, 0.0], [73.81364491990196, 18.647307382740433, 0.0], [73.8136417303121, 18.647306843343163, 0.0], [73.8136238503858, 18.6473032148567, 0.0], [73.81362070689693, 18.647302469042316, 0.0], [73.81360312873207, 18.647297684852482, 0.0], [73.81360004602668, 18.647296736104543, 0.0], [73.81359380722449, 18.647294588974045, 0.0], [73.81359249621545, 18.647483314812558, 0.0]]]}, "properties": {"site_id": "SEG118", "name": "SEG118", "n_member_parcels": 1}}]}