{"type": "FeatureCollection", "features": [{"type": "Feature", "geometry": {"type": "Polygon", "coordinates": [[[73.81176556171079, 18.637560150806394, 0.0], [73.81176418907535, 18.637757554713446, 0.0], [73.81163844104844, 18.637756760059403, 0.0], [73.81164428861074, 18.63798270899069, 0.0], [73.8117626182587, 18.637983456771313, 0.0], [73.81199958909974, 18.637984954077478, 0.0], [73.81199997008162, 18.637930153738232, 0.0], [73.8119437111516, 18.637912800384605, 0.0], [73.8119348932253, 18.637909610318008, 0.0], [73.81192645149663, 18.637905600684412, 0.0], [73.81191846953917, 18.637900811179424, 0.0], [73.81191102637462, 18.637895289219433, 0.0], [73.81190419569074, 18.63788908947212, 0.0], [73.81189804511159, 18.637882273315352, 0.0], [73.81189263552811, 18.637874908229435, 0.0], [73.81188802049537, 18.637867067129108, 0.0], [73.81188424570233, 18.637858827641672, 0.0], [73.81188134851948, 18.637850271338426, 0.0], [73.81187935762892, 18.637841482927225, 0.0], [73.81187829274045, 18.63783254941371, 0.0], [73.81187816439633, 18.637823559240065, 0.0], [73.81187897386705, 18.637814601409406, 0.0], [73.81188071313866, 18.63780576460464, 0.0], [73.81188336499217, 18.63779713631046, 0.0], [73.81189750175974, 18.637758397079885, 0.0], [73.81193927442698, 18.637643926592467, 0.0], [73.81194283261141, 18.63763555113405, 0.0], [73.81194725048533, 18.637627556326372, 0.0], [73.81195248387014, 18.637620022116945, 0.0], [73.81195848043231, 18.63761302384737, 0.0], [73.81196518020653, 18.63760663149985, 0.0], [73.81197251619545, 18.63760090899743, 0.0], [73.81198041503966, 18.637595913564702, 0.0], [73.81198879775124, 18.637591695155653, 0.0], [73.81199758050367, 18.637588295954078, 0.0], [73.81200235600247, 18.63758695912335, 0.0], [73.81200248366045, 18.63756859638568, 0.0], [73.81176556171079, 18.637560150806394, 0.0]]]}, "properties": {"site_id": "SEG67", "name": "SEG67", "n_member_parcels": 3}}]}