{"type": "FeatureCollection", "features": [{"type": "Feature", "geometry": {"type": "MultiPolygon", "coordinates": [[[[73.80938513952452, 18.64090619212935, 0.0], [73.8093917753252, 18.640912704537, 0.0], [73.80939769211531, 18.64091981882969, 0.0], [73.80940283016733, 18.640927463191744, 0.0], [73.80940713761481, 18.640935560456686, 0.0], [73.80941057097581, 18.64094402888619, 0.0], [73.80941309559188, 18.64095278299513, 0.0], [73.80941468597803, 18.640961734414585, 0.0], [73.80941532607982, 18.64097079278386, 0.0], [73.80941500943555, 18.6409798666626, 0.0], [73.80941373924146, 18.640988864453927, 0.0], [73.80941152831947, 18.64099769532897, 0.0], [73.80940839898774, 18.641006270143805, 0.0], [73.80940438283542, 18.64101450233935, 0.0], [73.80939952040374, 18.64102230881505, 0.0], [73.80939687808541, 18.641026102870782, 0.0], [73.80939310055253, 18.641031143091354, 0.0], [73.80939019176795, 18.64103475566423, 0.0], [73.80938606087581, 18.64103953733356, 0.0], [73.80938289929396, 18.64104295144735, 0.0], [73.80938014017555, 18.641045732694224, 0.0], [73.80939419552162, 18.641077271878313, 0.0], [73.80942145037692, 18.641128701130878, 0.0], [73.80942313863284, 18.641131423772325, 0.0], [73.80960784845233, 18.641132593358904, 0.0], [73.80960942240256, 18.640906691553923, 0.0], [73.80938398231348, 18.640905264054624, 0.0], [73.80938513952452, 18.64090619212935, 0.0]]], [[[73.80960784845233, 18.641132593358904, 0.0], [73.80960627447952, 18.641358495158336, 0.0], [73.8096061964748, 18.64136969057172, 0.0], [73.80960636288526, 18.641370257992357, 0.0], [73.80960667448069, 18.641371483967237, 0.0], [73.80960800709062, 18.64137766192806, 0.0], [73.8096082282154, 18.641378905636593, 0.0], [73.80960910550479, 18.641385157186797, 0.0], [73.80960923508128, 18.641386412569865, 0.0], [73.80960965276928, 18.64139270720572, 0.0], [73.80960969016648, 18.641393968147145, 0.0], [73.80960964622173, 18.64140027523348, 0.0], [73.80960959125733, 18.641401535590145, 0.0], [73.8096090858923, 18.641407824395895, 0.0], [73.80960893883399, 18.641409078027312, 0.0], [73.80960797451122, 18.641415317905164, 0.0], [73.80960773607545, 18.641416558704012, 0.0], [73.80960631749372, 18.64142271925407, 0.0], [73.8096059888422, 18.64142394117516, 0.0], [73.80960581454111, 18.64142450643365, 0.0], [73.80960481329915, 18.641568205714528, 0.0], [73.80960829992917, 18.64157578877943, 0.0], [73.80961118120986, 18.64158422047125, 0.0], [73.80961123152714, 18.64158443830457, 0.0], [73.80961318165319, 18.641592880779832, 0.0], [73.80961380438197, 18.641597864193717, 0.0], [73.80961423030905, 18.64159892210277, 0.0], [73.80961669621115, 18.6416074726466, 0.0], [73.80961827105527, 18.641616212423223, 0.0], [73.80961893967468, 18.641625057263816, 0.0], [73.80961869563009, 18.641633921987715, 0.0], [73.80961754127159, 18.641642721222794, 0.0], [73.8096154877162, 18.641651370227574, 0.0], [73.80961255474062, 18.641659785707375, 0.0], [73.80961186994126, 18.641661251689982, 0.0], [73.80961219328307, 18.641666124507584, 0.0], [73.80961223068017, 18.64166738544899, 0.0], [73.80961218673467, 18.64167369253209, 0.0], [73.80961213177007, 18.64167495288865, 0.0], [73.80961162640403, 18.641681241690765, 0.0], [73.8096114793454, 18.64168249532227, 0.0], [73.8096105150202, 18.6416887352029, 0.0], [73.80961027658395, 18.641689976001658, 0.0], [73.8096088579998, 18.6416961365499, 0.0], [73.80960852934768, 18.641697358470896, 0.0], [73.80960666341171, 18.64170340969012, 0.0], [73.80960624614475, 18.641704606780237, 0.0], [73.80960498218846, 18.641707850001925, 0.0], [73.80960735211715, 18.641720176507484, 0.0], [73.80961413955335, 18.641745648075002, 0.0], [73.80962271354119, 18.641770625301, 0.0], [73.80963303504167, 18.641794994456713, 0.0], [73.80964093632785, 18.64181053813942, 0.0], [73.8098401024277, 18.641811799064236, 0.0], [73.81002400817285, 18.641812963188073, 0.0], [73.81007732874104, 18.641777357928685, 0.0], [73.81007865180328, 18.641587397262086, 0.0], [73.81031562749665, 18.6415888969692, 0.0], [73.81035914483633, 18.641589172337408, 0.0], [73.81055351536695, 18.641459378914735, 0.0], [73.81055417595528, 18.64136449450599, 0.0], [73.81031720055252, 18.64136299511688, 0.0], [73.8100802251723, 18.641361495429233, 0.0], [73.80984324981463, 18.64135999544306, 0.0], [73.80984482347428, 18.641134093624142, 0.0], [73.80960784845233, 18.641132593358904, 0.0]]]]}, "properties": {"site_id": "EMU_Wetland_forest", "name": "EMU_Wetland_forest", "n_member_parcels": 8}}]}