{"type": "FeatureCollection", "features": [{"type": "Feature", "geometry": {"type": "Polygon", "coordinates": [[[73.8136066187117, 18.64545019679035, 0.0], [73.81360504963538, 18.645676098815013, 0.0], [73.81369360303948, 18.645676657705714, 0.0], [73.8137009004125, 18.645674588405235, 0.0], [73.81370349931345, 18.645673927347797, 0.0], [73.8137660128076, 18.645659824790418, 0.0], [73.81376909098391, 18.645659232282846, 0.0], [73.81382526581574, 18.645650254359705, 0.0], [73.81382556936944, 18.6456500438246, 0.0], [73.81382627394751, 18.645649480164035, 0.0], [73.81382693594769, 18.64564887140528, 0.0], [73.81382755219936, 18.64564822046387, 0.0], [73.8138281197513, 18.64564753045724, 0.0], [73.81382863588709, 18.645646804687978, 0.0], [73.81382909813527, 18.64564604663122, 0.0], [73.81382950428207, 18.645645259917377, 0.0], [73.81382985238277, 18.645644448313554, 0.0], [73.81383014077088, 18.645643615705254, 0.0], [73.81383036806565, 18.64564276607866, 0.0], [73.81383053317865, 18.645641903502376, 0.0], [73.8138306353191, 18.645641032107484, 0.0], [73.81383067399818, 18.6456401560649, 0.0], [73.8138306490306, 18.64563927956971, 0.0], [73.81383056053592, 18.645638406819053, 0.0], [73.81383040893792, 18.645637541991736, 0.0], [73.81383019496234, 18.645636689228205, 0.0], [73.81383017937566, 18.645636641866343, 0.0], [73.813724036758, 18.64546518879386, 0.0], [73.81371453851408, 18.645450877895488, 0.0], [73.8136066187117, 18.64545019679035, 0.0]]]}, "properties": {"site_id": "SEG122", "name": "SEG122", "n_member_parcels": 1}}]}