{"type": "FeatureCollection", "features": [{"type": "Feature", "geometry": {"type": "Polygon", "coordinates": [[[73.8115099349042, 18.64024097924563, 0.0], [73.81150905168958, 18.64036795099933, 0.0], [73.81152971106393, 18.640371746731425, 0.0], [73.81153648786787, 18.64037315607241, 0.0], [73.81159989285491, 18.64038789524895, 0.0], [73.81165337311859, 18.640398690506604, 0.0], [73.81170506048892, 18.640405827965044, 0.0], [73.81174575144233, 18.640408900575846, 0.0], [73.81175712425816, 18.64040975934589, 0.0], [73.81180934581826, 18.640410468141756, 0.0], [73.8118615058987, 18.640407951376282, 0.0], [73.81191338548739, 18.64040221961675, 0.0], [73.81196883006731, 18.640392591308, 0.0], [73.81198286705823, 18.640390060432285, 0.0], [73.81204665200212, 18.6403785599642, 0.0], [73.8120549560396, 18.640377303916505, 0.0], [73.81213398697228, 18.640367623761072, 0.0], [73.81214235437066, 18.640366837797078, 0.0], [73.81222004850584, 18.640361745435, 0.0], [73.81222085682077, 18.640245471747548, 0.0], [73.81222155448849, 18.64014511363794, 0.0], [73.81215585021911, 18.6400333516261, 0.0], [73.81212929792746, 18.64003955920068, 0.0], [73.81212693981348, 18.64003999481379, 0.0], [73.81212453444374, 18.640040590482332, 0.0], [73.81211991023214, 18.64004129338435, 0.0], [73.81211559915941, 18.640042089766215, 0.0], [73.81211335505742, 18.640042289801688, 0.0], [73.81211105474917, 18.64004263945929, 0.0], [73.81198519050966, 18.640055903862184, 0.0], [73.81192145772992, 18.640062620409317, 0.0], [73.81191971710885, 18.640062722170676, 0.0], [73.81191800002681, 18.640062944091575, 0.0], [73.81191284479945, 18.640063123944067, 0.0], [73.81190759685268, 18.640063430752758, 0.0], [73.81190582061086, 18.640063368999545, 0.0], [73.81190405575578, 18.64006343057066, 0.0], [73.81185260073391, 18.640062817075492, 0.0], [73.81184709073014, 18.640062649494627, 0.0], [73.81179569933198, 18.640060135025784, 0.0], [73.81179122719196, 18.640059848778204, 0.0], [73.81174820262218, 18.640056444768415, 0.0], [73.8115954319636, 18.64004435780798, 0.0], [73.81159481895243, 18.640044280282932, 0.0], [73.81159418274223, 18.64004425368175, 0.0], [73.8115868119239, 18.64004326766601, 0.0], [73.81158159955348, 18.64004260847816, 0.0], [73.8115811740101, 18.640042513465733, 0.0], [73.81158072865934, 18.64004245388986, 0.0], [73.81157270719787, 18.640040623053395, 0.0], [73.81156801361864, 18.64003957510272, 0.0], [73.81156777170776, 18.64003949656582, 0.0], [73.81156751618401, 18.64003943824449, 0.0], [73.8115114448479, 18.640023905959357, 0.0], [73.81147882770367, 18.64001487069614, 0.0], [73.81127453264511, 18.64001357918448, 0.0], [73.81127296097704, 18.640239481147955, 0.0], [73.8115099349042, 18.64024097924563, 0.0]]]}, "properties": {"site_id": "SEG36", "name": "SEG36", "n_member_parcels": 7}}]}