{"type": "FeatureCollection", "features": [{"type": "Feature", "geometry": {"type": "Polygon", "coordinates": [[[73.80677992601251, 18.638855550931794, 0.0], [73.80701689763218, 18.638857054584143, 0.0], [73.80701532044075, 18.639082956224506, 0.0], [73.80725229239614, 18.63908445959789, 0.0], [73.80725386927445, 18.638858557937994, 0.0], [73.80725539218504, 18.638640384551877, 0.0], [73.80724620584289, 18.63863259765822, 0.0], [73.807018474801, 18.63863115293822, 0.0], [73.80678150349442, 18.6386296493054, 0.0], [73.80654453221045, 18.63862814537409, 0.0], [73.80654295441543, 18.638854046980956, 0.0], [73.80677992601251, 18.638855550931794, 0.0]]]}, "properties": {"site_id": "SEG55", "name": "SEG55", "n_member_parcels": 4}}]}