{"type": "FeatureCollection", "features": [{"type": "Feature", "geometry": {"type": "Polygon", "coordinates": [[[73.8143267246224, 18.644052834243578, 0.0], [73.81431769412666, 18.644053025919757, 0.0], [73.81430868549035, 18.644052397380488, 0.0], [73.81429978051057, 18.644050954332844, 0.0], [73.81429106004319, 18.644048709879463, 0.0], [73.81428260326871, 18.64404568439966, 0.0], [73.81427448697339, 18.644041905364343, 0.0], [73.81421491669046, 18.644010733969463, 0.0], [73.81420676714393, 18.644005943766935, 0.0], [73.81419916605735, 18.644000394361147, 0.0], [73.81419219097097, 18.64399414236279, 0.0], [73.81418591303905, 18.64398725154983, 0.0], [73.81418039630401, 18.643979792216903, 0.0], [73.8141756970431, 18.643971840458235, 0.0], [73.81417186319435, 18.643963477391374, 0.0], [73.81416893386749, 18.643954788329673, 0.0], [73.81416693894506, 18.64394586191206, 0.0], [73.81416589877753, 18.643936789198726, 0.0], [73.81416582397569, 18.643927662742257, 0.0], [73.81416671530246, 18.64391857564345, 0.0], [73.81416856366506, 18.643909620601622, 0.0], [73.81416905809402, 18.643908071308438, 0.0], [73.81414539126104, 18.643872212595202, 0.0], [73.81409155996468, 18.643871873009992, 0.0], [73.81409026230521, 18.64405879245474, 0.0], [73.81413980203116, 18.644098089336374, 0.0], [73.8143269711933, 18.644099269957724, 0.0], [73.81450964769728, 18.644100422060703, 0.0], [73.81456419917954, 18.644064963898686, 0.0], [73.81456491533379, 18.643961765574094, 0.0], [73.81454852419134, 18.64394337580802, 0.0], [73.81454279283241, 18.643936257517634, 0.0], [73.81453783034362, 18.64392863245776, 0.0], [73.81453368566002, 18.64392057581919, 0.0], [73.81453039965223, 18.643912167048452, 0.0], [73.81452800472343, 18.643903489064495, 0.0], [73.81452652448992, 18.64389462744093, 0.0], [73.81452597354809, 18.64388566956224, 0.0], [73.81452635733066, 18.643876703762032, 0.0], [73.81452666604712, 18.643874617358534, 0.0], [73.81447533061039, 18.643874293622464, 0.0], [73.81443064108727, 18.64390020389318, 0.0], [73.81443273369632, 18.643906382132556, 0.0], [73.81443474269162, 18.64391531722044, 0.0], [73.81443579475216, 18.64392440003849, 0.0], [73.81443587911889, 18.643933537701862, 0.0], [73.81443499492896, 18.643942636764802, 0.0], [73.8144331512243, 18.64395160417633, 0.0], [73.81443036685933, 18.643960348231733, 0.0], [73.814426670308, 18.643968779510445, 0.0], [73.81442209937279, 18.643976811790484, 0.0], [73.81440103291249, 18.644009740932944, 0.0], [73.8143959678126, 18.644016870309695, 0.0], [73.81439021385921, 18.644023507758387, 0.0], [73.81438382329718, 18.64402959301202, 0.0], [73.81437685415183, 18.644035070817434, 0.0], [73.81436936970188, 18.644039891436975, 0.0], [73.81436143790495, 18.64404401110017, 0.0], [73.81435313078055, 18.64404739240109, 0.0], [73.81434452375609, 18.644050004638057, 0.0], [73.81433569498205, 18.644051824092344, 0.0], [73.8143272939489, 18.64405277013179, 0.0], [73.8143267246224, 18.644052834243578, 0.0]]]}, "properties": {"site_id": "SEG74", "name": "SEG74", "n_member_parcels": 2}}]}