{"type": "FeatureCollection", "features": [{"type": "Feature", "geometry": {"type": "Polygon", "coordinates": [[[73.81057511668595, 18.638356350593035, 0.0], [73.81055728481299, 18.638340399597933, 0.0], [73.81053795817212, 18.638325266093904, 0.0], [73.8105176273967, 18.638311379596093, 0.0], [73.8104963808721, 18.638298800473997, 0.0], [73.81047431096513, 18.63828758341362, 0.0], [73.81045151362186, 18.6382777771797, 0.0], [73.81042808795088, 18.63826942440341, 0.0], [73.81040403781765, 18.63826253332474, 0.0], [73.81033888957192, 18.63824796918455, 0.0], [73.81029474368039, 18.63823810018711, 0.0], [73.81018405995351, 18.63821965928142, 0.0], [73.81010216838165, 18.638210586119172, 0.0], [73.81007244979492, 18.638207293444598, 0.0], [73.80996038565745, 18.638201049191913, 0.0], [73.80994139507885, 18.63820111086654, 0.0], [73.80992255624754, 18.638202364058756, 0.0], [73.8099038458017, 18.638204803612624, 0.0], [73.80988534586096, 18.638208418821133, 0.0], [73.80986713762114, 18.638213193816963, 0.0], [73.8098651642273, 18.638213848106137, 0.0], [73.8098493009985, 18.638219107642726, 0.0], [73.80983191427727, 18.638226134342794, 0.0], [73.80981505376796, 18.638234243076937, 0.0], [73.8097987934709, 18.63824339825622, 0.0], [73.80978202862742, 18.638254326350626, 0.0], [73.80973707358686, 18.63828401928622, 0.0], [73.80973493405816, 18.63828535251349, 0.0], [73.80968824081107, 18.63831276486539, 0.0], [73.80968602899495, 18.63831398619585, 0.0], [73.80963785338315, 18.63833895895211, 0.0], [73.80963557571293, 18.638340064833358, 0.0], [73.80962727733252, 18.638343828850477, 0.0], [73.80962673436639, 18.63842177133286, 0.0], [73.80962516066428, 18.638647673198882, 0.0], [73.80986213224182, 18.638649173249824, 0.0], [73.81001301498885, 18.638650128195277, 0.0], [73.8100293112189, 18.638635919155902, 0.0], [73.8100467010215, 18.6386224980948, 0.0], [73.810064907443, 18.6386101001666, 0.0], [73.8100838643364, 18.6385987704038, 0.0], [73.8100936665749, 18.63859371747789, 0.0], [73.81009951814974, 18.638591176553746, 0.0], [73.8101038076435, 18.638589313930492, 0.0], [73.8101142402718, 18.63858558028759, 0.0], [73.8101249158301, 18.63858253395309, 0.0], [73.8101357845564, 18.6385801891267, 0.0], [73.8101467957882, 18.638578556738302, 0.0], [73.810157898199, 18.638577644397188, 0.0], [73.8101690400371, 18.6385774563559, 0.0], [73.810180169367, 18.638577993490895, 0.0], [73.8101912343117, 18.63857925329859, 0.0], [73.8102021832982, 18.6385812299136, 0.0], [73.8102991111699, 18.638599311417195, 0.0], [73.81033640933236, 18.638604218019665, 0.0], [73.8103969502861, 18.638612182213297, 0.0], [73.8104143344131, 18.638614544202998, 0.0], [73.81041482546146, 18.638614642303637, 0.0], [73.81041863627262, 18.63860719539923, 0.0], [73.81042595378449, 18.63859586957789, 0.0], [73.81043440058241, 18.638585282030178, 0.0], [73.81044389531904, 18.638575534719802, 0.0], [73.81045434655486, 18.638566721518547, 0.0], [73.81046565363881, 18.638558927302213, 0.0], [73.81047770767762, 18.638552227133236, 0.0], [73.81049039258447, 18.63854668553777, 0.0], [73.810503586197, 18.63854235588432, 0.0], [73.81051716145377, 18.63853927986972, 0.0], [73.81053098761794, 18.638537487117638, 0.0], [73.81054493153627, 18.638536994893226, 0.0], [73.81057385695387, 18.638537327843878, 0.0], [73.81057461955945, 18.638427769667757, 0.0], [73.81057511668595, 18.638356350593035, 0.0]]]}, "properties": {"site_id": "SEG33", "name": "SEG33", "n_member_parcels": 8}}]}