{"type": "FeatureCollection", "features": [{"type": "Feature", "geometry": {"type": "Polygon", "coordinates": [[[73.81506454651156, 18.640263414888445, 0.0], [73.81483741691083, 18.640261983324223, 0.0], [73.81490214256951, 18.64036030839663, 0.0], [73.81499651170681, 18.640488898241955, 0.0], [73.81505967614109, 18.640489296336238, 0.0], [73.81506386250868, 18.64036204281035, 0.0], [73.81506454651156, 18.640263414888445, 0.0]]]}, "properties": {"site_id": "SEG131", "name": "SEG131", "n_member_parcels": 1}}]}