{"type": "FeatureCollection", "features": [{"type": "Feature", "geometry": {"type": "Polygon", "coordinates": [[[73.8146989303572, 18.64500526373052, 0.0], [73.81459088234395, 18.645004582396076, 0.0], [73.81455752377067, 18.64502686241924, 0.0], [73.81431942872216, 18.645185884550674, 0.0], [73.81431913095979, 18.64522878048326, 0.0], [73.81425580096641, 18.645228381009343, 0.0], [73.81422430227649, 18.645249418710865, 0.0], [73.81422295445043, 18.64525022793897, 0.0], [73.81422166422217, 18.645251118400164, 0.0], [73.81421902083784, 18.64525258966043, 0.0], [73.81421643078018, 18.645254144718116, 0.0], [73.81421500623595, 18.645254824115682, 0.0], [73.81421363065941, 18.64525558973682, 0.0], [73.81421084872234, 18.645256806928444, 0.0], [73.81420811123877, 18.64525811249654, 0.0], [73.8142066236955, 18.645258655520593, 0.0], [73.81420517601826, 18.64525928892831, 0.0], [73.81419440350588, 18.645263404975854, 0.0], [73.81418828983372, 18.645265512005793, 0.0], [73.81417724670622, 18.64526891455019, 0.0], [73.81417099591218, 18.645270617187794, 0.0], [73.81415973410738, 18.645273290226136, 0.0], [73.81415337559264, 18.64527458046288, 0.0], [73.81414194807716, 18.645276511423457, 0.0], [73.81413551174509, 18.645277383191573, 0.0], [73.81412397226462, 18.64527856299265, 0.0], [73.81411748838741, 18.64527901219188, 0.0], [73.81410589121435, 18.64527943528465, 0.0], [73.8140993902867, 18.645279459802346, 0.0], [73.8140877899648, 18.645279124196936, 0.0], [73.81408179253043, 18.64527875414932, 0.0], [73.81408058144521, 18.645453187609874, 0.0], [73.81407924045267, 18.64564632945835, 0.0], [73.81412924264094, 18.64565247959539, 0.0], [73.81413219314634, 18.645652933061037, 0.0], [73.81419221389619, 18.645664018777772, 0.0], [73.814192656636, 18.64566410263796, 0.0], [73.81427626569301, 18.645680334047967, 0.0], [73.81431599470909, 18.645680584654627, 0.0], [73.81450494324064, 18.645681776408114, 0.0], [73.81450604314836, 18.64568121806598, 0.0], [73.81455317022994, 18.645654157768284, 0.0], [73.81471085806483, 18.645563613503292, 0.0], [73.81479114010477, 18.64551324407795, 0.0], [73.81479152571403, 18.645457671599583, 0.0], [73.81479309320166, 18.645231769472318, 0.0], [73.81479375185145, 18.64513684565704, 0.0], [73.8146989303572, 18.64500526373052, 0.0]]]}, "properties": {"site_id": "SEG34", "name": "SEG34", "n_member_parcels": 8}}]}