{"type": "FeatureCollection", "features": [{"type": "Feature", "geometry": {"type": "MultiPolygon", "coordinates": [[[[73.80725229239614, 18.63908445959789, 0.0], [73.80725386927445, 18.638858557937994, 0.0], [73.80725539218504, 18.638640384551877, 0.0], [73.80724620584289, 18.63863259765822, 0.0], [73.807018474801, 18.63863115293822, 0.0], [73.80678150349442, 18.6386296493054, 0.0], [73.80654453221045, 18.63862814537409, 0.0], [73.80654295441543, 18.638854046980956, 0.0], [73.80677992601251, 18.638855550931794, 0.0], [73.80701689763218, 18.638857054584143, 0.0], [73.80701532044075, 18.639082956224506, 0.0], [73.80725229239614, 18.63908445959789, 0.0]]], [[[73.80724913857169, 18.639536262901032, 0.0], [73.80725071549521, 18.63931036125224, 0.0], [73.8070137432267, 18.639308857859334, 0.0], [73.80701532044075, 18.639082956224506, 0.0], [73.80677834850796, 18.639081452552634, 0.0], [73.80654137659779, 18.63907994858226, 0.0], [73.80653979875753, 18.639305850178026, 0.0], [73.80677677098082, 18.639307354167933, 0.0], [73.80677519343105, 18.63953325577767, 0.0], [73.80701216599007, 18.639534759488605, 0.0], [73.80724913857169, 18.639536262901032, 0.0]]], [[[73.80724756162557, 18.63976216454428, 0.0], [73.80748453454291, 18.639763667677723, 0.0], [73.80772150748287, 18.639765170512653, 0.0], [73.80771993114038, 18.639991072189392, 0.0], [73.80795690441605, 18.639992574745325, 0.0], [73.8079584804454, 18.639766673049078, 0.0], [73.80795858486707, 18.639751705553874, 0.0], [73.80793985200519, 18.639686772001976, 0.0], [73.80790209542552, 18.639579700570202, 0.0], [73.80790205676743, 18.63957959047404, 0.0], [73.80788832535679, 18.639540316570265, 0.0], [73.80772308380274, 18.639539268830372, 0.0], [73.80748611117592, 18.639537766014957, 0.0], [73.80724913857169, 18.639536262901032, 0.0], [73.80724756162557, 18.63976216454428, 0.0]]], [[[73.80677203826372, 18.63998505898051, 0.0], [73.80700901144897, 18.6399865627305, 0.0], [73.80701058873082, 18.639760661112327, 0.0], [73.80677361585869, 18.639759157381864, 0.0], [73.80677203826372, 18.63998505898051, 0.0]]], [[[73.80700901144897, 18.6399865627305, 0.0], [73.80700743414452, 18.640212464343122, 0.0], [73.80724440766552, 18.64021396781412, 0.0], [73.80724283065159, 18.64043986944072, 0.0], [73.80747980450832, 18.640441372632722, 0.0], [73.80771677838767, 18.640442875526208, 0.0], [73.8079537522896, 18.64044437812117, 0.0], [73.80795532836413, 18.640218476436022, 0.0], [73.80771835477533, 18.640216973860568, 0.0], [73.80748138120913, 18.640215470986607, 0.0], [73.80748295788732, 18.63998956933494, 0.0], [73.80724598465684, 18.639988066181978, 0.0], [73.80700901144897, 18.6399865627305, 0.0]]], [[[73.80700270209549, 18.64089016914769, 0.0], [73.80723967655592, 18.640891672677267, 0.0], [73.80747665103894, 18.640893175908307, 0.0], [73.8075758660285, 18.640893805182948, 0.0], [73.80761921169223, 18.640878705612995, 0.0], [73.8076269967261, 18.640876350798695, 0.0], [73.80765859643708, 18.640868202966896, 0.0], [73.80765859671968, 18.640868202886207, 0.0], [73.8077139098337, 18.64085394066138, 0.0], [73.80771520197742, 18.640668777186292, 0.0], [73.80747822778493, 18.64066727427329, 0.0], [73.80724125361506, 18.640665771061766, 0.0], [73.80724283065159, 18.64043986944072, 0.0], [73.80700585681745, 18.640438365950192, 0.0], [73.80700427946778, 18.640664267551713, 0.0], [73.80700270209549, 18.64089016914769, 0.0]]], [[[73.80771992927345, 18.639170564044896, 0.0], [73.80771566177923, 18.639162684470968, 0.0], [73.80771222501637, 18.639154444092494, 0.0], [73.80770965208268, 18.639145922268867, 0.0], [73.8077079677568, 18.63913720106991, 0.0], [73.80770718825954, 18.639128364485597, 0.0], [73.80770732109778, 18.639119497617042, 0.0], [73.80770836499205, 18.639110685857027, 0.0], [73.80771030988896, 18.639102014067593, 0.0], [73.80771313705797, 18.639093565762792, 0.0], [73.80771592499116, 18.639087400064923, 0.0], [73.80748926437413, 18.63908596267277, 0.0], [73.80748768778632, 18.639311864346638, 0.0], [73.80772466010002, 18.639313367142538, 0.0], [73.80772559894498, 18.6391788182279, 0.0], [73.80772498640083, 18.639178006929615, 0.0], [73.80771992927345, 18.639170564044896, 0.0]]], [[[73.80795217619249, 18.640670279800766, 0.0], [73.80807364288114, 18.64067104988526, 0.0], [73.80807665700682, 18.640663043368004, 0.0], [73.80808049260858, 18.640655269810626, 0.0], [73.80808508523482, 18.640647878590865, 0.0], [73.80809039337825, 18.640640936508984, 0.0], [73.80809636906488, 18.64063450630603, 0.0], [73.80810295828772, 18.64062864609686, 0.0], [73.80811010149469, 18.640623408844768, 0.0], [73.80811773412698, 18.640618841882915, 0.0], [73.80812578720248, 18.640614986486533, 0.0], [73.80813418793919, 18.640611877499854, 0.0], [73.80818969174041, 18.6405941811687, 0.0], [73.80819009925234, 18.640535760974927, 0.0], [73.80817109186475, 18.64049000403573, 0.0], [73.80817047591545, 18.64048843708043, 0.0], [73.80815459892321, 18.64044565140791, 0.0], [73.8079537522896, 18.64044437812117, 0.0], [73.80795217619249, 18.640670279800766, 0.0]]], [[[73.80841194443683, 18.642706399351916, 0.0], [73.80864892153812, 18.642707901246332, 0.0], [73.80865049689899, 18.64248199955817, 0.0], [73.80841352011088, 18.64248049768325, 0.0], [73.80841194443683, 18.642706399351916, 0.0]]], [[[73.80769943663223, 18.642927793481892, 0.0], [73.80793641397896, 18.642929296291506, 0.0], [73.80793799030197, 18.642703394667404, 0.0], [73.80776144107756, 18.642702275108693, 0.0], [73.8077008570761, 18.64272427137603, 0.0], [73.80769943663223, 18.642927793481892, 0.0]]], [[[73.80817181531587, 18.643156700440603, 0.0], [73.80840879302097, 18.643158202672595, 0.0], [73.80841036874018, 18.64293230101503, 0.0], [73.80817339134829, 18.642930798802546, 0.0], [73.80817181531587, 18.643156700440603, 0.0]]], [[[73.80774163209192, 18.643605795878074, 0.0], [73.8079316848744, 18.643607001130494, 0.0], [73.80816866318331, 18.64360850370007, 0.0], [73.80816708708313, 18.643834405321474, 0.0], [73.80840406572783, 18.643835907611983, 0.0], [73.8086410443951, 18.64383740960391, 0.0], [73.80864253325794, 18.643623926864464, 0.0], [73.80863144136927, 18.643611437100706, 0.0], [73.8084056415148, 18.64361000597107, 0.0], [73.80840721727917, 18.64338410432461, 0.0], [73.80817023926089, 18.643382602073114, 0.0], [73.80793326126519, 18.643381099523047, 0.0], [73.80769628329207, 18.643379596674407, 0.0], [73.80769613561513, 18.643400755162325, 0.0], [73.80773307791624, 18.64354416174043, 0.0], [73.80774163209192, 18.643605795878074, 0.0]]], [[[73.8081655109604, 18.64406030693733, 0.0], [73.80816708708313, 18.643834405321474, 0.0], [73.80793010846104, 18.643832902732395, 0.0], [73.80792853202507, 18.644058804328736, 0.0], [73.8081655109604, 18.64406030693733, 0.0]]]]}, "properties": {"site_id": "EMU_Trail_plots", "name": "EMU_Trail_plots", "n_member_parcels": 33}}]}