{"type": "FeatureCollection", "features": [{"type": "Feature", "geometry": {"type": "Polygon", "coordinates": [[[73.8136395641206, 18.640706252990405, 0.0], [73.81363799551643, 18.64093215513161, 0.0], [73.81363647562688, 18.641151038555027, 0.0], [73.81363769920063, 18.641151050293672, 0.0], [73.81364079922606, 18.64115117686065, 0.0], [73.81368924552936, 18.641154672228627, 0.0], [73.81368944197176, 18.641154686793335, 0.0], [73.81374250216348, 18.641158726583363, 0.0], [73.81387340229453, 18.641159552457406, 0.0], [73.81408146168371, 18.641160864956472, 0.0], [73.81411039661205, 18.641158325841097, 0.0], [73.81418303727402, 18.641151951413587, 0.0], [73.81430497974627, 18.64113450639903, 0.0], [73.81434760678228, 18.64112599709112, 0.0], [73.81458492126333, 18.641078623628715, 0.0], [73.81458589601768, 18.640938134023333, 0.0], [73.81482287119915, 18.64093962799994, 0.0], [73.81482336929028, 18.64086782417671, 0.0], [73.81470411562255, 18.640720922440984, 0.0], [73.81469988795233, 18.640715435231893, 0.0], [73.81469805687762, 18.640712929054708, 0.0], [73.81458746336926, 18.640712231804496, 0.0], [73.81458849890902, 18.640562977786693, 0.0], [73.81457564554029, 18.64054538544528, 0.0], [73.81457171224365, 18.640539702792, 0.0], [73.8145365387912, 18.640485998619596, 0.0], [73.81435205616565, 18.64048483534378, 0.0], [73.81435362378544, 18.640258933133243, 0.0], [73.81411664958833, 18.6402574386178, 0.0], [73.81387967541369, 18.64025594380384, 0.0], [73.81387810716761, 18.640481845975554, 0.0], [73.8136411327023, 18.64048035084366, 0.0], [73.8136395641206, 18.640706252990405, 0.0]]]}, "properties": {"site_id": "SEG15", "name": "SEG15", "n_member_parcels": 15}}]}