{"type": "FeatureCollection", "features": [{"type": "Feature", "geometry": {"type": "Polygon", "coordinates": [[[73.81408646401701, 18.64460589852249, 0.0], [73.8140840083351, 18.644607143918726, 0.0], [73.81403757243189, 18.644628882286643, 0.0], [73.81403477054404, 18.644630088076543, 0.0], [73.81398695398427, 18.64464891117061, 0.0], [73.81398457960321, 18.64464977556801, 0.0], [73.81388821990654, 18.644682061004943, 0.0], [73.81388631084903, 18.644682657614066, 0.0], [73.81384886493048, 18.64469352779148, 0.0], [73.81384830622154, 18.644773986183864, 0.0], [73.81402586834362, 18.644775106520754, 0.0], [73.81408556607904, 18.644735234879686, 0.0], [73.81408646401701, 18.64460589852249, 0.0]]]}, "properties": {"site_id": "SEG102", "name": "SEG102", "n_member_parcels": 1}}]}