{"type": "FeatureCollection", "features": [{"type": "Feature", "geometry": {"type": "Polygon", "coordinates": [[[73.808348261098, 18.63508993310581, 0.0], [73.80822795364325, 18.63510807609464, 0.0], [73.80799072713076, 18.635143850845342, 0.0], [73.80798999628891, 18.635248637958806, 0.0], [73.80775302958797, 18.635247135812634, 0.0], [73.80754379804893, 18.635245809233115, 0.0], [73.8075849588741, 18.635471981988736, 0.0], [73.80758865705494, 18.63549230293036, 0.0], [73.80768129903679, 18.635698504591854, 0.0], [73.8077498777841, 18.63569893938251, 0.0], [73.80774928578234, 18.635783799977798, 0.0], [73.80786318090553, 18.635925569447167, 0.0], [73.80798526948834, 18.63592634336384, 0.0], [73.80798422400314, 18.636076235944405, 0.0], [73.80802168014924, 18.63612285882795, 0.0], [73.80805232087569, 18.636152680149852, 0.0], [73.80822066181868, 18.6361537470802, 0.0], [73.80821953436255, 18.636315421695542, 0.0], [73.8082297474507, 18.636325361631506, 0.0], [73.80827175738825, 18.636379982681447, 0.0], [73.80845605477512, 18.63638115053157, 0.0], [73.80869302310903, 18.636382651879952, 0.0], [73.80892999146552, 18.636384152929878, 0.0], [73.80892939563657, 18.63646964339885, 0.0], [73.80909875022408, 18.636474570451234, 0.0], [73.80910990292644, 18.636611204201294, 0.0], [73.80916538571935, 18.636611555558346, 0.0], [73.80916381157155, 18.636837457429785, 0.0], [73.8091622374012, 18.637063359295674, 0.0], [73.80916134384525, 18.63719158790941, 0.0], [73.80917291919214, 18.637289338770252, 0.0], [73.80919969106827, 18.637515420134054, 0.0], [73.80938937483221, 18.63751662123988, 0.0], [73.80939609644547, 18.6375112832807, 0.0], [73.80945511546582, 18.637464413387768, 0.0], [73.80945563050928, 18.637464010180214, 0.0], [73.80947804856275, 18.637446710104104, 0.0], [73.80948047799593, 18.637444955505057, 0.0], [73.80950401614268, 18.637429064832673, 0.0], [73.80950655885535, 18.6374274627214, 0.0], [73.80953111975039, 18.6374130471705, 0.0], [73.80953376522669, 18.6374116041728, 0.0], [73.80955924729595, 18.637398723360224, 0.0], [73.8095619845952, 18.637397445443753, 0.0], [73.80958828245453, 18.63738615263954, 0.0], [73.80959110025658, 18.63738504508917, 0.0], [73.80961810514835, 18.637375386996002, 0.0], [73.80962099179963, 18.637374454392216, 0.0], [73.80963405632755, 18.63737067544502, 0.0], [73.8096346025386, 18.637292261919516, 0.0], [73.80963617610539, 18.637066360020196, 0.0], [73.8096377496496, 18.63684045811533, 0.0], [73.80963932317127, 18.636614556204915, 0.0], [73.80975406020661, 18.63661528246148, 0.0], [73.80977165037365, 18.636473188120146, 0.0], [73.80978570519964, 18.636389570868232, 0.0], [73.80982290149709, 18.63616827614086, 0.0], [73.80983193616316, 18.63616395157402, 0.0], [73.809879599252, 18.636141136971677, 0.0], [73.81001896975597, 18.636074425228646, 0.0], [73.8101173194062, 18.636034624263754, 0.0], [73.81011797926472, 18.63593984977626, 0.0], [73.81035494713043, 18.635941348996532, 0.0], [73.81039272917903, 18.63594158800393, 0.0], [73.81043306310207, 18.63593268927398, 0.0], [73.81053454025268, 18.63591468719104, 0.0], [73.81059219197536, 18.6359030530313, 0.0], [73.81082950348569, 18.63585516318981, 0.0], [73.81083045479569, 18.635718444511767, 0.0], [73.81106742241597, 18.63571994281724, 0.0], [73.8113043900588, 18.635721440824266, 0.0], [73.81154135772411, 18.635722938532858, 0.0], [73.81177832541196, 18.635724435943008, 0.0], [73.81194748885083, 18.635725504712212, 0.0], [73.8120153129336, 18.63572308300205, 0.0], [73.81208839735105, 18.63572047344013, 0.0], [73.81225230123606, 18.635721619512154, 0.0], [73.81237423659584, 18.635722472033233, 0.0], [73.81248945435172, 18.635696438233975, 0.0], [73.8126214947046, 18.635666603220283, 0.0], [73.81272667165389, 18.635662009755904, 0.0], [73.81291527360519, 18.63565377266636, 0.0], [73.81296375152014, 18.63564735725192, 0.0], [73.8131517776872, 18.63562247433789, 0.0], [73.81320093961426, 18.635617115897965, 0.0], [73.81320170072493, 18.63550751190666, 0.0], [73.81343866825725, 18.635509007208288, 0.0], [73.81367563581203, 18.63551050221149, 0.0], [73.8136772038767, 18.635284599937133, 0.0], [73.81367877191889, 18.635058697657232, 0.0], [73.81346720990717, 18.635057362980355, 0.0], [73.81344177672962, 18.635061273306068, 0.0], [73.81320454616164, 18.63509774709346, 0.0], [73.81303694796236, 18.635123514833577, 0.0], [73.81296733764408, 18.635131033740702, 0.0], [73.81273018233661, 18.635156649696338, 0.0], [73.81272933504461, 18.635278618211427, 0.0], [73.81249236789282, 18.635277122033916, 0.0], [73.81249302697618, 18.6351822653488, 0.0], [73.81239357271632, 18.635193007521977, 0.0], [73.81234390479621, 18.635104290538173, 0.0], [73.81233890008485, 18.635050240816405, 0.0], [73.81225697068392, 18.63504972339464, 0.0], [73.81225854058181, 18.63482382122577, 0.0], [73.8122600581609, 18.6346054444448, 0.0], [73.81202283706874, 18.63464062227486, 0.0], [73.81178561589685, 18.634675799800025, 0.0], [73.8116200372983, 18.634700353261053, 0.0], [73.811548389787, 18.634711675695407, 0.0], [73.81154764120717, 18.634819330123996, 0.0], [73.81131067479399, 18.63481783249322, 0.0], [73.81107370840334, 18.63481633456402, 0.0], [73.81085456286587, 18.63481494901956, 0.0], [73.81083672450423, 18.634817355976615, 0.0], [73.81067393154441, 18.634839321794285, 0.0], [73.81059953448568, 18.63484799792364, 0.0], [73.81036773783053, 18.634875029680405, 0.0], [73.8103623640154, 18.63487582149446, 0.0], [73.8101251438462, 18.6349107749473, 0.0], [73.81012427035084, 18.635036241856717, 0.0], [73.80988730375982, 18.63503474241591, 0.0], [73.80965033719137, 18.635033242676677, 0.0], [73.80941337064546, 18.635031742639015, 0.0], [73.80917640412211, 18.635030242302918, 0.0], [73.80907103734017, 18.635029575085003, 0.0], [73.80893938162946, 18.635036776182623, 0.0], [73.80884515649522, 18.63504192990409, 0.0], [73.80870227253955, 18.635055733525565, 0.0], [73.80846513586431, 18.63507864239401, 0.0], [73.808348261098, 18.63508993310581, 0.0]]]}, "properties": {"site_id": "SEG03", "name": "SEG03", "n_member_parcels": 126}}]}