{"type": "FeatureCollection", "features": [{"type": "Feature", "geometry": {"type": "Polygon", "coordinates": [[[73.80725386927445, 18.638858557937994, 0.0], [73.80725229239614, 18.63908445959789, 0.0], [73.80701532044075, 18.639082956224506, 0.0], [73.8070137432267, 18.639308857859334, 0.0], [73.80725071549521, 18.63931036125224, 0.0], [73.80724913857169, 18.639536262901032, 0.0], [73.80748611117592, 18.639537766014957, 0.0], [73.80772308380274, 18.639539268830372, 0.0], [73.80788832535679, 18.639540316570265, 0.0], [73.80788599835407, 18.639533660990065, 0.0], [73.80788516779788, 18.63953101929238, 0.0], [73.80787207879003, 18.6394842414148, 0.0], [73.80787141884986, 18.639481556333298, 0.0], [73.80786134801055, 18.639434104342442, 0.0], [73.80786086114497, 18.639431385880883, 0.0], [73.80785384599228, 18.639383436568092, 0.0], [73.80785352322073, 18.639380559769034, 0.0], [73.80785248289823, 18.639367277770777, 0.0], [73.8078523526578, 18.639364251703988, 0.0], [73.8078522481037, 18.63935093310588, 0.0], [73.8078523308215, 18.639347905520193, 0.0], [73.80785268414056, 18.639342257338072, 0.0], [73.80784900574774, 18.639339294790506, 0.0], [73.80784252258847, 18.639332935429035, 0.0], [73.80783672452137, 18.63932600091564, 0.0], [73.80782767897718, 18.639314020359247, 0.0], [73.80772466010002, 18.639313367142538, 0.0], [73.80748768778632, 18.639311864346638, 0.0], [73.80748926437413, 18.63908596267277, 0.0], [73.80771592499116, 18.639087400064923, 0.0], [73.80771681927176, 18.639085422304355, 0.0], [73.80772132106851, 18.639077662118204, 0.0], [73.80772635335873, 18.63907069991454, 0.0], [73.80772669364252, 18.63902193212088, 0.0], [73.80755699660098, 18.63889604189001, 0.0], [73.80751472780207, 18.638860212485525, 0.0], [73.80749084093935, 18.638860060993355, 0.0], [73.80749098036571, 18.63884008281622, 0.0], [73.80725539218504, 18.638640384551877, 0.0], [73.80725386927445, 18.638858557937994, 0.0]]]}, "properties": {"site_id": "SEG31", "name": "SEG31", "n_member_parcels": 8}}]}