{"type": "FeatureCollection", "features": [{"type": "Feature", "geometry": {"type": "Polygon", "coordinates": [[[73.81288182893654, 18.642695302937984, 0.0], [73.81287521225046, 18.64266085549507, 0.0], [73.81286631358414, 18.642626894213024, 0.0], [73.81282662123823, 18.642508417341617, 0.0], [73.81267910574753, 18.64250748575248, 0.0], [73.81267863960623, 18.64257455602555, 0.0], [73.8126815519784, 18.6425838715907, 0.0], [73.8126978143404, 18.642653082450103, 0.0], [73.8127090107621, 18.642723200559097, 0.0], [73.81270990407498, 18.642733592196425, 0.0], [73.8127150874992, 18.642793889380297, 0.0], [73.8127160153795, 18.64286480963651, 0.0], [73.812711789943, 18.6429356209395, 0.0], [73.81267618046861, 18.642928381833656, 0.0], [73.81267596565151, 18.642959289785143, 0.0], [73.81243898785384, 18.64295779294683, 0.0], [73.81226762759215, 18.64295671038675, 0.0], [73.81220088880721, 18.64311755934323, 0.0], [73.8122004393705, 18.643182197779087, 0.0], [73.81219886863984, 18.643408099742665, 0.0], [73.8124358470414, 18.643409596918424, 0.0], [73.81243741745888, 18.643183694935402, 0.0], [73.81267439556974, 18.643185191793155, 0.0], [73.81288882848258, 18.643186545988097, 0.0], [73.81287098949642, 18.643143857283754, 0.0], [73.81287025282577, 18.6431419735744, 0.0], [73.81286406973555, 18.64312501988898, 0.0], [73.81286313538564, 18.643122154529827, 0.0], [73.81285814641818, 18.643104847007383, 0.0], [73.81285741364408, 18.64310192884796, 0.0], [73.81285364080318, 18.643084343824988, 0.0], [73.81285311283673, 18.643081385735847, 0.0], [73.81285057276241, 18.6430636007727, 0.0], [73.81285025193219, 18.643060615800508, 0.0], [73.81284895582736, 18.643042709339454, 0.0], [73.8128488435484, 18.64303971065051, 0.0], [73.81284879712898, 18.64302176166948, 0.0], [73.81284889389634, 18.64301876248889, 0.0], [73.81285009736675, 18.643000850153467, 0.0], [73.81285040275357, 18.642997863710047, 0.0], [73.8128528508052, 18.64298006702422, 0.0], [73.81285336346457, 18.64297710648915, 0.0], [73.81285685115786, 18.642960432123036, 0.0], [73.81285704529986, 18.642959503946507, 0.0], [73.8128577629704, 18.642956582378392, 0.0], [73.81286266234964, 18.642939251616603, 0.0], [73.8128626793644, 18.642939191594074, 0.0], [73.8128726820478, 18.642904001526183, 0.0], [73.81288001429569, 18.642869685986902, 0.0], [73.81288504115787, 18.642834995243557, 0.0], [73.81288774226302, 18.64280006989087, 0.0], [73.81288810666533, 18.642765051473866, 0.0], [73.81288639392677, 18.642734706733325, 0.0], [73.81288613288963, 18.642730081914795, 0.0], [73.81288182893654, 18.642695302937984, 0.0]]]}, "properties": {"site_id": "SEG40", "name": "SEG40", "n_member_parcels": 6}}]}