{"type": "FeatureCollection", "features": [{"type": "Feature", "geometry": {"type": "MultiPolygon", "coordinates": [[[[73.81244556553834, 18.639267335158085, 0.0], [73.81244467431831, 18.639264326456967, 0.0], [73.81243676640554, 18.639233602170727, 0.0], [73.81243609557981, 18.639230541920135, 0.0], [73.81243043543535, 18.639199369870905, 0.0], [73.81242998821573, 18.639196272723122, 0.0], [73.81242660293934, 18.639164802163567, 0.0], [73.81242638146706, 18.639161682948497, 0.0], [73.81242528726587, 18.639130064560504, 0.0], [73.81242529260116, 18.639126938212417, 0.0], [73.81242566267314, 18.639117205541606, 0.0], [73.81229050068465, 18.639116351815893, 0.0], [73.81228103636641, 18.639127990181876, 0.0], [73.81225252801686, 18.639168507237642, 0.0], [73.81222806168567, 18.639209035484477, 0.0], [73.81222713834788, 18.63934186354918, 0.0], [73.81246411111258, 18.639343360375026, 0.0], [73.81246428497158, 18.63931834473739, 0.0], [73.81245679070479, 18.63930040731856, 0.0], [73.81245568335741, 18.63929746457256, 0.0], [73.81244556553834, 18.639267335158085, 0.0]]], [[[73.81317659861473, 18.639121946920334, 0.0], [73.81293962609564, 18.63912045100943, 0.0], [73.81270265359906, 18.63911895480003, 0.0], [73.81270108389978, 18.63934485690237, 0.0], [73.81270065514592, 18.639406560131615, 0.0], [73.81271267189578, 18.63941634076228, 0.0], [73.81273404868908, 18.639431435600123, 0.0], [73.81275646851033, 18.639445086301507, 0.0], [73.81277982419147, 18.6394572276152, 0.0], [73.81280400409096, 18.639467801504697, 0.0], [73.81282889262762, 18.63947675742632, 0.0], [73.81285437083235, 18.63948405256983, 0.0], [73.812880316918, 18.639489652064086, 0.0], [73.81290660686035, 18.639493529143056, 0.0], [73.81293311499145, 18.63949566527397, 0.0], [73.81293701900397, 18.639495721776353, 0.0], [73.81295971460472, 18.639496050245903, 0.0], [73.81302080006542, 18.639492904384323, 0.0], [73.813081511513, 18.6394857424348, 0.0], [73.81314155873905, 18.63947459863178, 0.0], [73.81317420699156, 18.639466271719684, 0.0], [73.81317502954168, 18.639347849061533, 0.0], [73.81341200239638, 18.63934934469336, 0.0], [73.81354813280898, 18.639350203732565, 0.0], [73.81358267546766, 18.63934520211182, 0.0], [73.8135856404008, 18.639344863506313, 0.0], [73.81363865802169, 18.639340418425885, 0.0], [73.813641639438, 18.639340258480143, 0.0], [73.81364904995432, 18.639340083885596, 0.0], [73.81369484546899, 18.63933900491958, 0.0], [73.81369783153379, 18.639339024268505, 0.0], [73.81375101477362, 18.639340967204028, 0.0], [73.81375399363365, 18.63934116577082, 0.0], [73.81380694878939, 18.639346298054246, 0.0], [73.81385292886345, 18.63935075978169, 0.0], [73.81388595065317, 18.63935197780476, 0.0], [73.8138976251351, 18.639352408421715, 0.0], [73.81394234187017, 18.63935138112429, 0.0], [73.81398690294786, 18.639347681935522, 0.0], [73.8140311328601, 18.639341325424684, 0.0], [73.81407631192138, 18.63933203761058, 0.0], [73.81407647445037, 18.639332004482387, 0.0], [73.81412313801594, 18.639322574597426, 0.0], [73.81413177081146, 18.63932083006005, 0.0], [73.81413502754727, 18.639320284334005, 0.0], [73.81419100664466, 18.639312812504123, 0.0], [73.8141942953697, 18.639312484572482, 0.0], [73.81425068472997, 18.639308751703833, 0.0], [73.81425398943661, 18.63930864316281, 0.0], [73.81431051458908, 18.639308667425063, 0.0], [73.81431381919171, 18.63930877880298, 0.0], [73.81436019543455, 18.639311888829983, 0.0], [73.81436146154738, 18.639129421997342, 0.0], [73.8141244889159, 18.639127927578944, 0.0], [73.81388751630689, 18.639126432862042, 0.0], [73.81365054372034, 18.639124937846635, 0.0], [73.8134135711563, 18.639123442532743, 0.0], [73.81317659861473, 18.639121946920334, 0.0]]], [[[73.81350356473733, 18.640096503856423, 0.0], [73.81346150518421, 18.640166691412702, 0.0], [73.81346017448786, 18.640168778909885, 0.0], [73.81341419719618, 18.640236696987266, 0.0], [73.81341275009609, 18.64023871287644, 0.0], [73.81340576219807, 18.640247904048678, 0.0], [73.81340572713182, 18.64025295328036, 0.0], [73.81340415825947, 18.64047885541324, 0.0], [73.81340258936464, 18.640704757540565, 0.0], [73.81340133361573, 18.64088556805447, 0.0], [73.81340693878396, 18.640887901542165, 0.0], [73.81344071108813, 18.640899493055645, 0.0], [73.8134492581676, 18.640902884688735, 0.0], [73.81345741741157, 18.640907054955626, 0.0], [73.81346511099085, 18.640911964077112, 0.0], [73.81347226551817, 18.640917565226253, 0.0], [73.8134788127481, 18.64092380497499, 0.0], [73.81348469022807, 18.640930623803825, 0.0], [73.81348508816028, 18.64093119021934, 0.0], [73.81363799551643, 18.64093215513161, 0.0], [73.8136395641206, 18.640706252990405, 0.0], [73.8136411327023, 18.64048035084366, 0.0], [73.81387810716761, 18.640481845975554, 0.0], [73.81387967541369, 18.64025594380384, 0.0], [73.81364270126151, 18.640254448691362, 0.0], [73.81364426979825, 18.640028546533514, 0.0], [73.81354060599946, 18.640027892413723, 0.0], [73.81350456520681, 18.64009474499238, 0.0], [73.81350404010955, 18.640095611572814, 0.0], [73.81350356473733, 18.640096503856423, 0.0]]], [[[73.81252118716979, 18.640513314781003, 0.0], [73.81252122910692, 18.640516311381155, 0.0], [73.81252052442909, 18.640550181300362, 0.0], [73.81252035788292, 18.640553173958907, 0.0], [73.81251729935607, 18.64058692483788, 0.0], [73.81251692505923, 18.640589900388026, 0.0], [73.81251152613832, 18.640623383735342, 0.0], [73.81251094573744, 18.640626329085904, 0.0], [73.81250323017424, 18.64065939758725, 0.0], [73.8125024462227, 18.640662299779795, 0.0], [73.81249244796133, 18.640694807945803, 0.0], [73.81249146390822, 18.64069765421149, 0.0], [73.81249094544073, 18.640699001747592, 0.0], [73.81269166523167, 18.64070026939987, 0.0], [73.81269323506594, 18.640474367330828, 0.0], [73.8125189017058, 18.640473266347982, 0.0], [73.81251928466415, 18.640476487478434, 0.0], [73.8125195348999, 18.640479474836493, 0.0], [73.81252118716979, 18.640513314781003, 0.0]]], [[[73.81217995418324, 18.641018333831585, 0.0], [73.81217723287973, 18.641019302730232, 0.0], [73.81215799581896, 18.64102551851463, 0.0], [73.81215499802265, 18.641026382989565, 0.0], [73.81213537232054, 18.64103137406536, 0.0], [73.8121323211769, 18.64103204791592, 0.0], [73.8121123925324, 18.641035792488793, 0.0], [73.81210930136466, 18.64103627277255, 0.0], [73.8120891567996, 18.641038754491202, 0.0], [73.81208603910602, 18.64103903911088, 0.0], [73.81206576658464, 18.641040247138605, 0.0], [73.81206263597886, 18.641040334851407, 0.0], [73.8120423240248, 18.6410402639131, 0.0], [73.81203919417729, 18.641040154336018, 0.0], [73.8120189314858, 18.641038804741463, 0.0], [73.81201581606368, 18.641038498353, 0.0], [73.8119956911152, 18.641035875995524, 0.0], [73.81199260372239, 18.64103537413358, 0.0], [73.81197839921188, 18.641032601898175, 0.0], [73.81197759968626, 18.641147582577243, 0.0], [73.81197665963649, 18.64128277111422, 0.0], [73.81204313877751, 18.641306951549407, 0.0], [73.8120455906623, 18.64130791917014, 0.0], [73.81219478264367, 18.641371517107952, 0.0], [73.81219711419942, 18.64137258471046, 0.0], [73.81220185933905, 18.641374911458698, 0.0], [73.81221300440546, 18.641374981870662, 0.0], [73.81221457493353, 18.641149079857133, 0.0], [73.81221558363166, 18.6410039887729, 0.0], [73.81220966669777, 18.64100667600476, 0.0], [73.81220721761022, 18.64100770840104, 0.0], [73.81217995418324, 18.641018333831585, 0.0]]], [[[73.81339631356043, 18.6416083659944, 0.0], [73.81363328956903, 18.64160986152192, 0.0], [73.81363485824065, 18.641383959397363, 0.0], [73.81339788254522, 18.641382463889258, 0.0], [73.81326592696217, 18.641381631013456, 0.0], [73.81316043797156, 18.641448467172815, 0.0], [73.81315933757433, 18.641606870168335, 0.0], [73.81339631356043, 18.6416083659944, 0.0]]], [[[73.81268381572283, 18.641829779661872, 0.0], [73.81292079197712, 18.641831276104455, 0.0], [73.8131577682539, 18.64183277224849, 0.0], [73.81315933757433, 18.641606870168335, 0.0], [73.81292236161072, 18.641605374043724, 0.0], [73.8126853856696, 18.64160387762057, 0.0], [73.81268381572283, 18.641829779661872, 0.0]]], [[[73.81460900435813, 18.639376795014947, 0.0], [73.81462021406679, 18.639384304928573, 0.0], [73.81462272138974, 18.639386105845755, 0.0], [73.8146333849791, 18.63939430671165, 0.0], [73.81463576173616, 18.639396261911084, 0.0], [73.81464583242067, 18.639405117748677, 0.0], [73.81464806818455, 18.639407218652554, 0.0], [73.81465750177983, 18.63941669060776, 0.0], [73.81465958674087, 18.63941892799819, 0.0], [73.81466834185804, 18.639428974513866, 0.0], [73.81467026686883, 18.63943133857471, 0.0], [73.81467830509538, 18.639441915572654, 0.0], [73.81468006170996, 18.63944439593165, 0.0], [73.81468734777884, 18.639455457006306, 0.0], [73.81468892829047, 18.639458042781502, 0.0], [73.81469543023452, 18.639469539403585, 0.0], [73.81469682770854, 18.639472219249726, 0.0], [73.81470251700098, 18.639484100978873, 0.0], [73.81470372530616, 18.639486863138583, 0.0], [73.8147085769855, 18.639499077844793, 0.0], [73.81470959082053, 18.639501910199485, 0.0], [73.81471358360024, 18.639514404292022, 0.0], [73.8147143985168, 18.63951729441461, 0.0], [73.81471751487874, 18.639530013076637, 0.0], [73.81471812730152, 18.63953294828719, 0.0], [73.81472035357272, 18.639545835716838, 0.0], [73.814720612379, 18.639547988125592, 0.0], [73.8147209126472, 18.639550170531482, 0.0], [73.81472211117797, 18.639564188352594, 0.0], [73.81472226356793, 18.639567252953572, 0.0], [73.81472246138247, 18.639581315995343, 0.0], [73.81472241381948, 18.63958352198057, 0.0], [73.81483227309285, 18.639584214487257, 0.0], [73.81483383999652, 18.639358312215723, 0.0], [73.814596867007, 18.639356818374928, 0.0], [73.81459677838969, 18.639369591965615, 0.0], [73.81460637747045, 18.639375156281734, 0.0], [73.81460900435813, 18.639376795014947, 0.0]]], [[[73.81506386250868, 18.64036204281035, 0.0], [73.81506454651156, 18.640263414888445, 0.0], [73.81483741691083, 18.640261983324223, 0.0], [73.81490214256951, 18.64036030839663, 0.0], [73.81499651170681, 18.640488898241955, 0.0], [73.81505967614109, 18.640489296336238, 0.0], [73.81506386250868, 18.64036204281035, 0.0]]], [[[73.81606781241257, 18.64365423867322, 0.0], [73.81606647955132, 18.643648060736027, 0.0], [73.81606574550818, 18.64364393307439, 0.0], [73.81606486797547, 18.643637681552335, 0.0], [73.81606443776998, 18.643633515134642, 0.0], [73.8160640198421, 18.64362722049298, 0.0], [73.81606389556993, 18.643623035617445, 0.0], [73.81606393928223, 18.643616728516637, 0.0], [73.81606412154885, 18.643612545571646, 0.0], [73.81606462668846, 18.64360625674182, 0.0], [73.81606511460578, 18.643602096106292, 0.0], [73.81606607871193, 18.643595856183623, 0.0], [73.81606686990294, 18.643591738127718, 0.0], [73.81606828827759, 18.64358557751759, 0.0], [73.81606937888748, 18.64358152210404, 0.0], [73.8160712446215, 18.643575470814756, 0.0], [73.81607262933697, 18.6435714978011, 0.0], [73.8160749333397, 18.64356558531738, 0.0], [73.81607660541447, 18.643561714059746, 0.0], [73.81607933646205, 18.64355596918393, 0.0], [73.81608128774997, 18.64355221854267, 0.0], [73.81608443253556, 18.643546669266094, 0.0], [73.81608665352998, 18.643543057514023, 0.0], [73.81609019673358, 18.643537730870012, 0.0], [73.81609267661419, 18.64353427560298, 0.0], [73.8160966009733, 18.64352919754305, 0.0], [73.81609932765821, 18.643525915594942, 0.0], [73.81610361405399, 18.643521110858575, 0.0], [73.81610657425918, 18.643518018218572, 0.0], [73.81611120180796, 18.643513510214774, 0.0], [73.81611438111149, 18.643510621949947, 0.0], [73.81611932726857, 18.643506432640773, 0.0], [73.81612271018122, 18.643503762822423, 0.0], [73.81612795084907, 18.643499912617937, 0.0], [73.81613152088968, 18.64349747425303, 0.0], [73.81613703053874, 18.64349398190944, 0.0], [73.81614077031446, 18.643491786877558, 0.0], [73.81614652209966, 18.64348866941098, 0.0], [73.81615041339072, 18.643486728406003, 0.0], [73.81615637929185, 18.64348400100342, 0.0], [73.81616040314019, 18.64348232348183, 0.0], [73.81616655408895, 18.64347999943211, 0.0], [73.81617069089107, 18.6434785935664, 0.0], [73.81617699692195, 18.64347668419127, 0.0], [73.8161812265235, 18.64347555683073, 0.0], [73.81618765691898, 18.643474071431374, 0.0], [73.81619195871409, 18.643473228068487, 0.0], [73.81619848213947, 18.643472173883264, 0.0], [73.81620283517009, 18.643471618626716, 0.0], [73.81620941984546, 18.643471000790864, 0.0], [73.81621380290414, 18.643470736345762, 0.0], [73.81622041675256, 18.64347055786912, 0.0], [73.81622480848564, 18.643470585523872, 0.0], [73.81622724694321, 18.643470682073815, 0.0], [73.81622750452415, 18.643433511124417, 0.0], [73.81599052576303, 18.643432018725854, 0.0], [73.81575354702436, 18.643430526028723, 0.0], [73.81551656830811, 18.643429033033005, 0.0], [73.81551500193979, 18.643654935262845, 0.0], [73.81551343554901, 18.64388083748714, 0.0], [73.81555615291731, 18.643881106640283, 0.0], [73.8155564154023, 18.643837738976146, 0.0], [73.81555692597622, 18.643828879806314, 0.0], [73.81555834550412, 18.643820111072557, 0.0], [73.81556066030046, 18.643811517312816, 0.0], [73.81556384804846, 18.643803181378143, 0.0], [73.81556787801551, 18.643795183633895, 0.0], [73.81557271134925, 18.643787601184968, 0.0], [73.81557830145219, 18.643780507132515, 0.0], [73.81558459443104, 18.643773969869088, 0.0], [73.81559152961619, 18.643768052419325, 0.0], [73.81559904014664, 18.64376281183236, 0.0], [73.81560705361461, 18.6437582986318, 0.0], [73.8156154927636, 18.643754556328634, 0.0], [73.81562427623322, 18.643751621001766, 0.0], [73.81563331934359, 18.643749520950156, 0.0], [73.8156425349116, 18.64374827642008, 0.0], [73.81565183409161, 18.64374789940983, 0.0], [73.81575134249822, 18.643748526299213, 0.0], [73.81575198096922, 18.643656428277946, 0.0], [73.8159889600211, 18.643657920994464, 0.0], [73.81606888099883, 18.643658424344444, 0.0], [73.81606884671706, 18.643658307469185, 0.0], [73.81606781241257, 18.64365423867322, 0.0]]], [[[73.81527488950236, 18.644105246353423, 0.0], [73.81551186913578, 18.644106739705876, 0.0], [73.81551343554901, 18.64388083748714, 0.0], [73.81527645622882, 18.643879344154072, 0.0], [73.81527488950236, 18.644105246353423, 0.0]]], [[[73.81612451749938, 18.644562423231903, 0.0], [73.81613356905724, 18.64434894127919, 0.0], [73.81613357308889, 18.644336568143732, 0.0], [73.81613363236393, 18.644154633120433, 0.0], [73.8159855236666, 18.644153700320643, 0.0], [73.81574854392733, 18.64415220756159, 0.0], [73.81564923174426, 18.644151581895393, 0.0], [73.81563994848044, 18.644151088741683, 0.0], [73.81563076055127, 18.644149731036677, 0.0], [73.81562175634713, 18.64414752184191, 0.0], [73.81561302249092, 18.644144482410425, 0.0], [73.81560464300468, 18.64414064198239, 0.0], [73.81559669850131, 18.64413603750379, 0.0], [73.81558926540905, 18.644130713270933, 0.0], [73.8155824152362, 18.644124720504394, 0.0], [73.81557621388319, 18.644118116856195, 0.0], [73.81557072100863, 18.64411096585521, 0.0], [73.8155683207025, 18.6441070953974, 0.0], [73.81551186913578, 18.644106739705876, 0.0], [73.8155103027001, 18.64433264191908, 0.0], [73.81574728266916, 18.644334134992334, 0.0], [73.81598426266069, 18.644335627766996, 0.0], [73.81598269682901, 18.644561530013405, 0.0], [73.81612451749938, 18.644562423231903, 0.0]]]]}, "properties": {"site_id": "EMU_Savana_ecosystem", "name": "EMU_Savana_ecosystem", "n_member_parcels": 33}}]}