{"type": "FeatureCollection", "features": [{"type": "Feature", "geometry": {"type": "Polygon", "coordinates": [[[73.81574728266916, 18.644334134992334, 0.0], [73.81598426266069, 18.644335627766996, 0.0], [73.81598269682901, 18.644561530013405, 0.0], [73.81612451749938, 18.644562423231903, 0.0], [73.81613356905724, 18.64434894127919, 0.0], [73.81613357308889, 18.644336568143732, 0.0], [73.81613363236393, 18.644154633120433, 0.0], [73.8159855236666, 18.644153700320643, 0.0], [73.81574854392733, 18.64415220756159, 0.0], [73.81564923174426, 18.644151581895393, 0.0], [73.81563994848044, 18.644151088741683, 0.0], [73.81563076055127, 18.644149731036677, 0.0], [73.81562175634713, 18.64414752184191, 0.0], [73.81561302249092, 18.644144482410425, 0.0], [73.81560464300468, 18.64414064198239, 0.0], [73.81559669850131, 18.64413603750379, 0.0], [73.81558926540905, 18.644130713270933, 0.0], [73.8155824152362, 18.644124720504394, 0.0], [73.81557621388319, 18.644118116856195, 0.0], [73.81557072100863, 18.64411096585521, 0.0], [73.8155683207025, 18.6441070953974, 0.0], [73.81551186913578, 18.644106739705876, 0.0], [73.8155103027001, 18.64433264191908, 0.0], [73.81574728266916, 18.644334134992334, 0.0]]]}, "properties": {"site_id": "SEG61", "name": "SEG61", "n_member_parcels": 4}}]}