{"type": "FeatureCollection", "features": [{"type": "Feature", "geometry": {"type": "Polygon", "coordinates": [[[73.81074554177358, 18.647917146189716, 0.0], [73.81074396869043, 18.648143047920016, 0.0], [73.81074239558475, 18.648368949644766, 0.0], [73.81074082245654, 18.648594851363963, 0.0], [73.81050383700789, 18.648593351650437, 0.0], [73.81050226354381, 18.648819253344612, 0.0], [73.8105006900572, 18.64904515503324, 0.0], [73.81073767613248, 18.649046654785703, 0.0], [73.81085052499908, 18.64904736883811, 0.0], [73.8108528004142, 18.64904616075641, 0.0], [73.81097509031414, 18.648986671094477, 0.0], [73.81097623509027, 18.648822252511938, 0.0], [73.8112132208973, 18.648823751647605, 0.0], [73.81130634637732, 18.64882434066325, 0.0], [73.81145070158982, 18.648754146874573, 0.0], [73.81145177893771, 18.648599348712587, 0.0], [73.81121479342146, 18.64859784989504, 0.0], [73.81121636592307, 18.64837194813692, 0.0], [73.81121793840217, 18.64814604637324, 0.0], [73.81121951085873, 18.647920144604015, 0.0], [73.8114564954351, 18.647921643363187, 0.0], [73.81169348003401, 18.647923141823714, 0.0], [73.81193046465543, 18.647924639985586, 0.0], [73.81193140282177, 18.647789779234504, 0.0], [73.81186891395247, 18.64769833914239, 0.0], [73.81169505184147, 18.647697240010025, 0.0], [73.8116966236264, 18.647471338190794, 0.0], [73.81145963965407, 18.647469839769176, 0.0], [73.81146017570998, 18.647392810764305, 0.0], [73.8114302835847, 18.647377840495256, 0.0], [73.81142753118162, 18.64737634817173, 0.0], [73.8113927799953, 18.64735601272966, 0.0], [73.81139013826451, 18.647354348553865, 0.0], [73.81135688902737, 18.647331846679094, 0.0], [73.81135436975921, 18.64733001807847, 0.0], [73.81132277086687, 18.647305450200303, 0.0], [73.8113203853052, 18.6473034653362, 0.0], [73.81129057778737, 18.647276941104828, 0.0], [73.81128833657911, 18.64727480883588, 0.0], [73.81126045347014, 18.647246446632682, 0.0], [73.81125836661825, 18.647244176475727, 0.0], [73.81125705262983, 18.647242646865486, 0.0], [73.81122422809324, 18.64724243926304, 0.0], [73.81122449888734, 18.64720353452173, 0.0], [73.8112069390811, 18.64718005421778, 0.0], [73.81120518815264, 18.647177539250833, 0.0], [73.81118378784845, 18.647144452593388, 0.0], [73.81118221698793, 18.64714183179722, 0.0], [73.81116318199095, 18.647107456907396, 0.0], [73.8111618387826, 18.64710482860607, 0.0], [73.81113563555424, 18.647049040231682, 0.0], [73.81113450828809, 18.64704642350433, 0.0], [73.811122509906, 18.647015884169175, 0.0], [73.81098881715894, 18.647015038491627, 0.0], [73.81098724447924, 18.647240940263593, 0.0], [73.81098567177698, 18.64746684203001, 0.0], [73.81122265570426, 18.64746834104891, 0.0], [73.81122108329275, 18.647694242829246, 0.0], [73.8109840990522, 18.64769274379088, 0.0], [73.81098252630488, 18.647918645546188, 0.0], [73.81074554177358, 18.647917146189716, 0.0]]]}, "properties": {"site_id": "SEG12", "name": "SEG12", "n_member_parcels": 21}}]}