{"type": "FeatureCollection", "features": [{"type": "Feature", "geometry": {"type": "Polygon", "coordinates": [[[73.80607479725111, 18.63802294308426, 0.0], [73.80612621759809, 18.638173666620393, 0.0], [73.80620345632445, 18.638400068617553, 0.0], [73.80630913903462, 18.63840073955142, 0.0], [73.80630756094912, 18.638626641144295, 0.0], [73.80630727883086, 18.638667025790472, 0.0], [73.8063560523718, 18.638790618108626, 0.0], [73.80637557157868, 18.638852984498328, 0.0], [73.80644641744175, 18.639079345828883, 0.0], [73.80654137659779, 18.63907994858226, 0.0], [73.80677834850796, 18.639081452552634, 0.0], [73.80701532044075, 18.639082956224506, 0.0], [73.80701689763218, 18.638857054584143, 0.0], [73.80677992601251, 18.638855550931794, 0.0], [73.80654295441543, 18.638854046980956, 0.0], [73.80654453221045, 18.63862814537409, 0.0], [73.80678150349442, 18.6386296493054, 0.0], [73.807018474801, 18.63863115293822, 0.0], [73.80701987934944, 18.638429973391155, 0.0], [73.80699221691407, 18.63840507468515, 0.0], [73.80678308095375, 18.638403747673458, 0.0], [73.80678383747312, 18.638295408413406, 0.0], [73.80660758852244, 18.63821159121198, 0.0], [73.80654767300493, 18.638178450874022, 0.0], [73.8065438161372, 18.638176317570846, 0.0], [73.80631071709753, 18.638174837953, 0.0], [73.8063116070253, 18.63804744229458, 0.0], [73.80621665686519, 18.63798903132164, 0.0], [73.80607479725111, 18.63802294308426, 0.0]]]}, "properties": {"site_id": "SEG23", "name": "SEG23", "n_member_parcels": 11}}]}