{"type": "FeatureCollection", "features": [{"type": "Feature", "geometry": {"type": "MultiPolygon", "coordinates": [[[[73.81123946594023, 18.646406125850298, 0.0], [73.81123099890009, 18.646403067448016, 0.0], [73.81123007336677, 18.646402632787094, 0.0], [73.81122894512497, 18.646564733872104, 0.0], [73.81122737280359, 18.64679063567463, 0.0], [73.81122674239414, 18.646881208250882, 0.0], [73.81122924154812, 18.646891242346218, 0.0], [73.81124619900929, 18.646944300534393, 0.0], [73.8112666064219, 18.64699624317731, 0.0], [73.81127628843507, 18.64701685678236, 0.0], [73.81146278378293, 18.647018036152957, 0.0], [73.81146126498895, 18.64723628474694, 0.0], [73.81146985628756, 18.647242099022485, 0.0], [73.81147312761388, 18.64724401331282, 0.0], [73.81169819538881, 18.647245436366003, 0.0], [73.81184730174745, 18.647246378983745, 0.0], [73.81184963491813, 18.64724126334272, 0.0], [73.81185283271348, 18.647232779995658, 0.0], [73.81185544432392, 18.647224116190355, 0.0], [73.81185745866823, 18.64721530868821, 0.0], [73.81185886719925, 18.647206394861126, 0.0], [73.81185966394047, 18.647197412531458, 0.0], [73.81185984551136, 18.64718839981227, 0.0], [73.8118594111416, 18.647179394945617, 0.0], [73.81185836485858, 18.647170454803756, 0.0], [73.81185578887415, 18.647156733381284, 0.0], [73.81185226238999, 18.64714322472623, 0.0], [73.81184779767227, 18.647129970634367, 0.0], [73.811841845623, 18.647115662365728, 0.0], [73.81183318654493, 18.64709494936488, 0.0], [73.81183216312665, 18.6470922559781, 0.0], [73.81182488594098, 18.647071025055173, 0.0], [73.81182404363507, 18.64706827526006, 0.0], [73.81181819249886, 18.647046647413156, 0.0], [73.81181753469102, 18.64704385226288, 0.0], [73.81181313312493, 18.64702191443392, 0.0], [73.81181285614716, 18.64702024946217, 0.0], [73.81169976712872, 18.64701953453567, 0.0], [73.81170133884608, 18.64679363269978, 0.0], [73.81184763423175, 18.646794557526686, 0.0], [73.81185391387565, 18.646782774372593, 0.0], [73.81185546866055, 18.646780087084803, 0.0], [73.81186690381037, 18.6467618186066, 0.0], [73.81186864638241, 18.646759238128354, 0.0], [73.81188135613235, 18.646741751764157, 0.0], [73.81188327845192, 18.646739290000856, 0.0], [73.81189720416359, 18.646722666426324, 0.0], [73.81189929736162, 18.646720334735814, 0.0], [73.81191437478665, 18.64670465064579, 0.0], [73.81191662920585, 18.646702459785566, 0.0], [73.81193278878223, 18.6466877875407, 0.0], [73.81193519402156, 18.646685747618555, 0.0], [73.81193910431374, 18.646682651508833, 0.0], [73.81193989328271, 18.646569228903523, 0.0], [73.81210689624554, 18.646570284404245, 0.0], [73.81214249201987, 18.64654872979282, 0.0], [73.81214502638485, 18.646547298513088, 0.0], [73.81217715638898, 18.646530416295562, 0.0], [73.8121784470928, 18.64634482476419, 0.0], [73.81194146464178, 18.646343327037084, 0.0], [73.81170448221327, 18.64634182901135, 0.0], [73.81165136310004, 18.646341493191045, 0.0], [73.8116492798521, 18.646345442166357, 0.0], [73.81164427117172, 18.646352978426847, 0.0], [73.81163850731362, 18.646360007154396, 0.0], [73.81163204445994, 18.646366459837687, 0.0], [73.81162494560623, 18.646372273580276, 0.0], [73.81161727994724, 18.646377391713717, 0.0], [73.81160912220268, 18.646381764349847, 0.0], [73.8116005518888, 18.646385348867142, 0.0], [73.81159165254324, 18.64638811032613, 0.0], [73.81158251091091, 18.646390021809957, 0.0], [73.81157321609835, 18.646391064686753, 0.0], [73.81146709898215, 18.646397931478266, 0.0], [73.81127520422798, 18.646410348748507, 0.0], [73.81126615149714, 18.64641052137383, 0.0], [73.81125712278497, 18.64640986989261, 0.0], [73.81124820046503, 18.64640840024867, 0.0], [73.81123946594023, 18.646406125850298, 0.0]]], [[[73.81118378784845, 18.647144452593388, 0.0], [73.81118221698793, 18.64714183179722, 0.0], [73.81116318199095, 18.647107456907396, 0.0], [73.8111618387826, 18.64710482860607, 0.0], [73.81113563555424, 18.647049040231682, 0.0], [73.81113450828809, 18.64704642350433, 0.0], [73.811122509906, 18.647015884169175, 0.0], [73.81098881715894, 18.647015038491627, 0.0], [73.81098724447924, 18.647240940263593, 0.0], [73.81098567177698, 18.64746684203001, 0.0], [73.81122265570426, 18.64746834104891, 0.0], [73.81122108329275, 18.647694242829246, 0.0], [73.8109840990522, 18.64769274379088, 0.0], [73.81098252630488, 18.647918645546188, 0.0], [73.81074554177358, 18.647917146189716, 0.0], [73.81074396869043, 18.648143047920016, 0.0], [73.81074239558475, 18.648368949644766, 0.0], [73.81074082245654, 18.648594851363963, 0.0], [73.81050383700789, 18.648593351650437, 0.0], [73.81050226354381, 18.648819253344612, 0.0], [73.8105006900572, 18.64904515503324, 0.0], [73.81073767613248, 18.649046654785703, 0.0], [73.81085052499908, 18.64904736883811, 0.0], [73.8108528004142, 18.64904616075641, 0.0], [73.81097509031414, 18.648986671094477, 0.0], [73.81097623509027, 18.648822252511938, 0.0], [73.8112132208973, 18.648823751647605, 0.0], [73.81130634637732, 18.64882434066325, 0.0], [73.81145070158982, 18.648754146874573, 0.0], [73.81145177893771, 18.648599348712587, 0.0], [73.81121479342146, 18.64859784989504, 0.0], [73.81121636592307, 18.64837194813692, 0.0], [73.81121793840217, 18.64814604637324, 0.0], [73.81121951085873, 18.647920144604015, 0.0], [73.8114564954351, 18.647921643363187, 0.0], [73.81169348003401, 18.647923141823714, 0.0], [73.81193046465543, 18.647924639985586, 0.0], [73.81193140282177, 18.647789779234504, 0.0], [73.81186891395247, 18.64769833914239, 0.0], [73.81169505184147, 18.647697240010025, 0.0], [73.8116966236264, 18.647471338190794, 0.0], [73.81145963965407, 18.647469839769176, 0.0], [73.81146017570998, 18.647392810764305, 0.0], [73.8114302835847, 18.647377840495256, 0.0], [73.81142753118162, 18.64737634817173, 0.0], [73.8113927799953, 18.64735601272966, 0.0], [73.81139013826451, 18.647354348553865, 0.0], [73.81135688902737, 18.647331846679094, 0.0], [73.81135436975921, 18.64733001807847, 0.0], [73.81132277086687, 18.647305450200303, 0.0], [73.8113203853052, 18.6473034653362, 0.0], [73.81129057778737, 18.647276941104828, 0.0], [73.81128833657911, 18.64727480883588, 0.0], [73.81126045347014, 18.647246446632682, 0.0], [73.81125836661825, 18.647244176475727, 0.0], [73.81125705262983, 18.647242646865486, 0.0], [73.81122422809324, 18.64724243926304, 0.0], [73.81122449888734, 18.64720353452173, 0.0], [73.8112069390811, 18.64718005421778, 0.0], [73.81120518815264, 18.647177539250833, 0.0], [73.81118378784845, 18.647144452593388, 0.0]]], [[[73.8116887644765, 18.648600847231464, 0.0], [73.81174551125932, 18.648601206011232, 0.0], [73.81176609438077, 18.648590361081897, 0.0], [73.8119263822121, 18.648511474881836, 0.0], [73.81192732159954, 18.648376443635197, 0.0], [73.81216430687006, 18.648377941537312, 0.0], [73.81216587809597, 18.648152039695834, 0.0], [73.81216600997074, 18.64813307935102, 0.0], [73.81202396880045, 18.647925231014923, 0.0], [73.81193046465543, 18.647924639985586, 0.0], [73.81192889313874, 18.648150541813166, 0.0], [73.81169190820403, 18.64814904363185, 0.0], [73.81145492329183, 18.648147545151872, 0.0], [73.81145335112605, 18.648373446935004, 0.0], [73.81145177893771, 18.648599348712587, 0.0], [73.8116887644765, 18.648600847231464, 0.0]]], [[[73.81198733816173, 18.646833893949392, 0.0], [73.81197920322943, 18.64684689010439, 0.0], [73.81197201257797, 18.646860382693514, 0.0], [73.81196579938246, 18.646874309467144, 0.0], [73.81196059230865, 18.646888606171846, 0.0], [73.81195641538035, 18.646903206848087, 0.0], [73.81195328786859, 18.646918044133614, 0.0], [73.81195121722793, 18.64693310029103, 0.0], [73.81195009482747, 18.646949619303133, 0.0], [73.81195007278977, 18.646966224064066, 0.0], [73.81195115467179, 18.646982796781305, 0.0], [73.8119533361249, 18.6469992708343, 0.0], [73.81195660838009, 18.64701557999879, 0.0], [73.81195812006345, 18.64702116769221, 0.0], [73.8119609582836, 18.64703165871368, 0.0], [73.81196636834947, 18.647047442344007, 0.0], [73.8119733733489, 18.64706419866258, 0.0], [73.81197340309775, 18.64706426999951, 0.0], [73.81198112093053, 18.647082823052052, 0.0], [73.81198218905024, 18.647085664189234, 0.0], [73.81198859027133, 18.647104667010485, 0.0], [73.81198945702437, 18.647107569783824, 0.0], [73.81199451307042, 18.647126937581284, 0.0], [73.81199517458913, 18.647129889038215, 0.0], [73.81199886289915, 18.647149535391012, 0.0], [73.8119993118848, 18.64715248507832, 0.0], [73.81200104516708, 18.647167295308503, 0.0], [73.81200128736165, 18.647170229322832, 0.0], [73.81200200545008, 18.6471851157002, 0.0], [73.81200204674201, 18.647188058520577, 0.0], [73.81200174658932, 18.64720295788038, 0.0], [73.8120015868033, 18.647205897019994, 0.0], [73.81200026968276, 18.64722074614215, 0.0], [73.81199990949673, 18.647223669129783, 0.0], [73.8119975809967, 18.647238405007577, 0.0], [73.81199702193894, 18.64724129944057, 0.0], [73.81199564575724, 18.6472473166647, 0.0], [73.8119936919393, 18.647255859547595, 0.0], [73.81199293638196, 18.647258713144303, 0.0], [73.81198861901213, 18.647273035700024, 0.0], [73.81198767016097, 18.647275836352648, 0.0], [73.81198238373982, 18.647289860584454, 0.0], [73.81198124562087, 18.64729259640937, 0.0], [73.81197501257901, 18.647306262810663, 0.0], [73.8119736900216, 18.64730892219904, 0.0], [73.81196653680664, 18.647322172781152, 0.0], [73.8119650354222, 18.64732474444936, 0.0], [73.81195699238584, 18.647337522988185, 0.0], [73.8119553185454, 18.64733999602355, 0.0], [73.81194641981523, 18.647352248298144, 0.0], [73.81194458062055, 18.647354612208005, 0.0], [73.81193486395495, 18.647366286229957, 0.0], [73.81193434476198, 18.64736686991011, 0.0], [73.81193360762126, 18.647472836313764, 0.0], [73.81193311289395, 18.64754395459179, 0.0], [73.81203935339948, 18.64769941648104, 0.0], [73.81216902048025, 18.64770023599623, 0.0], [73.81216771973905, 18.647887254699064, 0.0], [73.8121944084822, 18.647926308225596, 0.0], [73.81234946396637, 18.648153199859845, 0.0], [73.81240286307572, 18.648153537279843, 0.0], [73.81240232750318, 18.64823055455383, 0.0], [73.81245349932053, 18.648305433694112, 0.0], [73.81245584392026, 18.648309263104334, 0.0], [73.81245778346681, 18.648313293138017, 0.0], [73.81245929928123, 18.648317484983775, 0.0], [73.81246037676539, 18.648321798271798, 0.0], [73.81246081875948, 18.6483248864321, 0.0], [73.81259938329369, 18.64829941422048, 0.0], [73.81263889387769, 18.64829227914505, 0.0], [73.81263984807796, 18.6481550345652, 0.0], [73.81287683310272, 18.648156531551894, 0.0], [73.8129050934176, 18.648156710046678, 0.0], [73.81306345278328, 18.64805312709005, 0.0], [73.81311478856765, 18.648018394121394, 0.0], [73.81311538810021, 18.647932126315172, 0.0], [73.81324111989214, 18.64793292024849, 0.0], [73.81328866707787, 18.647900750492457, 0.0], [73.81335289195187, 18.647858913857572, 0.0], [73.81335394247111, 18.64770772073539, 0.0], [73.8135824577234, 18.647709163327388, 0.0], [73.8135909659792, 18.647703596562234, 0.0], [73.81382904271611, 18.647547827860965, 0.0], [73.81382948039032, 18.64748481054638, 0.0], [73.81359249621545, 18.647483314812558, 0.0], [73.81359380722449, 18.647294588974045, 0.0], [73.81358285173141, 18.64729081855841, 0.0], [73.8135798834966, 18.647289687781164, 0.0], [73.81350141568511, 18.647256827995538, 0.0], [73.81335708163255, 18.647255916819248, 0.0], [73.81312009781594, 18.647254420507558, 0.0], [73.81311852793318, 18.64748032244898, 0.0], [73.81311695802795, 18.647706224384855, 0.0], [73.81287997360727, 18.647704727735665, 0.0], [73.8126429892091, 18.647703230787833, 0.0], [73.81264455974089, 18.647477328890826, 0.0], [73.81264613025022, 18.647251426988266, 0.0], [73.812647700737, 18.647025525080164, 0.0], [73.81241071730116, 18.64702402789199, 0.0], [73.81241228807872, 18.646798125997766, 0.0], [73.81241385883378, 18.646572224097998, 0.0], [73.81237668828052, 18.64657198924429, 0.0], [73.81236514924102, 18.646581294314267, 0.0], [73.81236271292495, 18.64658313183402, 0.0], [73.81234774531514, 18.64659367922665, 0.0], [73.81234518795179, 18.646595360658697, 0.0], [73.81232952763956, 18.64660495071338, 0.0], [73.81232686021607, 18.646606468833888, 0.0], [73.81231057448112, 18.646615060350097, 0.0], [73.81231050205167, 18.646615094065037, 0.0], [73.81231050401036, 18.646615097452308, 0.0], [73.81221623662756, 18.6466646288432, 0.0], [73.81217605377057, 18.646688961115863, 0.0], [73.81217530497867, 18.646796628530403, 0.0], [73.81202012155015, 18.64679564778333, 0.0], [73.81201701260052, 18.646798470585264, 0.0], [73.8120062865579, 18.646809628213322, 0.0], [73.81199637984284, 18.64682145418831, 0.0], [73.81198733816173, 18.646833893949392, 0.0]]]]}, "properties": {"site_id": "EMU_Wildlife", "name": "EMU_Wildlife", "n_member_parcels": 65}}]}