{"type": "FeatureCollection", "features": [{"type": "Feature", "geometry": {"type": "Polygon", "coordinates": [[[73.81268381572283, 18.641829779661872, 0.0], [73.81292079197712, 18.641831276104455, 0.0], [73.8131577682539, 18.64183277224849, 0.0], [73.81315933757433, 18.641606870168335, 0.0], [73.81292236161072, 18.641605374043724, 0.0], [73.8126853856696, 18.64160387762057, 0.0], [73.81268381572283, 18.641829779661872, 0.0]]]}, "properties": {"site_id": "SEG83", "name": "SEG83", "n_member_parcels": 2}}]}