{"type": "FeatureCollection", "features": [{"type": "Feature", "geometry": {"type": "Polygon", "coordinates": [[[73.81339631356043, 18.6416083659944, 0.0], [73.81363328956903, 18.64160986152192, 0.0], [73.81363485824065, 18.641383959397363, 0.0], [73.81339788254522, 18.641382463889258, 0.0], [73.81326592696217, 18.641381631013456, 0.0], [73.81316043797156, 18.641448467172815, 0.0], [73.81315933757433, 18.641606870168335, 0.0], [73.81339631356043, 18.6416083659944, 0.0]]]}, "properties": {"site_id": "SEG84", "name": "SEG84", "n_member_parcels": 2}}]}