{"type": "FeatureCollection", "features": [{"type": "Feature", "geometry": {"type": "Polygon", "coordinates": [[[73.81634909226608, 18.644628323233253, 0.0], [73.81634721667142, 18.64463064465483, 0.0], [73.81631414878609, 18.644668937015194, 0.0], [73.81631211928497, 18.644671137664876, 0.0], [73.81627651715675, 18.644707306284655, 0.0], [73.81627434228496, 18.644709376906736, 0.0], [73.81623635565043, 18.644743269665312, 0.0], [73.81623404455515, 18.644745201550993, 0.0], [73.81621832938055, 18.644757502174507, 0.0], [73.81621811161529, 18.644788924769102, 0.0], [73.81617554043152, 18.644788656675868, 0.0], [73.81606803771959, 18.644857617598294, 0.0], [73.81606766748031, 18.64485785270068, 0.0], [73.81598026202384, 18.64491279246076, 0.0], [73.81597956509833, 18.645013334489587, 0.0], [73.81582188629848, 18.64501234124425, 0.0], [73.81574223358734, 18.64506240772408, 0.0], [73.81574101795489, 18.64523774386716, 0.0], [73.8155040367329, 18.645236250716355, 0.0], [73.81546604012576, 18.645236011282826, 0.0], [73.81526617549436, 18.645361637269644, 0.0], [73.81526548867222, 18.645460659433006, 0.0], [73.81526486064317, 18.645551204596266, 0.0], [73.81536285281652, 18.645687185105167, 0.0], [73.81550090361463, 18.6456880550817, 0.0], [73.81549959376233, 18.6458769355804, 0.0], [73.81552639581768, 18.645914127766847, 0.0], [73.8156899392438, 18.64614107030503, 0.0], [73.81573475288153, 18.646141352653192, 0.0], [73.81594439210554, 18.64614267334246, 0.0], [73.8159718644557, 18.64612422569731, 0.0], [73.81610010507261, 18.646038112190777, 0.0], [73.8162100222052, 18.64595614764422, 0.0], [73.8162102835743, 18.645918435987078, 0.0], [73.81626017336544, 18.645918750175497, 0.0], [73.8163266481305, 18.6458691802289, 0.0], [73.81644817460247, 18.645788775212, 0.0], [73.81644883114316, 18.645694026048304, 0.0], [73.81659144337027, 18.645694923944706, 0.0], [73.8166862328884, 18.64563492084752, 0.0], [73.81668737808553, 18.64546961576663, 0.0], [73.81692435973292, 18.645471107443765, 0.0], [73.81694895541162, 18.645471262243753, 0.0], [73.81715272653699, 18.64533559011596, 0.0], [73.81716233400655, 18.645329261229712, 0.0], [73.81716290575798, 18.645246696501218, 0.0], [73.81728648955833, 18.645247474114058, 0.0], [73.81732525212527, 18.645221939349643, 0.0], [73.81740041724075, 18.645171621309817, 0.0], [73.81740145115656, 18.64502228521579, 0.0], [73.8176214279446, 18.645023669001848, 0.0], [73.81763851215045, 18.64501223221367, 0.0], [73.81764678169624, 18.64500669627809, 0.0], [73.81781643591567, 18.644896266404867, 0.0], [73.81787660794703, 18.64485265176588, 0.0], [73.81787697672603, 18.644799364012133, 0.0], [73.81794949605784, 18.64479982004255, 0.0], [73.81794971936918, 18.644799658178986, 0.0], [73.81810588505341, 18.64469387336827, 0.0], [73.8181147423361, 18.644687430327565, 0.0], [73.81811552058086, 18.644574951723033, 0.0], [73.81811708359353, 18.644349049302367, 0.0], [73.81811733155824, 18.64431321063345, 0.0], [73.81801475575668, 18.644252383868853, 0.0], [73.81802616993346, 18.644125562759356, 0.0], [73.81788380894189, 18.644145655741948, 0.0], [73.81788616883115, 18.644121685119135, 0.0], [73.81788166670373, 18.644121656808146, 0.0], [73.81788322998483, 18.643895754395718, 0.0], [73.81788479324354, 18.643669851977737, 0.0], [73.81788635647983, 18.64344394955422, 0.0], [73.81788791969372, 18.643218047125146, 0.0], [73.8178894828852, 18.642992144690524, 0.0], [73.81799905521873, 18.642992833649874, 0.0], [73.81800186440469, 18.6429652967768, 0.0], [73.81801917903358, 18.64276704789799, 0.0], [73.81803889882939, 18.64254125959605, 0.0], [73.81804528877687, 18.64246809561152, 0.0], [73.81806089362424, 18.642315485586987, 0.0], [73.81807218457428, 18.642205063766447, 0.0], [73.81808033285729, 18.6421313897885, 0.0], [73.81789551783127, 18.642119982459555, 0.0], [73.81771122602902, 18.642108607243728, 0.0], [73.8176586242832, 18.64210642206116, 0.0], [73.81742170505173, 18.642096579775945, 0.0], [73.81742021764346, 18.642311456631266, 0.0], [73.81741865389283, 18.642537359043825, 0.0], [73.81731827473382, 18.64253672759414, 0.0], [73.81731449449877, 18.6425718806183, 0.0], [73.81731320945057, 18.6425808597417, 0.0], [73.81730563239209, 18.64262318497693, 0.0], [73.81730372080355, 18.642632062175966, 0.0], [73.81729319379303, 18.642673810166542, 0.0], [73.81729066420843, 18.6426825457599, 0.0], [73.81727723429984, 18.642723529888972, 0.0], [73.8172740980263, 18.642732084827205, 0.0], [73.817261823511, 18.642762284689617, 0.0], [73.81725782525011, 18.642772121892335, 0.0], [73.81725409630627, 18.64278045793491, 0.0], [73.81723505340074, 18.642819368967, 0.0], [73.81723074845516, 18.642827448850333, 0.0], [73.81720902054182, 18.64286505991345, 0.0], [73.81720415883709, 18.642872847520614, 0.0], [73.81720206763912, 18.642875955875233, 0.0], [73.81720129315059, 18.64298781609109, 0.0], [73.81720007419399, 18.64316386970225, 0.0], [73.81719926065145, 18.64317748125871, 0.0], [73.81719701680494, 18.643190946053497, 0.0], [73.81719444302031, 18.64320023746907, 0.0], [73.81720094921656, 18.64321338691754, 0.0], [73.81720109646314, 18.643213727072904, 0.0], [73.81741396250642, 18.64321506624822, 0.0], [73.81741239866612, 18.643440968638583, 0.0], [73.81764937756176, 18.643442459245687, 0.0], [73.81764781401228, 18.64366836164986, 0.0], [73.81764625044036, 18.643894264048495, 0.0], [73.81764468684607, 18.644120166441564, 0.0], [73.81764312322935, 18.64434606882909, 0.0], [73.81740614308085, 18.644344578144565, 0.0], [73.81740457912849, 18.64457048050719, 0.0], [73.8171675986892, 18.644568989504716, 0.0], [73.81693061827231, 18.644567498203642, 0.0], [73.81669363787783, 18.64456600660398, 0.0], [73.81669520276985, 18.644340104299438, 0.0], [73.81646057421547, 18.64433862722563, 0.0], [73.8164579477546, 18.644378296453134, 0.0], [73.8164566575058, 18.644564514705714, 0.0], [73.81639531434072, 18.644564128474173, 0.0], [73.81638120063049, 18.64458563575551, 0.0], [73.81637948683067, 18.644588068185396, 0.0], [73.81634909226608, 18.644628323233253, 0.0]]]}, "properties": {"site_id": "SEG05", "name": "SEG05", "n_member_parcels": 72}}]}