{"type": "FeatureCollection", "features": [{"type": "Feature", "geometry": {"type": "Polygon", "coordinates": [[[77.95674588152431, 16.456998697847332], [77.956749303979, 16.457224395853515], [77.95651541423118, 16.457227698336332], [77.95651883646966, 16.457453396384757], [77.95628494639853, 16.457456698654976], [77.95628836842076, 16.457682396745636], [77.95629179049656, 16.45790809483075], [77.95629521262592, 16.458133792910317], [77.9565291035064, 16.458130490496742], [77.95653252595908, 16.45835618852298], [77.95676641705579, 16.458352885801233], [77.95700030809896, 16.458349582819086], [77.95723419908855, 16.45834627957654], [77.95746809002459, 16.4583429760736], [77.95770198090706, 16.458339672310263], [77.95770540476225, 16.45856537009198], [77.95770882867102, 16.458791067868145], [77.95771225263336, 16.459016765638772], [77.95794614427163, 16.459013461471624], [77.95818003585633, 16.45901015704407], [77.95841392738745, 16.4590068523561], [77.95864781886499, 16.459003547407736], [77.95888171028892, 16.459000242198957], [77.95911560165926, 16.458996936729783], [77.95934949297602, 16.458993631000197], [77.9593460671251, 16.4587679335643], [77.95957995811844, 16.458764627622145], [77.95970569574622, 16.458762850270382], [77.95976954689422, 16.458536201891693], [77.959788, 16.4584707], [77.95980855302037, 16.458412462910264], [77.95980699643796, 16.458309926722478], [77.95980357020828, 16.45808422936561], [77.95992499873347, 16.458082512858972], [77.95997600000001, 16.457938], [77.95998450034038, 16.457855925960043], [77.96000791491723, 16.457629849200746], [77.9600085, 16.4576242], [77.96000977746091, 16.457404077106574], [77.9600110877032, 16.457178312816794], [77.96001239798815, 16.456952548523287], [77.96001370831577, 16.456726784226056], [77.9600141, 16.456659299999995], [77.96001529119575, 16.456620599839024], [77.96001347628994, 16.4565010417276], [77.96001005021938, 16.456275344374184], [77.96000662420242, 16.45604964701522], [77.9600031982391, 16.455823949650707], [77.95976931085994, 16.45582725549175], [77.95953542342717, 16.455830561072446], [77.95930153594081, 16.455833866392783], [77.95906764840083, 16.455837171452767], [77.95883376080728, 16.45584047625241], [77.9588371854219, 16.456066173856073], [77.95884061009012, 16.45629187145419], [77.95884403481193, 16.456517569046767], [77.95861014635554, 16.456520873729513], [77.95861357086117, 16.456746571364352], [77.95837968208144, 16.45674987583455], [77.95814579324812, 16.45675318004438], [77.95814921726783, 16.45697887776931], [77.95791532811116, 16.456982181766584], [77.95791190436121, 16.45675648399384], [77.95767801542074, 16.45675978768293], [77.9574441264267, 16.45676309111165], [77.95744070326984, 16.456537393237767], [77.95720681449197, 16.456540696358317], [77.95721023737907, 16.456766394280006], [77.9569763482779, 16.456769697187987], [77.9569797709488, 16.45699539515193], [77.95674588152431, 16.456998697847332]]]}, "properties": {"site_id": "EMU_ANCHOR_Fruit_Forest", "name": "EMU_ANCHOR_Fruit_Forest", "n_member_parcels": 150}}]}