{"type": "FeatureCollection", "features": [{"type": "Feature", "geometry": {"type": "Polygon", "coordinates": [[[77.95134249773531, 16.45549469409248], [77.95134591361109, 16.4557203932356], [77.95134932954032, 16.45594609237319], [77.95135274552302, 16.45617179150523], [77.95135616155918, 16.456397490631723], [77.95135957764879, 16.456623189752673], [77.95136299379186, 16.456848888868084], [77.95136640998838, 16.45707458797795], [77.95136982623835, 16.457300287082273], [77.95137324254179, 16.457525986181047], [77.9513766588987, 16.457751685274285], [77.95161055036321, 16.457748388424438], [77.95184444177426, 16.45774509131419], [77.95184102487781, 16.457519392316367], [77.95207491596561, 16.45751609499344], [77.95207149885283, 16.45729039603779], [77.9523053896174, 16.457287098502192], [77.95253928032848, 16.457283800706218], [77.95253586272963, 16.45705810184045], [77.95276975311745, 16.457054803831813], [77.95300364345181, 16.4570515055628], [77.95323753373268, 16.457048207033406], [77.95347142396005, 16.45704490824363], [77.95347484263797, 16.457270606918485], [77.95370873308163, 16.4572673078206], [77.95371215208282, 16.45749300644217], [77.95394604274274, 16.457489707036164], [77.95417993334917, 16.45748640736977], [77.95418335294342, 16.457712105890305], [77.95418677259119, 16.4579378044053], [77.95419019229246, 16.458163502914747], [77.9539563008767, 16.458166802724378], [77.9539597203617, 16.458392501276027], [77.9539631399002, 16.45861819982213], [77.95419703185554, 16.45861489991701], [77.95420045171736, 16.45884059840982], [77.9539665594922, 16.45884389836269], [77.95396997913771, 16.4590695968977], [77.95420387163267, 16.45906629689709], [77.95420729160149, 16.45929199537881], [77.95397339883674, 16.459295295427165], [77.95373950601847, 16.459298595215113], [77.95350561314669, 16.459301894742644], [77.95350903235958, 16.459527593362047], [77.95374292550117, 16.459524293786775], [77.95374634503739, 16.4597499923529], [77.95398023839527, 16.459746692469473], [77.95419785355351, 16.459743622012407], [77.9542127621963, 16.459653016152995], [77.95421071162383, 16.459517693854984], [77.9543433770565, 16.459515821906], [77.95444326050463, 16.459425699357116], [77.95444118431274, 16.459288695070036], [77.95443776407411, 16.45906299663606], [77.95451816605846, 16.45906186209045], [77.95449150000002, 16.45895429999999], [77.95466866568024, 16.458862349857135], [77.95466823600711, 16.458833997722866], [77.95470736689072, 16.458833445517786], [77.954854, 16.4586877], [77.954899757494, 16.45867428493926], [77.95489870740052, 16.458604998639224], [77.9551325991418, 16.458601697692494], [77.95514809078003, 16.458601479047626], [77.9551545, 16.4585996], [77.9552594, 16.458497300000005], [77.95536432661552, 16.45845562084037], [77.9553630696723, 16.458372698225794], [77.95559696103673, 16.458369396806024], [77.95561033739857, 16.458369207988312], [77.955778, 16.458313700000005], [77.95583009751027, 16.458316304906845], [77.95606421625008, 16.45832801082207], [77.956078, 16.458328699999996], [77.95609596162558, 16.458362352447708], [77.9562093, 16.4585747], [77.9562060457162, 16.458586544641697], [77.9561685, 16.458723199999998], [77.95619280343615, 16.458812478009246], [77.95630547933524, 16.458810887115742], [77.95630890167877, 16.459036585173127], [77.9563093820797, 16.459068266559196], [77.956344, 16.459122699999995], [77.95654592966653, 16.45924007913007], [77.95657768186969, 16.459258536246097], [77.95658290440065, 16.45925846249809], [77.95677846455705, 16.459147282777526], [77.95677668554454, 16.459029979703303], [77.95699052927334, 16.459026959716603], [77.95701041289838, 16.459015830805033], [77.95724238541487, 16.458885995027227], [77.957341, 16.4588308], [77.9573956, 16.4589327], [77.95742756997336, 16.459020786973944], [77.95747836094151, 16.459020069545517], [77.95748055571863, 16.4591647525263], [77.95751074908775, 16.459245358221857], [77.95759486442799, 16.459469916179355], [77.95771910071875, 16.459468161163375], [77.95795299289665, 16.45946485690061], [77.95818688502095, 16.45946155237744], [77.95842077709169, 16.459458247593844], [77.95841735221278, 16.459232549977752], [77.95865124396012, 16.459229244981564], [77.95888513565386, 16.459225939724966], [77.95911902729401, 16.459222634207965], [77.95911560165926, 16.458996936729783], [77.95888171028892, 16.459000242198957], [77.95864781886499, 16.459003547407736], [77.95841392738745, 16.4590068523561], [77.95818003585633, 16.45901015704407], [77.95794614427163, 16.459013461471624], [77.95771225263336, 16.459016765638772], [77.95770882867102, 16.458791067868145], [77.95770540476225, 16.45856537009198], [77.95747151360999, 16.458568673903116], [77.95746809002459, 16.4583429760736], [77.95723419908855, 16.45834627957654], [77.95700030809896, 16.458349582819086], [77.95676641705579, 16.458352885801233], [77.95653252595908, 16.45835618852298], [77.9565291035064, 16.458130490496742], [77.95629521262592, 16.458133792910317], [77.95629179049656, 16.45790809483075], [77.95628836842076, 16.457682396745636], [77.95628494639853, 16.457456698654976], [77.95651883646966, 16.457453396384757], [77.95651541423118, 16.457227698336332], [77.956749303979, 16.457224395853515], [77.95674588152431, 16.456998697847332], [77.9569797709488, 16.45699539515193], [77.9569763482779, 16.456769697187987], [77.95697292566055, 16.456543999218507], [77.95673903677557, 16.456547301818333], [77.95673666953452, 16.456391184217264], [77.95650248310116, 16.45637485300685], [77.95626829666158, 16.45635852152772], [77.9560341102158, 16.456342189779868], [77.9559769, 16.456338199999998], [77.95580010309996, 16.456337688699055], [77.9557003, 16.456337399999995], [77.95556632105617, 16.456348038985766], [77.9553628, 16.456364199999996], [77.9553326463044, 16.456365472895815], [77.95509885682476, 16.456375341842556], [77.9548819, 16.4563845], [77.95486510627933, 16.45638778442015], [77.95468760000001, 16.45642249999999], [77.95463179449202, 16.456429188212756], [77.95439827927484, 16.45645717452462], [77.9542412, 16.456476], [77.9542321, 16.4564317], [77.9542343176966, 16.456356906256755], [77.95416283618049, 16.4563579146839], [77.95415941690727, 16.456132216130097], [77.95415599768758, 16.45590651757075], [77.95415257852137, 16.455680819005853], [77.95414915940869, 16.45545512043541], [77.95414575912817, 16.45523066148452], [77.95391190719823, 16.455236336015044], [77.95367805520912, 16.455242010286227], [77.95344420316086, 16.455247684298072], [77.95321035105341, 16.45525335805057], [77.95297649888681, 16.455259031543726], [77.95274264666106, 16.455264704777534], [77.95250879437616, 16.455270377751997], [77.9522749420321, 16.455276050467123], [77.95204108962889, 16.455281722922894], [77.95180723716656, 16.455287395119328], [77.95157338464509, 16.455293067056413], [77.95133953206447, 16.455298738734147], [77.95134249773531, 16.45549469409248]]]}, "properties": {"site_id": "SEG01", "name": "SEG01", "n_member_parcels": 256}}]}