{"type": "FeatureCollection", "features": [{"type": "Feature", "geometry": {"type": "Polygon", "coordinates": [[[77.95279367932093, 16.45863469544168], [77.95279709756393, 16.458860394220913], [77.95303099005658, 16.45885709557009], [77.95303440862287, 16.45908279429604], [77.95303782724265, 16.459308493016458], [77.95304124591593, 16.45953419173133], [77.95280735261385, 16.459537490525342], [77.9528107710708, 16.45976318928239], [77.95281418958123, 16.459988888033905], [77.95258029568603, 16.459992186662944], [77.95258371398013, 16.460217885456625], [77.95281760814515, 16.460214586779863], [77.95282102676255, 16.46044028552028], [77.95282444543345, 16.46066598425515], [77.95305834008464, 16.460662685222502], [77.95329223468235, 16.460659385929414], [77.95352612922657, 16.460656086375884], [77.9537600237173, 16.460652786561916], [77.95376344352101, 16.460878485100313], [77.95376686337825, 16.461104183633157], [77.95400075835515, 16.46110088346327], [77.95400417853574, 16.46132658194282], [77.95400759876983, 16.461552280416832], [77.95401101905745, 16.461777978885298], [77.95406265530276, 16.461777250253057], [77.9541565, 16.4617356], [77.95424405714368, 16.461718088597976], [77.9543655, 16.4616938], [77.95447669618383, 16.46163188213638], [77.95447538964247, 16.461545679104727], [77.95447196886866, 16.461319980726213], [77.95446854814838, 16.46109428234216], [77.95446778465751, 16.461043906896847], [77.95427391234816, 16.460871282336587], [77.9542312328816, 16.46087188459558], [77.95423063984775, 16.46083275228207], [77.95402433531339, 16.460649057305115], [77.9539939181545, 16.460649486487515], [77.95399349554557, 16.460621597311093], [77.9539415, 16.4605753], [77.95399186723321, 16.460514139796864], [77.95399049813443, 16.460423787991328], [77.95398707816787, 16.460198089489584], [77.95412339006823, 16.460196166162053], [77.95416062183182, 16.459969894085635], [77.95419785355351, 16.459743622012407], [77.95398023839527, 16.459746692469473], [77.95374634503739, 16.4597499923529], [77.95374292550117, 16.459524293786775], [77.95350903235958, 16.459527593362047], [77.95350561314669, 16.459301894742644], [77.95373950601847, 16.459298595215113], [77.95397339883674, 16.459295295427165], [77.95420729160149, 16.45929199537881], [77.95420387163267, 16.45906629689709], [77.95396997913771, 16.4590695968977], [77.9539665594922, 16.45884389836269], [77.95420045171736, 16.45884059840982], [77.95419703185554, 16.45861489991701], [77.9539631399002, 16.45861819982213], [77.95372924789133, 16.458621499466847], [77.95373266721354, 16.45884719805515], [77.95373608658926, 16.459072896637906], [77.95350219398729, 16.459076196117696], [77.95349877488138, 16.458850497487198], [77.95349535582898, 16.45862479885116], [77.95326146371312, 16.458628097975073], [77.953258044984, 16.45840239928576], [77.95302415308446, 16.458405698101533], [77.95279026113141, 16.45840899665691], [77.95279367932093, 16.45863469544168]]]}, "properties": {"site_id": "SEG03", "name": "SEG03", "n_member_parcels": 55}}]}