{"type": "FeatureCollection", "features": [{"type": "Feature", "geometry": {"type": "Polygon", "coordinates": [[[77.95138690829013, 16.45842878252073], [77.95115301596279, 16.458432079253292], [77.9511060464738, 16.458432741260815], [77.95091976930748, 16.45847803945506], [77.95068668474279, 16.458534719846615], [77.95068864690909, 16.45866437115136], [77.95047702658668, 16.45866735330019], [77.95054635359728, 16.45889212373997], [77.95069206272386, 16.45889007035997], [77.95069547859208, 16.45911576956303], [77.95069889451376, 16.459341468760552], [77.95069961418902, 16.45938901920253], [77.95075433583663, 16.459566434740704], [77.95082366365232, 16.459791204968084], [77.95093962057057, 16.459789570641043], [77.95094303692241, 16.460015269774235], [77.9511769311919, 16.460011972968196], [77.95117934227406, 16.46017124485167], [77.9512681, 16.460208299999998], [77.95126711540921, 16.460236448952337], [77.95125921536906, 16.46046230753847], [77.95125131535613, 16.460688166123063], [77.95140285429981, 16.460686029867535], [77.9514210497285, 16.460684011112217], [77.9515239, 16.4606726], [77.95165418768269, 16.460630716401603], [77.9516953, 16.460617499999998], [77.95188741637728, 16.460583425224378], [77.95188544870227, 16.460453478855623], [77.95211934329755, 16.460450180912435], [77.95235323783936, 16.46044688270882], [77.95235405226487, 16.4605006594562], [77.9523978, 16.460492900000002], [77.95247940000002, 16.4606039], [77.95251212346307, 16.460670389080654], [77.95259055072877, 16.460669283027364], [77.95259305820191, 16.46083483585165], [77.95262246213044, 16.460894579958097], [77.9527118, 16.461076100000003], [77.95272618607483, 16.461118864030805], [77.95283128293569, 16.46111738170826], [77.95306517812658, 16.461114082580153], [77.95329907326396, 16.4611107831916], [77.95353296834786, 16.4611074835426], [77.95352954876046, 16.46088178496202], [77.95376344352101, 16.460878485100313], [77.9537600237173, 16.460652786561916], [77.95352612922657, 16.460656086375884], [77.95329223468235, 16.460659385929414], [77.95305834008464, 16.460662685222502], [77.95282444543345, 16.46066598425515], [77.95282102676255, 16.46044028552028], [77.95281760814515, 16.460214586779863], [77.95258371398013, 16.460217885456625], [77.95258029568603, 16.459992186662944], [77.95281418958123, 16.459988888033905], [77.9528107710708, 16.45976318928239], [77.95280735261385, 16.459537490525342], [77.95304124591593, 16.45953419173133], [77.95303782724265, 16.459308493016458], [77.95303440862287, 16.45908279429604], [77.95303099005658, 16.45885709557009], [77.95279709756393, 16.458860394220913], [77.95279367932093, 16.45863469544168], [77.95279026113141, 16.45840899665691], [77.95302415308446, 16.458405698101533], [77.953258044984, 16.45840239928576], [77.95326146371312, 16.458628097975073], [77.95349535582898, 16.45862479885116], [77.95349877488138, 16.458850497487198], [77.95350219398729, 16.459076196117696], [77.95373608658926, 16.459072896637906], [77.95373266721354, 16.45884719805515], [77.95372924789133, 16.458621499466847], [77.9539631399002, 16.45861819982213], [77.9539597203617, 16.458392501276027], [77.9539563008767, 16.458166802724378], [77.95419019229246, 16.458163502914747], [77.95418677259119, 16.4579378044053], [77.95418335294342, 16.457712105890305], [77.95417993334917, 16.45748640736977], [77.95394604274274, 16.457489707036164], [77.95371215208282, 16.45749300644217], [77.95370873308163, 16.4572673078206], [77.95347484263797, 16.457270606918485], [77.95347142396005, 16.45704490824363], [77.95323753373268, 16.457048207033406], [77.95300364345181, 16.4570515055628], [77.95276975311745, 16.457054803831813], [77.95253586272963, 16.45705810184045], [77.95253928032848, 16.457283800706218], [77.9523053896174, 16.457287098502192], [77.95207149885283, 16.45729039603779], [77.95207491596561, 16.45751609499344], [77.95184102487781, 16.457519392316367], [77.95184444177426, 16.45774509131419], [77.95161055036321, 16.457748388424438], [77.9513766588987, 16.457751685274285], [77.95138007530905, 16.45797738436198], [77.95138349177286, 16.458203083444126], [77.95138690829013, 16.45842878252073]]]}, "properties": {"site_id": "SEG02", "name": "SEG02", "n_member_parcels": 154}}]}