{"type": "FeatureCollection", "features": [{"type": "Feature", "geometry": {"type": "Polygon", "coordinates": [[[77.95836620979105, 16.45586187198621], [77.9583583, 16.455864], [77.9583248, 16.455889400000004], [77.9582859, 16.455894200000003], [77.9582105, 16.4559434], [77.95813374304447, 16.455958850542064], [77.95813552151047, 16.456076086836315], [77.95790163343283, 16.456079390642348], [77.95790505702205, 16.456305088431723], [77.95813894536944, 16.456301784577878], [77.95837283366325, 16.45629848046368], [77.95836940953453, 16.456072782769926], [77.95836620979105, 16.45586187198621]]]}, "properties": {"site_id": "EMU_ANCHOR_Rock_Guild", "name": "EMU_ANCHOR_Rock_Guild", "n_member_parcels": 3}}]}