{"type": "FeatureCollection", "features": [{"type": "Feature", "geometry": {"type": "Polygon", "coordinates": [[[77.95352954876046, 16.46088178496202], [77.95353296834786, 16.4611074835426], [77.95329907326396, 16.4611107831916], [77.95306517812658, 16.461114082580153], [77.95283128293569, 16.46111738170826], [77.95283470176705, 16.461343080426488], [77.95283626191527, 16.46144607451985], [77.9528395, 16.4614557], [77.95287647059436, 16.461568238210766], [77.9529418, 16.4617671], [77.9529524685104, 16.4617929131467], [77.95307543559066, 16.461791178575034], [77.95307885485235, 16.4620168772289], [77.9530801418158, 16.46210182620865], [77.9531003, 16.4621506], [77.9533102, 16.462147599999998], [77.95331480734855, 16.462149296114493], [77.9534922, 16.4622146], [77.95348292252321, 16.462236923686625], [77.95355006708735, 16.462235976362333], [77.95355348699576, 16.462461674909648], [77.95338855121678, 16.462464001935903], [77.9533829, 16.4624776], [77.95343010451677, 16.46268916250193], [77.95355690695766, 16.46268737345141], [77.95356032697308, 16.462913071987625], [77.95356374704198, 16.463138770518295], [77.95379764450115, 16.463135470179193], [77.95403154190682, 16.463132169579612], [77.95402812129814, 16.46290647114442], [77.95402653993732, 16.462802128676582], [77.9540142, 16.4627162], [77.95400105957088, 16.462681106314665], [77.95391697571841, 16.46245654610471], [77.95378738364529, 16.462458374713762], [77.95378396346703, 16.46223267621419], [77.9537816575196, 16.462080504116493], [77.95375581441938, 16.462007326628164], [77.9537379, 16.461956599999997], [77.9537699, 16.461908599999994], [77.95377898510644, 16.46190414651711], [77.953777123271, 16.461781279198412], [77.95401101905745, 16.461777978885298], [77.95400759876983, 16.461552280416832], [77.95400417853574, 16.46132658194282], [77.95400075835515, 16.46110088346327], [77.95376686337825, 16.461104183633157], [77.95376344352101, 16.460878485100313], [77.95352954876046, 16.46088178496202]]]}, "properties": {"site_id": "SEG04", "name": "SEG04", "n_member_parcels": 30}}]}