{"type": "FeatureCollection", "features": [{"type": "Feature", "geometry": {"type": "Polygon", "coordinates": [[[77.95841735221278, 16.459232549977752], [77.95842077709169, 16.459458247593844], [77.95818688502095, 16.45946155237744], [77.95795299289665, 16.45946485690061], [77.95771910071875, 16.459468161163375], [77.95772252484181, 16.459693858917362], [77.95772458102343, 16.459829388436173], [77.95775586191589, 16.459919134080916], [77.9578341604575, 16.460143774022498], [77.95796326623599, 16.460141950002498], [77.95819715916976, 16.460138645335885], [77.95843105204993, 16.460135340408854], [77.95859547799161, 16.46013301689945], [77.9586042, 16.460131199999996], [77.95866478212119, 16.4601213111665], [77.95889814689141, 16.460083218812933], [77.95913151152614, 16.460045126213565], [77.9593369, 16.4600116], [77.9593369, 16.4599736], [77.95935316243595, 16.459896562524705], [77.95936252575402, 16.45985220713687], [77.95935977085043, 16.459670723274613], [77.95935634483868, 16.45944502585536], [77.95944875638413, 16.459443719639484], [77.95949655325751, 16.459217298201246], [77.9595062, 16.459171599999994], [77.95958437722764, 16.459055737954156], [77.95958338423917, 16.45899032501021], [77.95934949297602, 16.458993631000197], [77.95911560165926, 16.458996936729783], [77.95911902729401, 16.459222634207965], [77.95888513565386, 16.459225939724966], [77.95865124396012, 16.459229244981564], [77.95841735221278, 16.459232549977752]]]}, "properties": {"site_id": "EMU_ANCHOR_Wetland", "name": "EMU_ANCHOR_Wetland", "n_member_parcels": 28}}]}