{"type": "FeatureCollection", "features": [{"type": "Feature", "geometry": {"type": "Polygon", "coordinates": [[[73.81026733842423, 18.64867355664655, 0.0], [73.80998845044738, 18.64806084937232, 0.0], [73.80980748563958, 18.64755775947144, 0.0], [73.80971387289466, 18.64711829084501, 0.0], [73.80980715787223, 18.64700751468996, 0.0], [73.80975636282304, 18.64676574996014, 0.0], [73.80947747323872, 18.64598265026861, 0.0], [73.80928826664274, 18.64538116918069, 0.0], [73.80891670388398, 18.64544384854132, 0.0], [73.80852495275109, 18.64551656358649, 0.0], [73.80808606040894, 18.64555174247997, 0.0], [73.80803180038616, 18.64526514738065, 0.0], [73.8079280825172, 18.6447378272365, 0.0], [73.80852478704033, 18.64472467563406, 0.0], [73.80904552003194, 18.64468533440941, 0.0], [73.80889440964172, 18.64396366008702, 0.0], [73.80871664779752, 18.6440157029637, 0.0], [73.80830953262804, 18.64407503504311, 0.0], [73.80781531027205, 18.64413665692123, 0.0], [73.80773307791624, 18.64354416174043, 0.0], [73.80755443231445, 18.64285067408702, 0.0], [73.80733079013864, 18.6421592586082, 0.0], [73.8071795780377, 18.64162467999184, 0.0], [73.80699111532306, 18.64098126173214, 0.0], [73.8068196607343, 18.64036204017824, 0.0], [73.80665981913188, 18.63984922265958, 0.0], [73.80653107779509, 18.63934984542709, 0.0], [73.8063560523718, 18.63879061810863, 0.0], [73.80621319998826, 18.63842862918404, 0.0], [73.80607479725111, 18.63802294308426, 0.0], [73.80621665686519, 18.63798903132164, 0.0], [73.80631863287026, 18.63805176441596, 0.0], [73.80660758852244, 18.63821159121198, 0.0], [73.80696732041713, 18.63838266556571, 0.0], [73.80722542027807, 18.63861497856479, 0.0], [73.80755699660098, 18.63889604189001, 0.0], [73.80778803146649, 18.63906743567832, 0.0], [73.80790740804082, 18.6390404230097, 0.0], [73.80818830022861, 18.63891213264102, 0.0], [73.80851991912861, 18.63870786391531, 0.0], [73.80885185101928, 18.63855700821295, 0.0], [73.80931798086192, 18.63828558804308, 0.0], [73.80923202931248, 18.63778850739381, 0.0], [73.80914825357696, 18.6370810438213, 0.0], [73.80909875022408, 18.63647457045124, 0.0], [73.80832724222641, 18.63645212364518, 0.0], [73.8082297474507, 18.63632536163151, 0.0], [73.80802168014924, 18.63612285882795, 0.0], [73.8076819816045, 18.63570002384285, 0.0], [73.80758865705494, 18.63549230293036, 0.0], [73.80752809437578, 18.63515951969616, 0.0], [73.80788481357496, 18.63515982295028, 0.0], [73.808348261098, 18.63508993310581, 0.0], [73.80884515649522, 18.63504192990409, 0.0], [73.80946518011939, 18.63500801632467, 0.0], [73.81036773783053, 18.63487502968041, 0.0], [73.81067393154441, 18.63483932179429, 0.0], [73.811130410445, 18.63477772826354, 0.0], [73.8116200372983, 18.63470035326105, 0.0], [73.81230873446896, 18.63459822613143, 0.0], [73.81232941047845, 18.63494775520498, 0.0], [73.81234390479621, 18.63510429053818, 0.0], [73.81239357271632, 18.63519300752198, 0.0], [73.81303694796236, 18.63512351483358, 0.0], [73.81378553364382, 18.63500842071399, 0.0], [73.8142712512576, 18.63497843436521, 0.0], [73.81473558380559, 18.63495211572726, 0.0], [73.81529059871296, 18.63491976931755, 0.0], [73.81584033675543, 18.63489408163004, 0.0], [73.81583789739044, 18.63503878783672, 0.0], [73.81586860527186, 18.63530644831141, 0.0], [73.81568328405422, 18.63528727552358, 0.0], [73.81560181024611, 18.6351521531442, 0.0], [73.81552149204317, 18.63505804476421, 0.0], [73.8153268671225, 18.63505206806103, 0.0], [73.81517299627708, 18.63511524806644, 0.0], [73.81505610296033, 18.63520377797179, 0.0], [73.81500482858166, 18.63531290848488, 0.0], [73.81499463822048, 18.63546775813351, 0.0], [73.81469385994608, 18.63548827986145, 0.0], [73.8144126749099, 18.6355103805267, 0.0], [73.81383844067041, 18.63554813088435, 0.0], [73.81376468811156, 18.6355691425983, 0.0], [73.81361705166773, 18.63557150085656, 0.0], [73.8135210473912, 18.63559388825586, 0.0], [73.81333962526742, 18.63560199968295, 0.0], [73.8131517776872, 18.63562247433789, 0.0], [73.81291527360519, 18.63565377266636, 0.0], [73.8126214947046, 18.63566660322028, 0.0], [73.81237423659584, 18.63572247203323, 0.0], [73.81208839735105, 18.63572047344013, 0.0], [73.81183924648984, 18.63572936953663, 0.0], [73.81158235674413, 18.63576278056862, 0.0], [73.81134593965706, 18.63580042116671, 0.0], [73.81111056890987, 18.63580094700632, 0.0], [73.81088379297857, 18.63584420743706, 0.0], [73.81053454025268, 18.63591468719104, 0.0], [73.81043306310207, 18.63593268927398, 0.0], [73.81029265950306, 18.6359636659786, 0.0], [73.81001896975597, 18.63607442522865, 0.0], [73.80982290149709, 18.63616827614086, 0.0], [73.80977165037365, 18.63647318812015, 0.0], [73.80971341009294, 18.63694365517915, 0.0], [73.80968285112938, 18.63743664244121, 0.0], [73.80975982209372, 18.63745582889304, 0.0], [73.81007319946846, 18.63746658421124, 0.0], [73.81052024843177, 18.63749085953866, 0.0], [73.81127590174755, 18.63751268836118, 0.0], [73.81184164483778, 18.63752247377975, 0.0], [73.81247628457125, 18.63754372290113, 0.0], [73.81341928019366, 18.63757583483234, 0.0], [73.81429531979003, 18.63758565242549, 0.0], [73.81461080197205, 18.63760352591167, 0.0], [73.81532696299828, 18.63765015163217, 0.0], [73.81579371224953, 18.63767909323877, 0.0], [73.81606682728584, 18.63769551891845, 0.0], [73.81642338298504, 18.63761417584075, 0.0], [73.81665321052387, 18.63755585253801, 0.0], [73.81685856947271, 18.63752832732842, 0.0], [73.81710145490752, 18.63750097687656, 0.0], [73.81775099364893, 18.63737271487689, 0.0], [73.81809418768694, 18.63732860737685, 0.0], [73.8183803491608, 18.63728158626606, 0.0], [73.81868742073941, 18.63724136585812, 0.0], [73.81888046735587, 18.63730585476446, 0.0], [73.81912345413409, 18.63746814691719, 0.0], [73.81904542390762, 18.63753948703857, 0.0], [73.81890163239021, 18.63774102035572, 0.0], [73.81885836802542, 18.63806887233529, 0.0], [73.81884901251068, 18.63838215739089, 0.0], [73.81882814710195, 18.63866804781305, 0.0], [73.81881436767729, 18.63896965283876, 0.0], [73.81878688992852, 18.63960920548377, 0.0], [73.81878853978657, 18.63983116644609, 0.0], [73.81876539200842, 18.64023462722006, 0.0], [73.81875071179641, 18.64086155663992, 0.0], [73.81873273772737, 18.64107204009654, 0.0], [73.81862541186952, 18.64106724848045, 0.0], [73.81837165723331, 18.64106586160942, 0.0], [73.8181812759553, 18.64106769456818, 0.0], [73.81815885342448, 18.64126601642202, 0.0], [73.81815359863995, 18.64164239887556, 0.0], [73.81819718677943, 18.64200935709187, 0.0], [73.8180940300126, 18.64200754462656, 0.0], [73.81807218457428, 18.64220506376645, 0.0], [73.81804528877686, 18.64246809561152, 0.0], [73.81800186440468, 18.6429652967768, 0.0], [73.8179489382775, 18.64348409992947, 0.0], [73.81788380894189, 18.64414565574195, 0.0], [73.81802616993346, 18.64412556275936, 0.0], [73.81801475575666, 18.64425238386886, 0.0], [73.81816188414832, 18.64433962999135, 0.0], [73.8182155292597, 18.64442278464143, 0.0], [73.81828931166179, 18.64456044341691, 0.0], [73.81810588505341, 18.64469387336827, 0.0], [73.81794971936918, 18.64479965817899, 0.0], [73.81781643591567, 18.64489626640487, 0.0], [73.81764678169624, 18.64500669627809, 0.0], [73.81732525212527, 18.64522193934964, 0.0], [73.81715272653699, 18.64533559011596, 0.0], [73.81691046324015, 18.64549689052872, 0.0], [73.81677482643009, 18.64557883980639, 0.0], [73.81655862002269, 18.64571570156336, 0.0], [73.8163266481305, 18.6458691802289, 0.0], [73.81610010507261, 18.64603811219078, 0.0], [73.81581911457855, 18.64622679692359, 0.0], [73.81545870332556, 18.64645789487773, 0.0], [73.81531462335981, 18.64655323298198, 0.0], [73.81506901224968, 18.64671910621185, 0.0], [73.8148833054031, 18.64684848030799, 0.0], [73.81472373895708, 18.6469581029976, 0.0], [73.81446010127901, 18.64713418610124, 0.0], [73.81434500752357, 18.64721731869848, 0.0], [73.8141184036065, 18.64736453536293, 0.0], [73.81387768835117, 18.64751599995015, 0.0], [73.81350953102381, 18.64775687763571, 0.0], [73.81328866707787, 18.64790075049246, 0.0], [73.81306345278328, 18.64805312709005, 0.0], [73.8127203103867, 18.64827757639968, 0.0], [73.81259938329369, 18.64829941422049, 0.0], [73.81241747899222, 18.64833285352534, 0.0], [73.81223685681594, 18.6483637069458, 0.0], [73.8121036083879, 18.64842860847271, 0.0], [73.81194550956218, 18.64850206127721, 0.0], [73.81176609438077, 18.6485903610819, 0.0], [73.81150951905393, 18.64872554639837, 0.0], [73.81125274324762, 18.648850405537, 0.0], [73.8109876098389, 18.64898058078649, 0.0], [73.8108528004142, 18.64904616075641, 0.0], [73.81057411505554, 18.64919412228748, 0.0], [73.81026733842423, 18.64867355664655, 0.0]]]}, "properties": {"name": "aoi", "role": "candidate", "attr_source": "Pune-Pimpri-eco_zones_1.kml", "area_ha": 126.655}}]}